{"type":"FeatureCollection","features":[{"type":"Feature","properties":{"name":"Bengo","code":"26408823B1629995979425","iso":"AGO"},"geometry":{"type":"MultiPolygon","coordinates":[[[[13.394,-8.7508],[13.3964,-8.7505],[13.3975,-8.7485],[13.3949,-8.749],[13.394,-8.7508]]],[[[13.1271,-7.8374],[13.1237,-7.8374],[13.1237,-7.8393],[13.1268,-7.8399],[13.1271,-7.8374]]],[[[13.1398,-7.8293],[13.1376,-7.8299],[13.1371,-7.8315],[13.1393,-7.831],[13.1398,-7.8293]]],[[[13.116,-7.8218],[13.1149,-7.8251],[13.1171,-7.8274],[13.1179,-7.826],[13.116,-7.8218]]],[[[13.124,-7.8129],[13.1224,-7.8135],[13.1221,-7.816],[13.126,-7.8157],[13.1262,-7.8138],[13.124,-7.8129]]],[[[13.8249,-7.6198],[13.7292,-7.6751],[13.6563,-7.6764],[13.6265,-7.7022],[13.5365,-7.7185],[13.513,-7.7363],[13.466,-7.7363],[13.3996,-7.6916],[13.3132,-7.7155],[13.2914,-7.7484],[13.2531,-7.7336],[13.2175,-7.7672],[13.1786,-7.7833],[13.0879,-7.8011],[13.1085,-7.8363],[13.1043,-7.8185],[13.1218,-7.8115],[13.1532,-7.8224],[13.1396,-7.8354],[13.1465,-7.8449],[13.1293,-7.8418],[13.1318,-7.8524],[13.0962,-7.8382],[13.1463,-7.9115],[13.1521,-7.9485],[13.1882,-7.9924],[13.1787,-7.9974],[13.2132,-8.0737],[13.2668,-8.1357],[13.2643,-8.174],[13.3599,-8.3171],[13.3943,-8.3926],[13.3851,-8.4649],[13.3457,-8.4715],[13.3693,-8.536],[13.3721,-8.5843],[13.4143,-8.6482],[13.399,-8.7444],[13.4377,-8.7589],[13.4721,-8.7489],[13.496,-8.7739],[13.5136,-8.7732],[13.5211,-8.8097],[13.5697,-8.8419],[13.6219,-8.8271],[13.7606,-8.9088],[13.7837,-8.9041],[13.8503,-8.9363],[13.9675,-8.9272],[14.0122,-8.9459],[14.0602,-8.9183],[14.0906,-8.9224],[14.1082,-8.8907],[14.1995,-8.8851],[14.2835,-8.8501],[14.3379,-8.8896],[14.3877,-8.8946],[14.3932,-8.9347],[14.4595,-8.9118],[14.527,-8.8523],[14.6044,-8.8544],[14.7481,-8.8214],[14.8215,-8.8277],[14.866,-8.8085],[14.908,-8.7604],[14.985,-8.6183],[14.9915,-8.5066],[14.9404,-8.3792],[14.8683,-8.3495],[14.8214,-8.399],[14.7807,-8.4123],[14.7058,-8.3922],[14.6685,-8.3984],[14.6358,-8.2789],[14.6519,-8.2053],[14.72,-8.0902],[14.7238,-7.9018],[14.7008,-7.8826],[14.652,-7.8765],[14.5037,-7.9076],[14.4333,-7.9007],[14.3152,-7.8428],[14.2375,-7.7458],[14.1552,-7.6801],[14.1558,-7.6582],[14.1364,-7.6354],[13.9786,-7.6244],[13.8666,-7.6307],[13.8249,-7.6198]]]]}},{"type":"Feature","properties":{"name":"Benguela","code":"26408823B75281746675067","iso":"AGO"},"geometry":{"type":"MultiPolygon","coordinates":[[[[12.5224,-13.4521],[12.5232,-13.4504],[12.521,-13.4513],[12.5212,-13.4526],[12.5224,-13.4521]]],[[[12.5429,-13.4187],[12.5435,-13.4168],[12.5418,-13.4193],[12.5429,-13.4187]]],[[[12.9643,-12.9343],[12.9632,-12.9362],[12.9649,-12.9365],[12.9643,-12.9343]]],[[[12.9504,-12.8968],[12.9493,-12.8974],[12.9507,-12.8996],[12.9504,-12.8968]]],[[[12.9479,-12.8896],[12.9485,-12.8951],[12.9499,-12.896],[12.9479,-12.8896]]],[[[15.0281,-12.207],[14.9821,-12.1975],[14.9763,-12.1506],[14.955,-12.1356],[14.838,-12.0795],[14.7679,-12.1031],[14.6725,-12.0915],[14.6122,-11.9724],[14.4956,-11.8322],[14.4466,-11.8344],[14.3745,-11.8742],[14.3523,-11.8894],[14.2953,-11.9814],[14.2448,-12.0028],[14.1964,-11.9353],[14.1217,-11.9015],[14.1062,-11.8798],[14.092,-11.7829],[14.0425,-11.772],[13.9732,-11.7939],[13.9036,-11.7631],[13.7979,-11.7705],[13.7632,-11.9565],[13.726,-11.9896],[13.7085,-12.1046],[13.6735,-12.1457],[13.6521,-12.2443],[13.5751,-12.3476],[13.5485,-12.3457],[13.584,-12.3149],[13.516,-12.3721],[13.4774,-12.4546],[13.4851,-12.4768],[13.4743,-12.5099],[13.3426,-12.6132],[13.3204,-12.6093],[13.3018,-12.5801],[13.2649,-12.5835],[13.2665,-12.6004],[13.2349,-12.6226],[13.2024,-12.6118],[13.2043,-12.5982],[13.1918,-12.6021],[13.1504,-12.636],[13.1399,-12.6696],[13.0118,-12.7715],[12.9704,-12.8199],[12.9401,-12.834],[12.9399,-12.8688],[12.9788,-12.9826],[12.9657,-12.9824],[12.9421,-13.0182],[12.9179,-13.0307],[12.876,-13.1049],[12.841,-13.1154],[12.829,-13.139],[12.8193,-13.1301],[12.7796,-13.1546],[12.7949,-13.1621],[12.7835,-13.1951],[12.7504,-13.199],[12.7485,-13.2176],[12.7293,-13.2324],[12.7057,-13.211],[12.7065,-13.2374],[12.6715,-13.2579],[12.6549,-13.2449],[12.6446,-13.2837],[12.6593,-13.289],[12.6385,-13.2899],[12.6515,-13.3404],[12.6135,-13.359],[12.5879,-13.3976],[12.5649,-13.4115],[12.551,-13.4012],[12.5457,-13.4213],[12.5307,-13.4185],[12.5249,-13.451],[12.539,-13.4568],[12.5321,-13.4987],[12.5485,-13.5037],[12.5429,-13.524],[12.6165,-13.5289],[12.7333,-13.5527],[12.779,-13.5745],[12.8306,-13.5756],[12.8946,-13.6216],[13.0556,-13.5621],[13.0729,-13.5165],[13.0859,-13.5144],[13.2868,-13.5596],[13.309,-13.5719],[13.3154,-13.5956],[13.2926,-13.6422],[13.295,-13.6869],[13.3516,-13.757],[13.3823,-13.8282],[13.4064,-13.8432],[13.4512,-13.818],[13.5419,-13.854],[13.6881,-13.8013],[13.7114,-13.8035],[13.757,-13.8399],[13.8514,-13.8551],[13.9467,-13.8207],[14.0453,-13.8559],[14.0945,-13.8429],[14.1683,-13.8628],[14.3144,-13.8753],[14.3635,-13.8642],[14.4624,-13.6669],[14.4852,-13.6592],[14.4822,-13.6153],[14.5069,-13.6014],[14.6567,-13.6661],[14.8052,-13.6183],[14.918,-13.5072],[14.9843,-13.533],[15.0568,-13.491],[15.097,-13.4919],[15.1165,-13.4038],[15.0738,-13.3869],[15.0511,-13.3422],[14.9843,-13.3124],[14.9109,-13.188],[14.9371,-13.1166],[14.92,-13.0197],[14.848,-12.9002],[14.8472,-12.8541],[14.8093,-12.7797],[14.8093,-12.7542],[14.8254,-12.7333],[14.7994,-12.6839],[14.8949,-12.6247],[14.9313,-12.5772],[14.9818,-12.555],[15.0575,-12.5433],[15.0758,-12.5169],[15.0504,-12.4736],[15.0634,-12.4528],[15.0247,-12.3589],[15.0281,-12.207]]]]}},{"type":"Feature","properties":{"name":"Bié","code":"26408823B27508642812365","iso":"AGO"},"geometry":{"type":"Polygon","coordinates":[[[18.7674,-10.9714],[18.775,-10.9924],[18.7536,-11.0658],[18.7614,-11.1133],[18.7903,-11.1536],[18.77,-11.2305],[18.8344,-11.2911],[18.8478,-11.3505],[18.8369,-11.3717],[18.7465,-11.3622],[18.6191,-11.4003],[18.5351,-11.439],[18.4532,-11.5226],[18.4094,-11.5454],[18.3345,-11.544],[18.2837,-11.5221],[18.1555,-11.5538],[18.0848,-11.5402],[18.0482,-11.5591],[18.0046,-11.5191],[17.9608,-11.5294],[17.9147,-11.521],[17.9044,-11.5035],[17.9067,-11.4549],[17.885,-11.4077],[17.8298,-11.3608],[17.8462,-11.4285],[17.8451,-11.5372],[17.7496,-11.6175],[17.7472,-11.6386],[17.725,-11.6616],[17.6792,-11.6739],[17.6523,-11.718],[17.6082,-11.723],[17.5937,-11.7358],[17.5524,-11.7042],[17.4986,-11.6881],[17.5213,-11.6417],[17.4822,-11.5453],[17.4969,-11.518],[17.531,-11.4958],[17.523,-11.4772],[17.4966,-11.4919],[17.4897,-11.4847],[17.4975,-11.4458],[17.5138,-11.4344],[17.5213,-11.378],[17.4725,-11.3158],[17.4594,-11.24],[17.4181,-11.2353],[17.3857,-11.2119],[17.4062,-11.2047],[17.4148,-11.1855],[17.4486,-11.178],[17.4522,-11.0975],[17.417,-11.0363],[17.3859,-11.0111],[17.3795,-10.9405],[17.2907,-10.8627],[17.2283,-10.8664],[17.1784,-10.8516],[17.1623,-10.8136],[17.1168,-10.8139],[17.1029,-10.8411],[17.0927,-10.8389],[17.0061,-10.7856],[16.9046,-10.7609],[16.7889,-10.7717],[16.7199,-10.7023],[16.6663,-10.6845],[16.658,-10.6548],[16.628,-10.6495],[16.6189,-10.6176],[16.6402,-10.5973],[16.6087,-10.5699],[16.585,-10.5934],[16.595,-10.6217],[16.5645,-10.6742],[16.506,-10.699],[16.4705,-10.7568],[16.3197,-10.8368],[16.2146,-11.0024],[16.1697,-11.0049],[16.0984,-10.9702],[16.0524,-10.9983],[16.0258,-10.9963],[15.957,-10.9478],[15.9118,-11.1114],[15.792,-11.2778],[15.7981,-11.3495],[15.7543,-11.4447],[15.8231,-11.4786],[15.8477,-11.473],[15.8963,-11.4955],[15.9925,-11.4814],[16.0349,-11.4416],[16.061,-11.4347],[16.1062,-11.4722],[16.1791,-11.4697],[16.2005,-11.4913],[16.2939,-11.4852],[16.3216,-11.6152],[16.346,-11.6563],[16.3918,-11.6807],[16.3924,-11.7096],[16.4736,-11.7554],[16.4875,-11.8215],[16.5695,-11.8921],[16.5867,-11.9296],[16.5823,-11.9776],[16.5215,-12.0568],[16.4912,-12.1485],[16.3497,-12.2568],[16.3419,-12.2896],[16.3946,-12.3851],[16.3835,-12.4687],[16.3765,-12.4921],[16.3038,-12.5385],[16.3063,-12.5846],[16.3176,-12.609],[16.3606,-12.6362],[16.37,-12.6885],[16.5102,-12.7525],[16.5092,-12.9151],[16.5451,-13.2212],[16.5194,-13.4207],[16.5374,-13.4979],[16.527,-13.6498],[16.475,-13.8129],[16.488,-13.8673],[16.4782,-14.0115],[16.5004,-14.0004],[16.6206,-14.0084],[16.7163,-13.9676],[16.8331,-14.034],[16.907,-13.9837],[16.9372,-13.9879],[16.9647,-14.0006],[17.0168,-14.069],[17.0381,-14.1684],[17.1372,-14.2376],[17.1824,-14.2434],[17.2148,-14.2859],[17.3114,-14.3145],[17.3206,-14.3098],[17.3106,-14.2806],[17.3487,-14.2203],[17.3537,-14.1484],[17.4189,-14.1014],[17.4714,-14.0267],[17.5092,-14.0081],[17.548,-14.0128],[17.598,-13.9939],[17.6452,-13.9934],[17.7798,-13.9056],[17.8071,-13.8517],[17.8129,-13.762],[17.7869,-13.6872],[17.8582,-13.6856],[17.9065,-13.6728],[17.9309,-13.6525],[17.9556,-13.5731],[17.941,-13.5228],[17.9757,-13.4678],[17.9368,-13.3947],[18.0035,-13.3375],[18.0823,-13.31],[18.0834,-13.2419],[18.0313,-13.1511],[18.0682,-13.1055],[18.0552,-13.0786],[18.1262,-13.0472],[18.1354,-13.0033],[18.1826,-12.9747],[18.1914,-12.9522],[18.1498,-12.8613],[18.1496,-12.8352],[18.174,-12.8141],[18.1876,-12.8363],[18.2642,-12.7641],[18.3103,-12.7399],[18.3183,-12.7188],[18.3081,-12.6719],[18.4205,-12.5421],[18.4188,-12.4713],[18.4388,-12.4505],[18.5417,-12.3563],[18.5967,-12.3482],[18.6638,-12.2796],[18.7174,-12.2693],[18.7351,-12.2482],[18.7418,-12.2221],[18.7204,-12.2032],[18.7213,-12.1798],[18.8711,-12.0395],[18.8736,-12.0026],[18.8442,-11.954],[18.8497,-11.9037],[18.8911,-11.8665],[18.923,-11.7775],[18.9721,-11.787],[18.9865,-11.7645],[18.9571,-11.7028],[19.0484,-11.6883],[19.0706,-11.6667],[19.0961,-11.5361],[19.1616,-11.4627],[19.1897,-11.4557],[19.2115,-11.3427],[19.2473,-11.2938],[19.2123,-11.2246],[19.09,-11.2038],[19.0106,-11.1119],[18.7674,-10.9714]]]}},{"type":"Feature","properties":{"name":"Cabinda","code":"26408823B25821416016710","iso":"AGO"},"geometry":{"type":"Polygon","coordinates":[[[12.795,-4.4115],[12.7699,-4.3883],[12.7573,-4.3949],[12.7583,-4.4173],[12.7211,-4.3996],[12.7813,-4.4884],[12.7654,-4.5072],[12.6997,-4.4778],[12.6768,-4.5008],[12.6734,-4.5291],[12.6536,-4.5324],[12.6635,-4.5394],[12.6488,-4.5408],[12.6438,-4.5623],[12.5636,-4.5634],[12.5583,-4.5825],[12.5373,-4.5888],[12.4871,-4.5651],[12.4538,-4.5879],[12.4517,-4.6029],[12.3929,-4.6093],[12.3989,-4.666],[12.3738,-4.7045],[12.3706,-4.7358],[12.3313,-4.7905],[12.3017,-4.8067],[12.2981,-4.794],[12.2812,-4.8046],[12.2636,-4.7975],[12.2412,-4.8144],[12.2429,-4.7982],[12.2085,-4.8033],[12.1976,-4.7908],[12.1662,-4.8962],[12.0138,-5.0329],[12.1285,-5.1985],[12.1099,-5.1565],[12.1399,-5.1712],[12.1474,-5.191],[12.1332,-5.199],[12.1393,-5.1904],[12.1257,-5.189],[12.1418,-5.2174],[12.1324,-5.2424],[12.1785,-5.3149],[12.1676,-5.3304],[12.2229,-5.4643],[12.2296,-5.5446],[12.211,-5.5579],[12.1824,-5.5501],[12.1457,-5.639],[12.1543,-5.6915],[12.2021,-5.7742],[12.2191,-5.7525],[12.2787,-5.7419],[12.5284,-5.7421],[12.5331,-5.1448],[12.518,-5.1305],[12.4974,-5.1416],[12.4705,-5.1207],[12.4768,-5.1089],[12.4615,-5.1006],[12.4714,-5.0895],[12.4639,-5.0804],[12.4938,-5.0684],[12.5031,-5.0475],[12.5259,-5.0474],[12.53,-5.059],[12.5533,-5.0374],[12.5645,-5.0477],[12.585,-5.0228],[12.6085,-5.0241],[12.627,-4.9489],[12.6512,-4.9455],[12.669,-4.9604],[12.7204,-4.9506],[12.7283,-4.9111],[12.7605,-4.8692],[12.7861,-4.8751],[12.7964,-4.8497],[12.8127,-4.8472],[12.8085,-4.8254],[12.8537,-4.7504],[12.8687,-4.7642],[12.8706,-4.7496],[12.8962,-4.7351],[12.9228,-4.7477],[12.9437,-4.7209],[12.9824,-4.7051],[13.0079,-4.7019],[13.03,-4.7154],[13.0513,-4.6748],[13.0797,-4.6897],[13.1027,-4.684],[13.0564,-4.6472],[12.9387,-4.5018],[12.8441,-4.4155],[12.8333,-4.4181],[12.8333,-4.4427],[12.795,-4.4115]]]}},{"type":"Feature","properties":{"name":"Cunene","code":"26408823B93569072225888","iso":"AGO"},"geometry":{"type":"Polygon","coordinates":[[[16.7484,-15.1623],[16.6354,-15.1629],[16.54,-15.146],[16.418,-15.1893],[16.3716,-15.2246],[16.216,-15.4032],[16.1396,-15.389],[16.0386,-15.4149],[15.8945,-15.4063],[15.8345,-15.3843],[15.7659,-15.3977],[15.7207,-15.3894],[15.6476,-15.4383],[15.6162,-15.4369],[15.4716,-15.5424],[15.3886,-15.7091],[15.3266,-15.7694],[15.2558,-15.9302],[15.1956,-15.995],[15.1614,-16.0627],[15.0414,-16.0433],[15.0218,-15.9763],[14.955,-15.9224],[14.6684,-15.8561],[14.5967,-15.8672],[14.5267,-15.8494],[14.3756,-16.0071],[14.2601,-16.0635],[14.2387,-16.0868],[14.1059,-16.1131],[14.0301,-16.2014],[13.9862,-16.1939],[13.9275,-16.137],[13.8966,-16.142],[13.7732,-16.3042],[13.6722,-16.3581],[13.6261,-16.3725],[13.5806,-16.3439],[13.4825,-16.2483],[13.4015,-16.3378],[13.3823,-16.3392],[13.3528,-16.3656],[13.3417,-16.3517],[13.3258,-16.382],[13.2942,-16.3836],[13.2716,-16.4173],[13.2254,-16.4331],[13.2026,-16.4673],[13.2433,-16.5048],[13.2623,-16.5498],[13.2262,-16.5995],[13.1553,-16.6403],[13.135,-16.6851],[13.1427,-16.7092],[13.3079,-16.8732],[13.3351,-16.9221],[13.3442,-16.9773],[13.4632,-17.0113],[13.4775,-17.0261],[13.5217,-17.0916],[13.5133,-17.1366],[13.5703,-17.1643],[13.6799,-17.2465],[13.8997,-17.3617],[13.9309,-17.4159],[13.9557,-17.433],[13.9948,-17.4331],[14.016,-17.4147],[14.1021,-17.4387],[14.1162,-17.4237],[14.1378,-17.4322],[14.2126,-17.41],[14.2161,-17.3916],[17.2747,-17.39],[17.303,-17.2463],[17.2209,-16.9917],[17.2213,-16.8786],[17.2334,-16.7517],[17.2921,-16.6431],[17.3178,-16.5445],[17.387,-16.4778],[17.4173,-16.3778],[17.4185,-16.2545],[17.3851,-16.069],[17.3891,-15.9112],[17.3664,-15.8662],[17.2978,-15.8067],[17.2277,-15.6931],[17.1656,-15.5595],[17.0948,-15.5418],[17.074,-15.5187],[17.0585,-15.4504],[17.0397,-15.4612],[17.0252,-15.4334],[16.9681,-15.4179],[16.922,-15.3801],[16.9179,-15.347],[16.8491,-15.299],[16.8494,-15.2584],[16.7922,-15.2312],[16.775,-15.207],[16.7851,-15.1782],[16.7484,-15.1623]]]}},{"type":"Feature","properties":{"name":"Huambo","code":"26408823B12021631761277","iso":"AGO"},"geometry":{"type":"Polygon","coordinates":[[[15.1165,-13.4038],[15.1604,-13.4208],[15.3041,-13.3844],[15.3263,-13.3941],[15.3676,-13.4638],[15.3777,-13.6096],[15.3899,-13.6313],[15.4143,-13.6402],[15.507,-13.6363],[15.5071,-13.7635],[15.5291,-13.7674],[15.6271,-13.7216],[15.6635,-13.6571],[15.759,-13.6182],[15.9645,-13.394],[16.0111,-13.3965],[16.0538,-13.4421],[16.079,-13.451],[16.1484,-13.4393],[16.1967,-13.3643],[16.2498,-13.3365],[16.2745,-13.3329],[16.2853,-13.3585],[16.3111,-13.3715],[16.3871,-13.3485],[16.4556,-13.3712],[16.5311,-13.3596],[16.5451,-13.2212],[16.5345,-13.1907],[16.5451,-13.1584],[16.518,-13.0246],[16.5102,-12.7525],[16.37,-12.6885],[16.3606,-12.6362],[16.3176,-12.609],[16.3063,-12.5846],[16.3038,-12.5385],[16.3765,-12.4921],[16.3835,-12.4687],[16.3946,-12.3851],[16.3419,-12.2896],[16.3497,-12.2568],[16.4912,-12.1485],[16.5215,-12.0568],[16.5823,-11.9776],[16.5867,-11.9296],[16.5695,-11.8921],[16.4875,-11.8215],[16.4736,-11.7554],[16.3924,-11.7096],[16.3918,-11.6807],[16.346,-11.6563],[16.3216,-11.6152],[16.2939,-11.4852],[16.2005,-11.4913],[16.1791,-11.4697],[16.1062,-11.4722],[16.061,-11.4347],[16.0349,-11.4416],[15.9925,-11.4814],[15.8963,-11.4955],[15.8477,-11.473],[15.8231,-11.4786],[15.7543,-11.4447],[15.7404,-11.4683],[15.7171,-11.4784],[15.5277,-11.5087],[15.4828,-11.5387],[15.4096,-11.554],[15.366,-11.5881],[15.3582,-11.6623],[15.3854,-11.7014],[15.3884,-11.7476],[15.4125,-11.7653],[15.3989,-11.8303],[15.3745,-11.8475],[15.3928,-11.8709],[15.3747,-11.9425],[15.3894,-11.967],[15.314,-11.9625],[15.2563,-12.0167],[15.2319,-12.007],[15.1805,-12.0375],[15.1192,-12.0448],[15.0957,-12.0623],[15.0281,-12.207],[15.0231,-12.312],[15.0247,-12.3589],[15.0634,-12.4528],[15.0504,-12.4736],[15.0758,-12.5169],[15.0575,-12.5433],[14.9818,-12.555],[14.9313,-12.5772],[14.8949,-12.6247],[14.7994,-12.6839],[14.8254,-12.7333],[14.8093,-12.7542],[14.8093,-12.7797],[14.8472,-12.8541],[14.848,-12.9002],[14.92,-13.0197],[14.9371,-13.1166],[14.9109,-13.188],[14.9843,-13.3124],[15.0511,-13.3422],[15.0738,-13.3869],[15.1165,-13.4038]]]}},{"type":"Feature","properties":{"name":"Huíla","code":"26408823B98547910937265","iso":"AGO"},"geometry":{"type":"Polygon","coordinates":[[[13.5706,-13.8479],[13.5885,-13.902],[13.6321,-13.931],[13.6393,-13.9546],[13.5797,-14.0792],[13.6176,-14.1736],[13.6011,-14.2242],[13.6108,-14.2483],[13.6344,-14.2642],[13.6569,-14.2525],[13.6805,-14.2628],[13.6723,-14.312],[13.686,-14.4389],[13.6303,-14.5127],[13.6249,-14.6074],[13.5747,-14.7218],[13.4402,-14.7939],[13.3482,-14.8741],[13.3001,-14.8813],[13.2595,-14.924],[13.2846,-15.0224],[13.2359,-15.0943],[13.2952,-15.1621],[13.2874,-15.1857],[13.2126,-15.2274],[13.2145,-15.2507],[13.2373,-15.2707],[13.2856,-15.2579],[13.3144,-15.2635],[13.311,-15.3224],[13.332,-15.3471],[13.3804,-15.3288],[13.391,-15.3077],[13.4187,-15.3141],[13.4342,-15.3599],[13.421,-15.4082],[13.436,-15.4307],[13.4837,-15.4672],[13.5597,-15.495],[13.5534,-15.7341],[13.6065,-15.8277],[13.5282,-15.963],[13.4908,-16.0544],[13.5006,-16.0994],[13.541,-16.1711],[13.5396,-16.1925],[13.5087,-16.2347],[13.4825,-16.2483],[13.5806,-16.3439],[13.6261,-16.3725],[13.7732,-16.3042],[13.8966,-16.142],[13.9275,-16.137],[13.9862,-16.1939],[14.0301,-16.2014],[14.1059,-16.1131],[14.2387,-16.0868],[14.2601,-16.0635],[14.3756,-16.0071],[14.5267,-15.8494],[14.5967,-15.8672],[14.6684,-15.8561],[14.955,-15.9224],[15.0218,-15.9763],[15.0414,-16.0433],[15.1614,-16.0627],[15.1956,-15.995],[15.2558,-15.9302],[15.3266,-15.7694],[15.3886,-15.7091],[15.4716,-15.5424],[15.6162,-15.4369],[15.6476,-15.4383],[15.7207,-15.3894],[15.7659,-15.3977],[15.8345,-15.3843],[15.8945,-15.4063],[16.0386,-15.4149],[16.1396,-15.389],[16.216,-15.4032],[16.3716,-15.2246],[16.418,-15.1893],[16.54,-15.146],[16.6354,-15.1629],[16.7484,-15.1623],[16.6993,-15.0998],[16.7152,-15.0643],[16.7094,-15.0298],[16.655,-14.9601],[16.6626,-14.8779],[16.6482,-14.824],[16.6077,-14.7868],[16.6325,-14.7284],[16.5762,-14.7129],[16.5831,-14.6909],[16.5604,-14.6884],[16.5068,-14.6393],[16.5123,-14.4368],[16.4826,-14.3715],[16.4652,-14.2687],[16.4872,-14.2343],[16.502,-14.1507],[16.4781,-14.0796],[16.4912,-14.0387],[16.4743,-14.0012],[16.488,-13.8673],[16.475,-13.8129],[16.527,-13.6498],[16.5374,-13.4979],[16.5194,-13.4207],[16.5311,-13.3596],[16.4556,-13.3712],[16.3871,-13.3485],[16.3111,-13.3715],[16.2853,-13.3585],[16.2745,-13.3329],[16.2498,-13.3365],[16.1967,-13.3643],[16.1484,-13.4393],[16.079,-13.451],[16.0538,-13.4421],[16.0111,-13.3965],[15.9645,-13.394],[15.759,-13.6182],[15.6635,-13.6571],[15.6271,-13.7216],[15.5291,-13.7674],[15.5071,-13.7635],[15.507,-13.6363],[15.3899,-13.6313],[15.3736,-13.5855],[15.3676,-13.4638],[15.3454,-13.4163],[15.3041,-13.3844],[15.1604,-13.4208],[15.1165,-13.4038],[15.097,-13.4919],[15.0568,-13.491],[14.9843,-13.533],[14.918,-13.5072],[14.8052,-13.6183],[14.6803,-13.6611],[14.6567,-13.6661],[14.5069,-13.6014],[14.4822,-13.6153],[14.4852,-13.6592],[14.4624,-13.6669],[14.3791,-13.8397],[14.3635,-13.8642],[14.3413,-13.8711],[14.2205,-13.8698],[14.0945,-13.8429],[14.0453,-13.8559],[13.9467,-13.8207],[13.8514,-13.8551],[13.757,-13.8399],[13.7114,-13.8035],[13.6881,-13.8013],[13.5706,-13.8479]]]}},{"type":"Feature","properties":{"name":"Cuando Cubango","code":"26408823B90515543724533","iso":"AGO"},"geometry":{"type":"Polygon","coordinates":[[[16.4782,-14.0115],[16.4912,-14.0387],[16.4781,-14.0796],[16.502,-14.1507],[16.4872,-14.2343],[16.4652,-14.2687],[16.4826,-14.3715],[16.5123,-14.4368],[16.5068,-14.6393],[16.5604,-14.6884],[16.5831,-14.6909],[16.5762,-14.7129],[16.6325,-14.7284],[16.6077,-14.7868],[16.6482,-14.824],[16.6626,-14.8779],[16.6584,-14.9698],[16.7094,-15.0298],[16.7152,-15.0643],[16.6993,-15.0998],[16.7484,-15.1623],[16.7851,-15.1782],[16.775,-15.207],[16.7922,-15.2312],[16.8494,-15.2584],[16.8491,-15.299],[16.9179,-15.347],[16.922,-15.3801],[16.9681,-15.4179],[17.0252,-15.4334],[17.0397,-15.4612],[17.0585,-15.4504],[17.074,-15.5187],[17.0948,-15.5418],[17.1656,-15.5595],[17.2277,-15.6931],[17.2978,-15.8067],[17.3664,-15.8662],[17.3891,-15.9112],[17.3851,-16.069],[17.4185,-16.2545],[17.4173,-16.3778],[17.387,-16.4778],[17.3178,-16.5445],[17.2921,-16.6431],[17.2334,-16.7517],[17.2213,-16.8786],[17.2209,-16.9917],[17.303,-17.2463],[17.2747,-17.39],[18.4215,-17.3897],[18.4753,-17.449],[18.4799,-17.4836],[18.4981,-17.4863],[18.537,-17.5231],[18.5349,-17.5394],[18.5634,-17.5817],[18.5984,-17.5835],[18.6187,-17.6002],[18.6221,-17.6331],[18.7368,-17.7181],[18.7444,-17.7377],[18.7757,-17.7353],[18.7906,-17.7662],[18.8378,-17.7727],[18.8613,-17.8029],[18.8786,-17.8003],[18.9038,-17.8196],[19.1122,-17.836],[19.1362,-17.8083],[19.1651,-17.8157],[19.1747,-17.8058],[19.2247,-17.8265],[19.2467,-17.8159],[19.296,-17.8377],[19.3288,-17.8336],[19.3372,-17.8395],[19.3282,-17.8546],[19.3697,-17.8467],[19.4019,-17.8646],[19.4615,-17.8605],[19.5042,-17.8714],[19.5103,-17.8602],[19.5488,-17.8751],[19.5704,-17.873],[19.5821,-17.8571],[19.6097,-17.8671],[19.6316,-17.8507],[19.673,-17.8489],[19.7065,-17.8847],[19.7086,-17.8738],[19.7261,-17.8769],[19.7522,-17.9104],[19.8092,-17.8678],[19.8646,-17.8832],[19.9265,-17.8623],[20.0257,-17.905],[20.0583,-17.8849],[20.1091,-17.9109],[20.1729,-17.8768],[20.246,-17.8927],[20.2629,-17.8683],[20.2945,-17.8773],[20.3243,-17.8622],[20.3695,-17.8975],[20.4486,-17.9106],[20.4746,-17.9506],[20.5015,-17.952],[20.5407,-17.9826],[20.6445,-17.977],[20.6971,-18.01],[20.7459,-18.0011],[20.7478,-18.0198],[20.8262,-18.0391],[20.8676,-18.0289],[20.864,-18.0032],[20.9773,-17.9583],[20.9979,-17.9647],[21.0657,-17.9442],[21.103,-17.9484],[21.12,-17.9345],[21.2104,-17.9288],[21.2426,-17.9564],[21.3191,-17.9876],[21.3627,-17.9846],[21.3727,-18.009],[21.4145,-18.0151],[21.4234,-18.0267],[23.4342,-17.6379],[23.4177,-17.5974],[23.4006,-17.5971],[23.3933,-17.5763],[23.3653,-17.5761],[23.3413,-17.5541],[23.2869,-17.542],[23.2413,-17.5466],[23.1777,-17.4749],[23.1361,-17.4666],[23.1442,-17.4603],[23.1235,-17.4458],[23.1282,-17.4227],[23.0871,-17.4135],[23.0586,-17.3377],[23.044,-17.3467],[23.026,-17.312],[22.9971,-17.2981],[23.0088,-17.2841],[22.9934,-17.2864],[22.9955,-17.2742],[22.9094,-17.2226],[22.8967,-17.2011],[22.8019,-17.1653],[22.7916,-17.1199],[22.7289,-17.0749],[22.7395,-17.0643],[22.7172,-17.0579],[22.725,-17.0545],[22.7162,-17.0427],[22.6857,-17.0319],[22.6934,-17.0244],[22.6212,-16.9593],[22.6268,-16.9522],[22.599,-16.9187],[22.4922,-16.8351],[22.4968,-16.8148],[22.4709,-16.8046],[22.3715,-16.6978],[22.3508,-16.6988],[22.3479,-16.6735],[22.3293,-16.6672],[22.3219,-16.6417],[22.2957,-16.6218],[22.2774,-16.6252],[22.2526,-16.5741],[22.2181,-16.5733],[22.1742,-16.521],[22.1608,-16.5219],[22.1696,-16.5098],[22.15,-16.4896],[22.1208,-16.4902],[22.1483,-16.4751],[22.1254,-16.4454],[22.1398,-16.4395],[22.1282,-16.386],[22.1179,-16.3841],[22.1272,-16.3755],[22.1204,-16.3481],[22.0906,-16.32],[22.1004,-16.3082],[22.0707,-16.2903],[22.0813,-16.2609],[22.0597,-16.2604],[22.0439,-16.2337],[22.0309,-16.2343],[22.0299,-16.2187],[21.9994,-16.2064],[22.0004,-16.1735],[21.9655,-16.1418],[21.8302,-16.068],[21.8127,-15.996],[21.7807,-15.9713],[21.7618,-15.913],[21.7154,-15.893],[21.7129,-15.8332],[21.6496,-15.8124],[21.6126,-15.7794],[21.5796,-15.7019],[21.5476,-15.6777],[21.5535,-15.6352],[21.5209,-15.6111],[21.5032,-15.5739],[21.457,-15.5531],[21.4581,-15.4689],[21.4415,-15.4303],[21.4109,-15.4061],[21.3626,-15.3997],[21.3095,-15.3678],[21.2753,-15.3314],[21.2453,-15.2378],[21.2106,-15.2173],[21.1623,-15.2203],[21.149,-15.2031],[21.157,-15.1715],[21.1301,-15.1803],[21.1096,-15.1726],[21.084,-15.1287],[21.0149,-15.0576],[20.9633,-15.0443],[20.928,-15.0095],[20.8847,-15.0182],[20.8481,-14.9851],[20.8245,-14.9848],[20.8045,-15.0068],[20.7087,-14.9876],[20.6702,-14.9576],[20.6316,-14.9754],[20.5983,-14.9682],[20.5505,-14.9904],[20.4945,-14.9776],[20.4353,-15.0012],[20.344,-14.9804],[20.2674,-14.9874],[20.0829,-14.904],[20.0127,-14.836],[19.9841,-14.7885],[19.9608,-14.7827],[19.9511,-14.7663],[19.9197,-14.7693],[19.9191,-14.7446],[19.8967,-14.7457],[19.8834,-14.7163],[19.8165,-14.6716],[19.7768,-14.6168],[19.7471,-14.6035],[19.7382,-14.5727],[19.6933,-14.548],[19.6614,-14.4693],[19.6306,-14.4443],[19.6192,-14.3866],[19.5654,-14.3435],[19.5313,-14.2777],[19.4155,-14.301],[19.3711,-14.2869],[19.3386,-14.2921],[19.2471,-14.2421],[19.1716,-14.2777],[19.207,-14.4374],[19.0658,-14.363],[18.9326,-14.403],[18.8926,-14.3838],[18.8721,-14.333],[18.849,-14.3119],[18.8474,-14.2805],[18.8282,-14.2697],[18.8049,-14.2227],[18.81,-14.17],[18.7806,-14.0933],[18.787,-14.0527],[18.737,-13.9827],[18.7298,-13.9491],[18.6677,-13.898],[18.6602,-13.8711],[18.6435,-13.8586],[18.6277,-13.8638],[18.5334,-13.7911],[18.4865,-13.8083],[18.4634,-13.8002],[18.3219,-13.7089],[18.2314,-13.7225],[17.9551,-13.5664],[17.9309,-13.6525],[17.9065,-13.6728],[17.7869,-13.6872],[17.8129,-13.762],[17.8071,-13.8517],[17.7798,-13.9056],[17.6452,-13.9934],[17.598,-13.9939],[17.548,-14.0128],[17.5092,-14.0081],[17.4714,-14.0267],[17.4189,-14.1014],[17.3537,-14.1484],[17.3487,-14.2203],[17.3106,-14.2806],[17.3206,-14.3098],[17.3114,-14.3145],[17.2148,-14.2859],[17.1824,-14.2434],[17.1372,-14.2376],[17.0381,-14.1684],[17.0168,-14.069],[16.9647,-14.0006],[16.9372,-13.9879],[16.907,-13.9837],[16.8331,-14.034],[16.7163,-13.9676],[16.6206,-14.0084],[16.5004,-14.0004],[16.4782,-14.0115]]]}},{"type":"Feature","properties":{"name":"Cuanza Norte","code":"26408823B10526282327152","iso":"AGO"},"geometry":{"type":"Polygon","coordinates":[[[14.0906,-8.9224],[14.0813,-8.9553],[14.1482,-8.9967],[14.1579,-9.0456],[14.1407,-9.0673],[14.071,-9.0935],[14.0624,-9.118],[14.0849,-9.1394],[14.1593,-9.1407],[14.1826,-9.1565],[14.1957,-9.1796],[14.1721,-9.2005],[14.1694,-9.2236],[14.2113,-9.2683],[14.2077,-9.293],[14.1517,-9.3545],[14.1378,-9.4232],[14.093,-9.5272],[14.126,-9.5424],[14.1475,-9.6169],[14.1634,-9.6297],[14.263,-9.6346],[14.2881,-9.6785],[14.3164,-9.6932],[14.4024,-9.6837],[14.4671,-9.7164],[14.4877,-9.7514],[14.5193,-9.7614],[14.5391,-9.7838],[14.5771,-9.7669],[14.6187,-9.7805],[14.7396,-9.7645],[14.7662,-9.7348],[14.8663,-9.717],[14.9415,-9.7216],[14.9623,-9.7016],[14.9553,-9.6772],[15.0405,-9.6952],[15.0802,-9.7257],[15.1091,-9.7249],[15.1622,-9.679],[15.1683,-9.6579],[15.156,-9.5868],[15.1188,-9.5474],[15.1165,-9.526],[15.1863,-9.4652],[15.1749,-9.4168],[15.1163,-9.3746],[15.1479,-9.3624],[15.2397,-9.3585],[15.2546,-9.264],[15.2826,-9.2371],[15.3622,-9.2268],[15.4095,-9.1909],[15.4445,-9.189],[15.4846,-9.1603],[15.5407,-9.1789],[15.6095,-9.1736],[15.6434,-9.1512],[15.6518,-9.0914],[15.6403,-9.0211],[15.6684,-8.8823],[15.7051,-8.7675],[15.7348,-8.7222],[15.7131,-8.6728],[15.6632,-8.6694],[15.6412,-8.6547],[15.6134,-8.5969],[15.6796,-8.5035],[15.6743,-8.4588],[15.804,-8.4268],[15.8306,-8.3957],[15.817,-8.3762],[15.8163,-8.2915],[15.803,-8.2645],[15.8004,-8.1139],[15.7868,-8.0997],[15.7602,-8.108],[15.7471,-8.0713],[15.7468,-8.0608],[15.7759,-8.0555],[15.7756,-8.0466],[15.7102,-8.001],[15.6276,-8.0065],[15.6018,-8.036],[15.5333,-8.0583],[15.4738,-8.0501],[15.4563,-8.0193],[15.454,-7.9637],[15.4113,-7.9337],[15.2685,-7.9398],[15.1987,-7.9584],[15.2065,-8.011],[15.1821,-8.0702],[15.2085,-8.0702],[15.2301,-8.0913],[15.2074,-8.136],[15.2063,-8.1986],[15.1892,-8.2286],[15.1703,-8.2314],[15.1634,-8.2525],[15.1371,-8.2547],[15.1144,-8.2995],[15.0683,-8.2906],[15.0162,-8.3153],[14.9658,-8.2825],[14.9258,-8.2753],[14.879,-8.3111],[14.8683,-8.3495],[14.9464,-8.3871],[14.9894,-8.4948],[14.9942,-8.5634],[14.9677,-8.658],[14.866,-8.8085],[14.8215,-8.8277],[14.7481,-8.8214],[14.6044,-8.8544],[14.527,-8.8523],[14.4595,-8.9118],[14.3932,-8.9347],[14.3877,-8.8946],[14.3379,-8.8896],[14.2835,-8.8501],[14.1995,-8.8851],[14.1082,-8.8907],[14.0906,-8.9224]]]}},{"type":"Feature","properties":{"name":"Cuanza Sul","code":"26408823B29177594449133","iso":"AGO"},"geometry":{"type":"Polygon","coordinates":[[[15.0281,-12.207],[15.0773,-12.0859],[15.1192,-12.0448],[15.1805,-12.0375],[15.2319,-12.007],[15.2563,-12.0167],[15.314,-11.9625],[15.3894,-11.967],[15.3747,-11.9425],[15.3928,-11.8709],[15.3745,-11.8475],[15.3989,-11.8303],[15.4125,-11.7653],[15.3884,-11.7476],[15.3854,-11.7014],[15.3582,-11.6623],[15.366,-11.5881],[15.4096,-11.554],[15.4828,-11.5387],[15.5277,-11.5087],[15.7404,-11.4683],[15.7981,-11.3495],[15.792,-11.2778],[15.9118,-11.1114],[15.957,-10.9478],[16.0258,-10.9963],[16.0524,-10.9983],[16.0984,-10.9702],[16.1697,-11.0049],[16.2146,-11.0024],[16.3197,-10.8368],[16.4705,-10.7568],[16.506,-10.699],[16.5568,-10.6804],[16.5911,-10.632],[16.585,-10.5934],[16.6087,-10.5699],[16.5822,-10.53],[16.4923,-10.425],[16.4513,-10.4131],[16.4501,-10.3436],[16.4196,-10.305],[16.3996,-10.2834],[16.3469,-10.2678],[16.3341,-10.1917],[16.3879,-10.1267],[16.3618,-10.0733],[16.3553,-10.0111],[16.3126,-9.9567],[16.3208,-9.8956],[16.3034,-9.872],[16.2387,-9.8367],[16.2237,-9.7895],[16.187,-9.7453],[16.0112,-9.7187],[15.9119,-9.7323],[15.842,-9.7121],[15.817,-9.7149],[15.7708,-9.7785],[15.7478,-9.7829],[15.5592,-9.7741],[15.4466,-9.7817],[15.3743,-9.8081],[15.2983,-9.8092],[15.2045,-9.7951],[15.1046,-9.7224],[15.0802,-9.7257],[15.0405,-9.6952],[14.9553,-9.6772],[14.9623,-9.7016],[14.9415,-9.7216],[14.8663,-9.717],[14.7776,-9.7323],[14.7396,-9.7645],[14.6312,-9.7793],[14.5771,-9.7669],[14.5887,-9.9632],[14.5395,-10.026],[14.5451,-10.0557],[14.5913,-10.1303],[14.5919,-10.1525],[14.5553,-10.1914],[14.5576,-10.2128],[14.5715,-10.24],[14.6173,-10.2763],[14.6299,-10.3221],[14.6053,-10.3879],[14.5599,-10.4404],[14.4878,-10.4138],[14.4094,-10.3214],[14.362,-10.3148],[14.2954,-10.2804],[14.2011,-10.2818],[14.1524,-10.3046],[14.0912,-10.3674],[14.0104,-10.4063],[13.9507,-10.3683],[13.8429,-10.3821],[13.8365,-10.3647],[13.7758,-10.3644],[13.7392,-10.3452],[13.7281,-10.3463],[13.7359,-10.3638],[13.7163,-10.3688],[13.6615,-10.2859],[13.5985,-10.2504],[13.5756,-10.2505],[13.5671,-10.2228],[13.5243,-10.2126],[13.4993,-10.2425],[13.5265,-10.2724],[13.5432,-10.3315],[13.5479,-10.3615],[13.5299,-10.389],[13.6215,-10.4807],[13.7818,-10.6838],[13.7446,-10.7468],[13.7187,-10.756],[13.8282,-10.9021],[13.8649,-11.0099],[13.8246,-11.2468],[13.8296,-11.3085],[13.7963,-11.3437],[13.8057,-11.3968],[13.7821,-11.5004],[13.786,-11.5526],[13.7685,-11.5782],[13.7874,-11.6132],[13.7979,-11.7705],[13.9036,-11.7631],[13.9732,-11.7939],[14.0425,-11.772],[14.092,-11.7829],[14.1062,-11.8798],[14.1217,-11.9015],[14.1964,-11.9353],[14.2448,-12.0028],[14.2953,-11.9814],[14.3523,-11.8894],[14.3745,-11.8742],[14.4466,-11.8344],[14.4956,-11.8322],[14.6122,-11.9724],[14.6725,-12.0915],[14.7679,-12.1031],[14.838,-12.0795],[14.955,-12.1356],[14.9763,-12.1506],[14.9821,-12.1975],[15.0281,-12.207]]]}},{"type":"Feature","properties":{"name":"Luanda","code":"26408823B17220104796328","iso":"AGO"},"geometry":{"type":"MultiPolygon","coordinates":[[[[13.0688,-9.0185],[13.0668,-9.0207],[13.0671,-9.0226],[13.0693,-9.0201],[13.0688,-9.0185]]],[[[13.024,-9.0074],[13.0226,-9.0079],[13.0168,-9.0218],[13.0207,-9.0243],[13.0226,-9.0232],[13.0224,-9.0207],[13.026,-9.0185],[13.024,-9.0074]]],[[[13.0576,-8.9835],[13.0568,-8.9854],[13.0543,-8.9843],[13.0554,-8.9885],[13.0585,-8.9876],[13.0576,-8.9835]]],[[[13.0946,-8.9746],[13.0935,-8.9754],[13.0938,-8.9829],[13.096,-8.9765],[13.0946,-8.9746]]],[[[13.1318,-8.9318],[13.1301,-8.9351],[13.1321,-8.9393],[13.1346,-8.9413],[13.1385,-8.9413],[13.1401,-8.9382],[13.1351,-8.9404],[13.136,-8.934],[13.1326,-8.9338],[13.1318,-8.9318]]],[[[13.1262,-8.9054],[13.1046,-8.9471],[13.1215,-8.9432],[13.1262,-8.9054]]],[[[13.149,-8.9021],[13.1476,-8.9032],[13.149,-8.9038],[13.1488,-8.906],[13.1474,-8.906],[13.1476,-8.9085],[13.1507,-8.9063],[13.1551,-8.9054],[13.149,-8.9021]]],[[[13.166,-8.8671],[13.1629,-8.8676],[13.1657,-8.869],[13.166,-8.8671]]],[[[13.1529,-8.8629],[13.0482,-8.9604],[13.0249,-9.0037],[13.121,-8.8971],[13.1424,-8.889],[13.1418,-8.8743],[13.1635,-8.8701],[13.1529,-8.8629]]],[[[13.2079,-8.8263],[13.204,-8.8271],[13.2024,-8.8326],[13.2057,-8.8312],[13.2043,-8.829],[13.2068,-8.8276],[13.2129,-8.8282],[13.2079,-8.8263]]],[[[13.2132,-8.8176],[13.2118,-8.8196],[13.2126,-8.8212],[13.2137,-8.8204],[13.2132,-8.8176]]],[[[13.2629,-8.7601],[13.2418,-8.779],[13.2299,-8.786],[13.2263,-8.7924],[13.2329,-8.789],[13.2368,-8.7837],[13.2415,-8.7818],[13.2446,-8.7824],[13.246,-8.7796],[13.2496,-8.779],[13.2493,-8.7765],[13.2626,-8.7629],[13.2637,-8.7615],[13.2629,-8.7601]]],[[[13.394,-8.7508],[13.366,-8.776],[13.3013,-8.756],[13.2732,-8.7957],[13.2451,-8.7951],[13.2343,-8.8107],[13.2179,-8.8096],[13.2251,-8.794],[13.2013,-8.8624],[13.1582,-8.9087],[13.1482,-8.9574],[13.1043,-8.959],[13.0529,-9.0524],[13.0196,-9.0807],[13.0157,-9.1051],[13.0063,-9.1013],[13.014,-9.0729],[13.0032,-9.0662],[13.0026,-9.0365],[13.019,-9.0332],[12.9993,-9.029],[12.9926,-9.0849],[13.1532,-9.3454],[13.1743,-9.3163],[13.1685,-9.3021],[13.1713,-9.3274],[13.1862,-9.3268],[13.1918,-9.2924],[13.2051,-9.289],[13.2193,-9.2565],[13.206,-9.2893],[13.1926,-9.2926],[13.1871,-9.3271],[13.1657,-9.3226],[13.1496,-9.3493],[13.1779,-9.4126],[13.1704,-9.466],[13.2062,-9.5262],[13.1926,-9.5585],[13.2371,-9.6371],[13.2179,-9.6704],[13.1949,-9.6757],[13.1957,-9.6876],[13.314,-9.8696],[13.3126,-9.8946],[13.3424,-9.9537],[13.3132,-9.9835],[13.4401,-10.1229],[13.474,-10.2185],[13.4993,-10.2425],[13.5243,-10.2126],[13.5671,-10.2228],[13.5756,-10.2505],[13.5985,-10.2504],[13.6615,-10.2859],[13.7163,-10.3688],[13.7359,-10.3638],[13.7281,-10.3463],[13.7392,-10.3452],[13.7758,-10.3644],[13.8365,-10.3647],[13.8429,-10.3821],[13.9507,-10.3683],[14.0104,-10.4063],[14.0912,-10.3674],[14.1524,-10.3046],[14.2011,-10.2818],[14.2954,-10.2804],[14.362,-10.3148],[14.4094,-10.3214],[14.4878,-10.4138],[14.5599,-10.4404],[14.6053,-10.3879],[14.6299,-10.3221],[14.6173,-10.2763],[14.5715,-10.24],[14.5553,-10.1914],[14.5919,-10.1525],[14.5395,-10.026],[14.5887,-9.9632],[14.5748,-9.7684],[14.5391,-9.7838],[14.5193,-9.7614],[14.4877,-9.7514],[14.4671,-9.7164],[14.4024,-9.6837],[14.3053,-9.6901],[14.263,-9.6346],[14.1634,-9.6297],[14.1475,-9.6169],[14.126,-9.5424],[14.093,-9.5272],[14.1378,-9.4232],[14.1517,-9.3545],[14.2077,-9.293],[14.2113,-9.2683],[14.1694,-9.2236],[14.1721,-9.2005],[14.1957,-9.1796],[14.1826,-9.1565],[14.1593,-9.1407],[14.0849,-9.1394],[14.0624,-9.118],[14.071,-9.0935],[14.1407,-9.0673],[14.1579,-9.0456],[14.1482,-8.9967],[14.0813,-8.9553],[14.0906,-8.9224],[14.0818,-8.9183],[14.0122,-8.9459],[13.9675,-8.9272],[13.9184,-8.9376],[13.8276,-8.9307],[13.7837,-8.9041],[13.7606,-8.9088],[13.7331,-8.8955],[13.6219,-8.8271],[13.5697,-8.8419],[13.5211,-8.8097],[13.5136,-8.7732],[13.496,-8.7739],[13.4721,-8.7489],[13.4377,-8.7589],[13.4171,-8.746],[13.394,-8.7508]]]]}},{"type":"Feature","properties":{"name":"Lunda Norte","code":"26408823B5362531623165","iso":"AGO"},"geometry":{"type":"Polygon","coordinates":[[[21.9287,-8.3149],[21.8931,-8.2942],[21.8717,-8.1939],[21.8832,-8.1767],[21.8485,-8.1422],[21.8232,-8.0702],[21.775,-8.0277],[21.7629,-7.9992],[21.7684,-7.9675],[21.7509,-7.9411],[21.7767,-7.9071],[21.7694,-7.8346],[21.785,-7.8056],[21.7721,-7.8033],[21.7761,-7.7715],[21.8011,-7.7336],[21.8132,-7.6629],[21.8302,-7.6561],[21.8326,-7.6265],[21.8521,-7.6057],[21.8452,-7.586],[21.8588,-7.5612],[21.8414,-7.5233],[21.8618,-7.4767],[21.8458,-7.4604],[21.8604,-7.448],[21.859,-7.4288],[21.8343,-7.4084],[21.8429,-7.3732],[21.8249,-7.3326],[21.7908,-7.3113],[21.7892,-7.2833],[20.553,-7.2833],[20.5475,-7.2271],[20.5585,-7.2184],[20.5622,-7.1666],[20.5462,-7.1457],[20.5949,-7.062],[20.592,-7.0339],[20.6,-7.013],[20.6112,-7.0131],[20.6275,-6.9167],[20.322,-6.9167],[20.3029,-7],[19.548,-7],[19.5622,-7.0555],[19.5326,-7.089],[19.4985,-7.1675],[19.508,-7.244],[19.4854,-7.3157],[19.5048,-7.3417],[19.4945,-7.3637],[19.5051,-7.3864],[19.5223,-7.3936],[19.5158,-7.4209],[19.5446,-7.4575],[19.4862,-7.5045],[19.4945,-7.5273],[19.4875,-7.561],[19.4733,-7.572],[19.3832,-7.5719],[19.3686,-7.5913],[19.4124,-7.7016],[19.3861,-7.7857],[19.3636,-7.8073],[19.3664,-7.859],[19.3417,-7.9014],[19.3604,-7.909],[19.3585,-7.9494],[19.3813,-8],[18.7965,-8],[18.7738,-7.9584],[18.7801,-7.9363],[18.7678,-7.9134],[18.5306,-7.9167],[18.5319,-8],[18.4071,-8],[18.3585,-8.0244],[18.331,-8.0111],[18.3097,-8.016],[18.2821,-7.9866],[18.2504,-7.99],[18.2188,-7.9755],[18.1775,-8.0084],[18.15,-8.0147],[18.1403,-8.0369],[18.1201,-8.0415],[18.1059,-8.0292],[18.0925,-8.0563],[18.1036,-8.0966],[17.9712,-8.0959],[17.8701,-8.0809],[17.8244,-8.0912],[17.7959,-8.1129],[17.7469,-8.0968],[17.6783,-8.1006],[17.6139,-8.1304],[17.5653,-8.1281],[17.5368,-8.1063],[17.5247,-8.1372],[17.556,-8.174],[17.5416,-8.1984],[17.5445,-8.2416],[17.5589,-8.3359],[17.5739,-8.3526],[17.5393,-8.3967],[17.5249,-8.4659],[17.5497,-8.5448],[17.5959,-8.5742],[17.5968,-8.817],[17.567,-8.9745],[17.601,-9.0942],[17.5609,-9.1637],[17.5623,-9.2103],[17.5415,-9.2375],[17.3771,-9.289],[17.3305,-9.3279],[17.3294,-9.3506],[17.3564,-9.397],[17.3639,-9.444],[17.4092,-9.5109],[17.417,-9.5565],[17.4082,-9.5803],[17.4223,-9.6026],[17.4703,-9.6123],[17.4848,-9.6567],[17.5067,-9.6728],[17.5969,-9.6959],[17.6255,-9.7417],[17.6219,-9.787],[17.6383,-9.8086],[17.7129,-9.7975],[17.8223,-9.8475],[17.8375,-9.8159],[17.8178,-9.7665],[17.8278,-9.7494],[17.8631,-9.7553],[17.9135,-9.7924],[17.95,-9.7999],[17.9937,-9.7876],[18.0036,-9.802],[18.0377,-9.8073],[18.0599,-9.8738],[18.0694,-9.8791],[18.1016,-9.8584],[18.1457,-9.9208],[18.2358,-9.8549],[18.3063,-9.7505],[18.3671,-9.7188],[18.4454,-9.6331],[18.4802,-9.6668],[18.4999,-9.6621],[18.5074,-9.6782],[18.5671,-9.6934],[18.6112,-9.7223],[18.6374,-9.8037],[18.6568,-9.8095],[18.6565,-9.8301],[18.6765,-9.8504],[18.6689,-9.8669],[18.7342,-9.9063],[18.8027,-9.9881],[18.856,-10.11],[18.857,-10.2827],[18.8999,-10.2518],[19.0444,-10.2387],[19.1449,-10.1978],[19.2361,-10.1131],[19.3507,-10.0847],[19.4346,-10.013],[19.3378,-9.7012],[19.37,-9.6079],[19.463,-9.5848],[19.5648,-9.5843],[19.5729,-9.573],[19.6801,-9.9091],[19.8155,-9.8877],[19.8896,-9.8182],[19.9425,-9.7479],[19.9597,-9.6946],[19.9884,-9.4665],[20.2146,-9.2732],[20.2382,-9.2618],[20.3373,-9.2565],[20.3589,-9.2409],[20.3773,-9.219],[20.4116,-9.106],[20.5099,-9.0826],[20.5891,-9.0229],[20.6635,-9.0132],[20.7113,-8.986],[20.751,-8.8605],[20.8166,-8.7559],[20.9144,-8.6995],[20.9341,-8.6551],[21.0269,-8.6062],[21.1,-8.6006],[21.155,-8.5693],[21.2261,-8.5779],[21.2761,-8.5562],[21.3739,-8.581],[21.5653,-8.5475],[21.6331,-8.4606],[21.7299,-8.4248],[21.8044,-8.4331],[21.8499,-8.3591],[21.9287,-8.3149]]]}},{"type":"Feature","properties":{"name":"Lunda Sul","code":"26408823B58820355179323","iso":"AGO"},"geometry":{"type":"Polygon","coordinates":[[[19.1897,-11.4557],[19.2468,-11.4383],[19.2815,-11.4035],[19.3747,-11.4185],[19.4613,-11.381],[19.537,-11.3171],[19.5601,-11.2704],[19.5911,-11.2537],[19.6261,-11.2554],[19.7249,-11.3096],[19.7923,-11.2937],[19.8087,-11.2684],[19.8434,-11.2515],[19.8784,-11.2656],[19.8981,-11.3009],[19.9219,-11.3031],[19.9416,-11.2951],[19.963,-11.2609],[19.996,-11.2676],[20.0255,-11.2567],[20.0651,-11.2839],[20.0982,-11.2837],[20.162,-11.2092],[20.1836,-11.2039],[20.2394,-11.2464],[20.2988,-11.2578],[20.3174,-11.2809],[20.3602,-11.2928],[20.4087,-11.2753],[20.497,-11.3386],[20.5594,-11.3467],[20.5761,-11.3717],[20.6286,-11.3825],[20.678,-11.4158],[20.7196,-11.4114],[20.7401,-11.4458],[20.7704,-11.4378],[20.8362,-11.4622],[21.0149,-11.48],[21.0418,-11.4541],[21.028,-11.4127],[21.0921,-11.3822],[21.1115,-11.3891],[21.1504,-11.3749],[21.1765,-11.3316],[21.2167,-11.3058],[21.2286,-11.2744],[21.2875,-11.2657],[21.3516,-11.2321],[21.3966,-11.2257],[21.4163,-11.2057],[21.4751,-11.2026],[21.4943,-11.1676],[21.5229,-11.1726],[21.5265,-11.1623],[21.5382,-11.1768],[21.5823,-11.1832],[21.6975,-11.1381],[21.6992,-11.0597],[21.6775,-11.0584],[21.6498,-11.0039],[21.6639,-10.9764],[21.6706,-10.8911],[21.7431,-10.8252],[21.7526,-10.7057],[21.8062,-10.6213],[22.0407,-10.6253],[22.0849,-10.5861],[22.1424,-10.5892],[22.2293,-10.6251],[22.2756,-10.6256],[22.3114,-10.6107],[22.308,-10.5319],[22.2714,-10.5068],[22.3281,-10.3865],[22.3041,-10.3517],[22.305,-10.3245],[22.2821,-10.3058],[22.2769,-10.2603],[22.2348,-10.2159],[22.2297,-10.1722],[22.2152,-10.1594],[22.2213,-10.0707],[22.2051,-10.0411],[22.2131,-10.0184],[22.1928,-9.9947],[22.2032,-9.9845],[22.1914,-9.9308],[22.1782,-9.9096],[22.1467,-9.8865],[22.1288,-9.8909],[22.1111,-9.8694],[22.0939,-9.8817],[22.0691,-9.8747],[22.0398,-9.8299],[22.0134,-9.8208],[21.9969,-9.7489],[21.9767,-9.7607],[21.9684,-9.727],[21.9348,-9.7063],[21.936,-9.6859],[21.8732,-9.6489],[21.8602,-9.5944],[21.8652,-9.561],[21.8311,-9.5065],[21.8305,-9.4568],[21.7907,-9.4169],[21.8104,-9.3716],[21.8069,-9.3331],[21.8589,-9.2267],[21.8575,-9.1632],[21.8412,-9.1438],[21.8337,-9.0976],[21.8345,-9.057],[21.8553,-9.0441],[21.8449,-9.0289],[21.8542,-8.9023],[21.868,-8.8752],[21.861,-8.8514],[21.878,-8.8363],[21.8711,-8.8244],[21.8961,-8.7837],[21.8906,-8.7053],[21.9157,-8.6657],[21.9056,-8.6346],[21.924,-8.6053],[21.9371,-8.6041],[21.9191,-8.5901],[21.9248,-8.5662],[21.9416,-8.5592],[21.9432,-8.5397],[21.929,-8.5263],[21.952,-8.5025],[21.9487,-8.4395],[21.9175,-8.3933],[21.9137,-8.3476],[21.9311,-8.3331],[21.9287,-8.3149],[21.8499,-8.3591],[21.8044,-8.4331],[21.7299,-8.4248],[21.6331,-8.4606],[21.5653,-8.5475],[21.3739,-8.581],[21.2761,-8.5562],[21.2261,-8.5779],[21.155,-8.5693],[21.1,-8.6006],[21.0269,-8.6062],[20.9341,-8.6551],[20.9144,-8.6995],[20.8166,-8.7559],[20.751,-8.8605],[20.7113,-8.986],[20.6635,-9.0132],[20.5891,-9.0229],[20.5099,-9.0826],[20.4116,-9.106],[20.3773,-9.219],[20.3589,-9.2409],[20.3373,-9.2565],[20.2382,-9.2618],[20.2146,-9.2732],[19.9884,-9.4665],[19.9597,-9.6946],[19.9425,-9.7479],[19.8896,-9.8182],[19.8155,-9.8877],[19.6801,-9.9091],[19.5729,-9.573],[19.5648,-9.5843],[19.3899,-9.5972],[19.3584,-9.6268],[19.3378,-9.7012],[19.4346,-10.013],[19.3507,-10.0847],[19.2361,-10.1131],[19.1449,-10.1978],[19.0444,-10.2387],[18.8999,-10.2518],[18.857,-10.2827],[18.856,-10.11],[18.8027,-9.9881],[18.7342,-9.9063],[18.6689,-9.8669],[18.6941,-9.9345],[18.685,-9.9873],[18.6708,-10.0009],[18.6847,-10.0148],[18.6847,-10.0557],[18.662,-10.0862],[18.632,-10.0857],[18.6317,-10.0968],[18.6101,-10.1012],[18.6004,-10.1335],[18.5599,-10.1438],[18.5716,-10.1604],[18.5657,-10.1688],[18.5485,-10.161],[18.54,-10.2118],[18.5214,-10.2093],[18.5028,-10.2304],[18.5117,-10.2457],[18.4801,-10.2666],[18.5086,-10.2691],[18.5061,-10.2793],[18.5258,-10.2866],[18.5025,-10.298],[18.4937,-10.3196],[18.5095,-10.338],[18.4487,-10.3466],[18.4463,-10.3638],[18.4615,-10.3758],[18.4529,-10.3949],[18.4998,-10.4305],[18.4849,-10.4502],[18.5101,-10.4508],[18.5515,-10.4783],[18.5579,-10.523],[18.5753,-10.5224],[18.5798,-10.5452],[18.5862,-10.5377],[18.6264,-10.5666],[18.6386,-10.551],[18.6439,-10.573],[18.6672,-10.5913],[18.6544,-10.6041],[18.6733,-10.6132],[18.6414,-10.648],[18.6542,-10.6735],[18.6237,-10.6677],[18.6093,-10.6813],[18.6209,-10.7591],[18.6595,-10.8449],[18.7522,-10.9194],[18.7674,-10.9714],[19.0106,-11.1119],[19.09,-11.2038],[19.2123,-11.2246],[19.2473,-11.2938],[19.2115,-11.3427],[19.1897,-11.4557]]]}},{"type":"Feature","properties":{"name":"Malanje","code":"26408823B46264466320795","iso":"AGO"},"geometry":{"type":"Polygon","coordinates":[[[18.7674,-10.9714],[18.7522,-10.9194],[18.6595,-10.8449],[18.6209,-10.7591],[18.6093,-10.6813],[18.6237,-10.6677],[18.6542,-10.6735],[18.6414,-10.648],[18.6733,-10.6132],[18.6544,-10.6041],[18.6672,-10.5913],[18.6439,-10.573],[18.6386,-10.551],[18.6264,-10.5666],[18.5862,-10.5377],[18.5798,-10.5452],[18.5753,-10.5224],[18.5579,-10.523],[18.5515,-10.4783],[18.5101,-10.4508],[18.4849,-10.4502],[18.4998,-10.4305],[18.4529,-10.3949],[18.4615,-10.3758],[18.4424,-10.3541],[18.4782,-10.3366],[18.504,-10.346],[18.5098,-10.331],[18.4937,-10.3196],[18.5025,-10.298],[18.5258,-10.2866],[18.5061,-10.2793],[18.5086,-10.2691],[18.4801,-10.2666],[18.5117,-10.2457],[18.5028,-10.2304],[18.5214,-10.2093],[18.54,-10.2118],[18.5485,-10.161],[18.5657,-10.1688],[18.5716,-10.1604],[18.5599,-10.1438],[18.6004,-10.1335],[18.6101,-10.1012],[18.6317,-10.0968],[18.632,-10.0857],[18.662,-10.0862],[18.6847,-10.0557],[18.6847,-10.0148],[18.6708,-10.0009],[18.685,-9.9873],[18.6941,-9.9345],[18.6863,-9.8918],[18.6671,-9.869],[18.6765,-9.8504],[18.6565,-9.8301],[18.6568,-9.8095],[18.6374,-9.8037],[18.6112,-9.7223],[18.5671,-9.6934],[18.5074,-9.6782],[18.4999,-9.6621],[18.4802,-9.6668],[18.4454,-9.6331],[18.3671,-9.7188],[18.3063,-9.7505],[18.2358,-9.8549],[18.1457,-9.9208],[18.1016,-9.8584],[18.0694,-9.8791],[18.0599,-9.8738],[18.0377,-9.8073],[18.0036,-9.802],[17.9937,-9.7876],[17.95,-9.7999],[17.9135,-9.7924],[17.8631,-9.7553],[17.8278,-9.7494],[17.8178,-9.7665],[17.8375,-9.8159],[17.8223,-9.8475],[17.7129,-9.7975],[17.6383,-9.8086],[17.6219,-9.787],[17.6255,-9.7417],[17.5969,-9.6959],[17.5067,-9.6728],[17.4848,-9.6567],[17.4703,-9.6123],[17.4223,-9.6026],[17.4082,-9.5803],[17.417,-9.5565],[17.4092,-9.5109],[17.3639,-9.444],[17.3564,-9.397],[17.3353,-9.3754],[17.3305,-9.3279],[17.3771,-9.289],[17.5415,-9.2375],[17.5623,-9.2103],[17.5609,-9.1637],[17.601,-9.0942],[17.567,-8.9745],[17.5968,-8.817],[17.5959,-8.5742],[17.5497,-8.5448],[17.5249,-8.4659],[17.5393,-8.3967],[17.5739,-8.3526],[17.5589,-8.3359],[17.5445,-8.2416],[17.5416,-8.1984],[17.556,-8.174],[17.5273,-8.1483],[17.5368,-8.1063],[17.5017,-8.0724],[17.5196,-8.0424],[17.5309,-8.0539],[17.5304,-8.0421],[17.5003,-8.0036],[17.4809,-8.0019],[17.4805,-7.9501],[17.47,-7.9569],[17.4655,-7.9395],[17.4501,-7.9424],[17.4526,-7.9278],[17.4389,-7.9165],[17.4477,-7.869],[17.4223,-7.8674],[17.4215,-7.8332],[17.3922,-7.8407],[17.3982,-7.8168],[17.3779,-7.8236],[17.3806,-7.7771],[17.3296,-7.7787],[17.3338,-7.7664],[17.3153,-7.7537],[17.3326,-7.7179],[17.2886,-7.6928],[17.3012,-7.676],[17.3013,-7.6327],[17.214,-7.5758],[17.1928,-7.5354],[17.1974,-7.5],[17.152,-7.4754],[17.158,-7.4492],[17.1824,-7.4432],[17.1755,-7.424],[17.1505,-7.4196],[17.139,-7.4041],[17.1305,-7.4241],[17.1067,-7.4234],[17.1104,-7.3942],[17.0952,-7.3794],[17.0397,-7.3932],[16.9762,-7.4531],[16.9749,-7.526],[16.9609,-7.57],[16.9357,-7.5914],[16.867,-7.6032],[16.8244,-7.5906],[16.7614,-7.5309],[16.6793,-7.4191],[16.6511,-7.3452],[16.5849,-7.3196],[16.3983,-7.3886],[16.3556,-7.4198],[16.2853,-7.5337],[16.2371,-7.5518],[16.216,-7.5754],[16.1168,-7.5821],[16.0589,-7.6105],[16.0584,-7.6613],[16.1239,-7.8526],[16.1406,-7.9513],[16.1387,-7.9746],[16.1099,-8.0172],[16.0931,-8.12],[16.0535,-8.1631],[16.0316,-8.175],[15.9845,-8.1725],[15.9155,-8.2264],[15.8053,-8.2105],[15.8111,-8.3326],[15.8233,-8.3482],[15.817,-8.3762],[15.8306,-8.3957],[15.804,-8.4268],[15.6743,-8.4588],[15.6796,-8.5035],[15.6134,-8.5969],[15.6412,-8.6547],[15.6632,-8.6694],[15.7131,-8.6728],[15.7348,-8.7222],[15.7051,-8.7675],[15.6684,-8.8823],[15.6403,-9.0211],[15.6518,-9.0914],[15.6434,-9.1512],[15.6095,-9.1736],[15.5407,-9.1789],[15.4846,-9.1603],[15.4445,-9.189],[15.4095,-9.1909],[15.3622,-9.2268],[15.2826,-9.2371],[15.2546,-9.264],[15.2397,-9.3585],[15.1479,-9.3624],[15.1163,-9.3746],[15.1749,-9.4168],[15.1863,-9.4652],[15.1165,-9.526],[15.1188,-9.5474],[15.156,-9.5868],[15.1683,-9.6579],[15.1622,-9.679],[15.1091,-9.7249],[15.1174,-9.7371],[15.2143,-9.7987],[15.3393,-9.81],[15.4696,-9.7797],[15.6296,-9.7705],[15.6976,-9.783],[15.7708,-9.7785],[15.817,-9.7149],[15.842,-9.7121],[15.9119,-9.7323],[16.0112,-9.7187],[16.187,-9.7453],[16.2237,-9.7895],[16.2387,-9.8367],[16.3034,-9.872],[16.3208,-9.8956],[16.3126,-9.9567],[16.3553,-10.0111],[16.3618,-10.0733],[16.3879,-10.1267],[16.3341,-10.1917],[16.3469,-10.2678],[16.3996,-10.2834],[16.4196,-10.305],[16.4501,-10.3436],[16.4513,-10.4131],[16.4923,-10.425],[16.6087,-10.5699],[16.6363,-10.587],[16.6402,-10.5973],[16.6189,-10.6176],[16.628,-10.6495],[16.658,-10.6548],[16.6663,-10.6845],[16.7199,-10.7023],[16.7889,-10.7717],[16.8774,-10.7597],[16.975,-10.7747],[17.1029,-10.8411],[17.1168,-10.8139],[17.1623,-10.8136],[17.1692,-10.8466],[17.2283,-10.8664],[17.2907,-10.8627],[17.3795,-10.9405],[17.3859,-11.0111],[17.417,-11.0363],[17.458,-11.1197],[17.4486,-11.178],[17.4148,-11.1855],[17.4062,-11.2047],[17.3857,-11.2119],[17.4181,-11.2353],[17.4594,-11.24],[17.4725,-11.3158],[17.5238,-11.3891],[17.4897,-11.4847],[17.4966,-11.4919],[17.523,-11.4772],[17.531,-11.4958],[17.4969,-11.518],[17.4822,-11.5453],[17.5213,-11.6417],[17.4986,-11.6881],[17.5524,-11.7042],[17.5826,-11.7328],[17.6523,-11.718],[17.6792,-11.6739],[17.725,-11.6616],[17.7472,-11.6386],[17.7496,-11.6175],[17.8451,-11.5372],[17.8462,-11.4285],[17.8298,-11.3608],[17.885,-11.4077],[17.9067,-11.4549],[17.9044,-11.5035],[17.9147,-11.521],[17.9608,-11.5294],[18.0046,-11.5191],[18.0482,-11.5591],[18.0848,-11.5402],[18.1555,-11.5538],[18.2837,-11.5221],[18.3345,-11.544],[18.4094,-11.5454],[18.4532,-11.5226],[18.5351,-11.439],[18.6191,-11.4003],[18.7465,-11.3622],[18.8369,-11.3717],[18.8478,-11.3505],[18.8344,-11.2911],[18.77,-11.2305],[18.7903,-11.1536],[18.7614,-11.1133],[18.7536,-11.0658],[18.775,-10.9924],[18.7674,-10.9714]]]}},{"type":"Feature","properties":{"name":"Moxico","code":"26408823B70921043256570","iso":"AGO"},"geometry":{"type":"Polygon","coordinates":[[[17.9551,-13.5664],[18.2314,-13.7225],[18.3219,-13.7089],[18.4634,-13.8002],[18.4865,-13.8083],[18.5334,-13.7911],[18.6277,-13.8638],[18.6435,-13.8586],[18.6602,-13.8711],[18.6677,-13.898],[18.7298,-13.9491],[18.737,-13.9827],[18.787,-14.0527],[18.7806,-14.0933],[18.81,-14.17],[18.8049,-14.2227],[18.8282,-14.2697],[18.8474,-14.2805],[18.849,-14.3119],[18.8721,-14.333],[18.8926,-14.3838],[18.9426,-14.4019],[19.0658,-14.363],[19.207,-14.4374],[19.1716,-14.2777],[19.2251,-14.2494],[19.2704,-14.2508],[19.3145,-14.2869],[19.4155,-14.301],[19.5313,-14.2777],[19.5654,-14.3435],[19.6192,-14.3866],[19.6306,-14.4443],[19.6614,-14.4693],[19.6933,-14.548],[19.7382,-14.5727],[19.7471,-14.6035],[19.7768,-14.6168],[19.8165,-14.6716],[19.8834,-14.7163],[19.8967,-14.7457],[19.9191,-14.7446],[19.9197,-14.7693],[19.9511,-14.7663],[19.9608,-14.7827],[19.9841,-14.7885],[20.0127,-14.836],[20.0829,-14.904],[20.1656,-14.9482],[20.2674,-14.9874],[20.344,-14.9804],[20.4353,-15.0012],[20.4945,-14.9776],[20.5505,-14.9904],[20.5983,-14.9682],[20.6316,-14.9754],[20.6702,-14.9576],[20.7087,-14.9876],[20.8045,-15.0068],[20.8245,-14.9848],[20.8481,-14.9851],[20.8847,-15.0182],[20.928,-15.0095],[20.9633,-15.0443],[21.0149,-15.0576],[21.084,-15.1287],[21.1096,-15.1726],[21.1301,-15.1803],[21.157,-15.1715],[21.149,-15.2031],[21.1623,-15.2203],[21.2106,-15.2173],[21.2453,-15.2378],[21.2753,-15.3314],[21.3095,-15.3678],[21.3626,-15.3997],[21.4109,-15.4061],[21.4415,-15.4303],[21.4581,-15.4689],[21.457,-15.5531],[21.5032,-15.5739],[21.5209,-15.6111],[21.5535,-15.6352],[21.5476,-15.6777],[21.5796,-15.7019],[21.6062,-15.7719],[21.6496,-15.8124],[21.7129,-15.8332],[21.7154,-15.893],[21.7618,-15.913],[21.7807,-15.9713],[21.8127,-15.996],[21.8302,-16.068],[21.9655,-16.1418],[22.0004,-16.1735],[22.0037,-12.9997],[24.0581,-13.0008],[24.0252,-12.9707],[24.0268,-12.9434],[23.9964,-12.9284],[23.9819,-12.896],[23.9398,-12.8938],[23.9227,-12.8615],[23.8935,-12.8405],[23.899,-12.761],[23.9329,-12.6982],[23.9232,-12.6682],[23.9599,-12.5934],[23.9479,-12.537],[23.9568,-12.5195],[23.983,-12.5109],[24.0326,-12.4404],[24.0656,-12.4244],[24.0773,-12.3808],[24.0756,-12.3582],[24.043,-12.334],[24.0668,-12.3105],[24.0624,-12.2694],[24.0406,-12.236],[23.9999,-12.208],[23.9804,-12.1364],[23.998,-11.856],[24.023,-11.8292],[23.9923,-11.7152],[23.9606,-11.6606],[23.9759,-11.6527],[24.0379,-11.5312],[24.0197,-11.4758],[24.0241,-11.446],[24.0879,-11.4045],[24.0562,-11.3083],[24.0313,-11.2747],[24.0354,-11.1391],[24.0053,-11.1299],[24.001,-11.1172],[24.0218,-11.098],[24.0105,-11.0152],[24.024,-10.9848],[24.018,-10.9423],[23.9805,-10.9112],[23.9999,-10.89],[23.9701,-10.9091],[23.9451,-10.9551],[23.8975,-10.9766],[23.8888,-11.0084],[23.8628,-11.0353],[23.7594,-10.9873],[23.6686,-11.0031],[23.648,-10.9827],[23.5971,-10.9863],[23.5316,-10.9456],[23.4839,-10.9385],[23.395,-10.961],[23.3305,-11.0167],[23.2988,-11.0215],[23.2589,-11.0692],[23.2371,-11.0715],[23.1951,-11.1086],[23.1525,-11.0815],[23.0813,-11.1134],[23.0408,-11.0906],[22.9067,-11.0867],[22.863,-11.0627],[22.7733,-11.1184],[22.7099,-11.1133],[22.6948,-11.0937],[22.6334,-11.0706],[22.6183,-11.0395],[22.5777,-11.0281],[22.5089,-11.0395],[22.4888,-11.0643],[22.5024,-11.1119],[22.4503,-11.1678],[22.4347,-11.1783],[22.3462,-11.1824],[22.3448,-11.2013],[22.3115,-11.2362],[22.2499,-11.2641],[22.2685,-11.1782],[22.2489,-11.1343],[22.2157,-11.1097],[22.2048,-10.9354],[22.167,-10.8661],[22.2231,-10.809],[22.2675,-10.785],[22.3038,-10.7824],[22.3279,-10.761],[22.3343,-10.7354],[22.3194,-10.7221],[22.3278,-10.7062],[22.3066,-10.6647],[22.3212,-10.6338],[22.3119,-10.6324],[22.3114,-10.6107],[22.2756,-10.6256],[22.2293,-10.6251],[22.1424,-10.5892],[22.0849,-10.5861],[22.0407,-10.6253],[21.8959,-10.629],[21.8665,-10.6165],[21.8168,-10.6176],[21.7795,-10.6493],[21.7428,-10.751],[21.7431,-10.8252],[21.6706,-10.8911],[21.6639,-10.9764],[21.6512,-10.9914],[21.6714,-11.05],[21.6992,-11.0597],[21.6975,-11.1381],[21.5823,-11.1832],[21.5382,-11.1768],[21.5265,-11.1623],[21.5229,-11.1726],[21.4943,-11.1676],[21.4751,-11.2026],[21.4163,-11.2057],[21.3966,-11.2257],[21.3516,-11.2321],[21.2875,-11.2657],[21.2286,-11.2744],[21.2167,-11.3058],[21.1765,-11.3316],[21.1504,-11.3749],[21.1115,-11.3891],[21.0921,-11.3822],[21.028,-11.4127],[21.0418,-11.4541],[21.0149,-11.48],[20.8362,-11.4622],[20.7704,-11.4378],[20.7401,-11.4458],[20.7196,-11.4114],[20.678,-11.4158],[20.6286,-11.3825],[20.5761,-11.3717],[20.5594,-11.3467],[20.497,-11.3386],[20.4087,-11.2753],[20.3602,-11.2928],[20.3174,-11.2809],[20.2988,-11.2578],[20.2394,-11.2464],[20.1836,-11.2039],[20.162,-11.2092],[20.0982,-11.2837],[20.0651,-11.2839],[20.0255,-11.2567],[19.996,-11.2676],[19.963,-11.2609],[19.9416,-11.2951],[19.9219,-11.3031],[19.8981,-11.3009],[19.8784,-11.2656],[19.8434,-11.2515],[19.8087,-11.2684],[19.7923,-11.2937],[19.7249,-11.3096],[19.6156,-11.2518],[19.5714,-11.2623],[19.5434,-11.3096],[19.5001,-11.3496],[19.3972,-11.4132],[19.2815,-11.4035],[19.2468,-11.4383],[19.1616,-11.4627],[19.0861,-11.5572],[19.0706,-11.6667],[19.0484,-11.6883],[18.9571,-11.7028],[18.9865,-11.7645],[18.9721,-11.787],[18.923,-11.7775],[18.8911,-11.8665],[18.8497,-11.9037],[18.8442,-11.954],[18.8736,-12.0026],[18.8711,-12.0395],[18.7213,-12.1798],[18.7204,-12.2032],[18.7418,-12.2221],[18.7351,-12.2482],[18.7174,-12.2693],[18.6638,-12.2796],[18.5967,-12.3482],[18.5417,-12.3563],[18.4388,-12.4505],[18.4188,-12.4713],[18.4205,-12.5421],[18.3081,-12.6719],[18.3183,-12.7188],[18.3103,-12.7399],[18.2642,-12.7641],[18.1876,-12.8363],[18.174,-12.8141],[18.1496,-12.8352],[18.1498,-12.8613],[18.1914,-12.9522],[18.1826,-12.9747],[18.1354,-13.0033],[18.1262,-13.0472],[18.0552,-13.0786],[18.0682,-13.1055],[18.0313,-13.1511],[18.0834,-13.2419],[18.089,-13.2886],[18.0823,-13.31],[18.0035,-13.3375],[17.9368,-13.3947],[17.9757,-13.4678],[17.941,-13.5228],[17.9551,-13.5664]]]}},{"type":"Feature","properties":{"name":"Namibe","code":"26408823B78028517006075","iso":"AGO"},"geometry":{"type":"MultiPolygon","coordinates":[[[[11.7024,-16.5076],[11.6715,-16.5357],[11.6713,-16.5754],[11.7132,-16.6865],[11.7401,-16.7118],[11.7171,-16.5835],[11.721,-16.5204],[11.7024,-16.5076]]],[[[12.3432,-14.3918],[12.3413,-14.3918],[12.3407,-14.3968],[12.3432,-14.3918]]],[[[12.5468,-13.5282],[12.539,-13.5415],[12.5543,-13.556],[12.5424,-13.5674],[12.5507,-13.5882],[12.5288,-13.6104],[12.539,-13.6504],[12.5215,-13.7654],[12.5238,-13.8615],[12.511,-13.8821],[12.4865,-13.8801],[12.4937,-13.8674],[12.4213,-13.8779],[12.4257,-13.9415],[12.3974,-13.9574],[12.3921,-14.0329],[12.361,-14.0593],[12.3529,-14.1018],[12.371,-14.1554],[12.3615,-14.1807],[12.3315,-14.1857],[12.3699,-14.2901],[12.3521,-14.3382],[12.3543,-14.4112],[12.3004,-14.5779],[12.2957,-14.6688],[12.271,-14.699],[12.2874,-14.7549],[12.2485,-14.8287],[12.2118,-14.8488],[12.2151,-14.8965],[12.2043,-14.9004],[12.1929,-14.949],[12.1713,-14.9599],[12.1693,-15.0213],[12.1482,-15.0404],[12.1176,-15.1101],[12.1118,-15.1357],[12.1432,-15.129],[12.1535,-15.1832],[12.141,-15.1968],[12.1257,-15.186],[12.0918,-15.2015],[12.0549,-15.2335],[12.0532,-15.3415],[12.0299,-15.3957],[12.0201,-15.5662],[11.9951,-15.6313],[11.9265,-15.6765],[11.9099,-15.7454],[11.8796,-15.7871],[11.826,-15.8032],[11.8101,-15.7921],[11.8554,-15.7812],[11.7696,-15.7907],[11.7318,-15.876],[11.7362,-15.9085],[11.8054,-16.0215],[11.7899,-16.1318],[11.8265,-16.4551],[11.8201,-16.6032],[11.8149,-16.5946],[11.8232,-16.6174],[11.8146,-16.6254],[11.8274,-16.6907],[11.8212,-16.6579],[11.8115,-16.7812],[11.7899,-16.8213],[11.7782,-16.8224],[11.7876,-16.766],[11.771,-16.7782],[11.7821,-16.8779],[11.7629,-16.9399],[11.7485,-17.0999],[11.7512,-17.2519],[11.7948,-17.2738],[11.819,-17.2631],[11.8376,-17.2358],[11.8574,-17.2412],[11.9428,-17.181],[12.0799,-17.1419],[12.1025,-17.1613],[12.1613,-17.162],[12.1831,-17.1957],[12.2498,-17.2401],[12.2635,-17.2319],[12.2836,-17.2418],[12.3514,-17.2187],[12.3695,-17.2338],[12.4099,-17.2071],[12.4364,-17.2234],[12.4363,-17.2593],[12.4466,-17.2642],[12.4782,-17.242],[12.5413,-17.2477],[12.5788,-17.2283],[12.6056,-17.2316],[12.6114,-17.2095],[12.6731,-17.1725],[12.713,-17.1719],[12.735,-17.1473],[12.8054,-17.1157],[12.8237,-17.0854],[12.8714,-17.0667],[12.8729,-17.047],[12.9623,-17.01],[12.984,-16.9821],[13.0939,-16.98],[13.1694,-16.9635],[13.1991,-16.9742],[13.2012,-16.9888],[13.2326,-16.9863],[13.2459,-17],[13.3442,-16.9773],[13.3351,-16.9221],[13.3079,-16.8732],[13.1631,-16.734],[13.135,-16.6851],[13.1553,-16.6403],[13.2262,-16.5995],[13.2623,-16.5498],[13.2433,-16.5048],[13.2026,-16.4673],[13.2254,-16.4331],[13.2716,-16.4173],[13.2942,-16.3836],[13.3258,-16.382],[13.3417,-16.3517],[13.3528,-16.3656],[13.3823,-16.3392],[13.4015,-16.3378],[13.5396,-16.1925],[13.541,-16.1711],[13.5006,-16.0994],[13.4908,-16.0544],[13.5282,-15.963],[13.6065,-15.8277],[13.5534,-15.7341],[13.5597,-15.495],[13.4837,-15.4672],[13.436,-15.4307],[13.421,-15.4082],[13.4342,-15.3599],[13.4187,-15.3141],[13.391,-15.3077],[13.3804,-15.3288],[13.332,-15.3471],[13.311,-15.3224],[13.3144,-15.2635],[13.2856,-15.2579],[13.2373,-15.2707],[13.2145,-15.2507],[13.2126,-15.2274],[13.2874,-15.1857],[13.2952,-15.1621],[13.2359,-15.0943],[13.2846,-15.0224],[13.2595,-14.924],[13.3001,-14.8813],[13.3482,-14.8741],[13.4402,-14.7939],[13.5747,-14.7218],[13.6249,-14.6074],[13.6303,-14.5127],[13.686,-14.4389],[13.6723,-14.312],[13.6805,-14.2628],[13.6569,-14.2525],[13.6344,-14.2642],[13.6108,-14.2483],[13.6011,-14.2242],[13.6176,-14.1736],[13.5797,-14.0792],[13.6329,-13.977],[13.6321,-13.931],[13.5885,-13.902],[13.5706,-13.8479],[13.5203,-13.8492],[13.4512,-13.818],[13.4064,-13.8432],[13.3823,-13.8282],[13.3516,-13.757],[13.295,-13.6869],[13.2926,-13.6422],[13.3154,-13.5956],[13.309,-13.5719],[13.2868,-13.5596],[13.0859,-13.5144],[13.0729,-13.5165],[13.0556,-13.5621],[12.8946,-13.6216],[12.8306,-13.5756],[12.779,-13.5745],[12.7333,-13.5527],[12.6165,-13.5289],[12.5468,-13.5282]]]]}},{"type":"Feature","properties":{"name":"Uíge","code":"26408823B906914650007","iso":"AGO"},"geometry":{"type":"Polygon","coordinates":[[[14.8683,-8.3495],[14.879,-8.3111],[14.9147,-8.2775],[14.9658,-8.2825],[15.0162,-8.3153],[15.0683,-8.2906],[15.1235,-8.297],[15.1371,-8.2547],[15.1634,-8.2525],[15.2063,-8.1986],[15.2074,-8.136],[15.229,-8.103],[15.2085,-8.0702],[15.1821,-8.0702],[15.2065,-8.011],[15.1987,-7.9584],[15.2685,-7.9398],[15.4113,-7.9337],[15.454,-7.9637],[15.4627,-8.041],[15.4982,-8.0561],[15.5333,-8.0583],[15.5921,-8.0399],[15.6276,-8.0065],[15.7196,-8.0052],[15.7756,-8.0466],[15.7759,-8.0555],[15.7468,-8.0608],[15.7471,-8.0713],[15.7602,-8.108],[15.7868,-8.0997],[15.8004,-8.1139],[15.8053,-8.2105],[15.9155,-8.2264],[15.9593,-8.1842],[15.9845,-8.1725],[16.0316,-8.175],[16.0773,-8.1409],[16.1028,-8.0955],[16.1099,-8.0172],[16.1387,-7.9746],[16.1239,-7.8526],[16.0642,-7.6855],[16.0589,-7.6105],[16.1168,-7.5821],[16.216,-7.5754],[16.2371,-7.5518],[16.2853,-7.5337],[16.3556,-7.4198],[16.3983,-7.3886],[16.5849,-7.3196],[16.6511,-7.3452],[16.6793,-7.4191],[16.7614,-7.5309],[16.8244,-7.5906],[16.867,-7.6032],[16.9357,-7.5914],[16.9609,-7.57],[16.9749,-7.526],[16.9762,-7.4531],[16.9925,-7.4317],[17.0641,-7.3827],[17.1071,-7.3868],[17.1045,-7.347],[17.0686,-7.3443],[17.0229,-7.2928],[16.9787,-7.2918],[16.978,-7.2654],[16.9403,-7.2345],[16.9548,-7.2002],[16.9364,-7.1812],[16.9167,-7.1033],[16.9501,-7.1177],[16.9705,-7.0595],[16.9431,-7.0469],[16.9307,-7.02],[16.9037,-7.0246],[16.8978,-6.988],[16.9197,-6.9712],[16.9012,-6.9533],[16.9112,-6.9123],[16.8744,-6.8755],[16.8393,-6.8829],[16.8426,-6.8236],[16.8142,-6.8134],[16.8022,-6.7946],[16.7985,-6.7282],[16.7636,-6.7108],[16.7634,-6.6683],[16.7522,-6.6542],[16.7593,-6.6089],[16.7314,-6.5836],[16.7524,-6.5223],[16.7062,-6.479],[16.7206,-6.4595],[16.6951,-6.4206],[16.7181,-6.4154],[16.7226,-6.4015],[16.7112,-6.3876],[16.6798,-6.3906],[16.6951,-6.3539],[16.6752,-6.3365],[16.7196,-6.3305],[16.7145,-6.2779],[16.7035,-6.2669],[16.717,-6.2243],[16.703,-6.2088],[16.7303,-6.1646],[16.6875,-6.1081],[16.6632,-6.1058],[16.6619,-6.0908],[16.6359,-6.0967],[16.6451,-6.0655],[16.5977,-6.0572],[16.6238,-6.0368],[16.6153,-6.0257],[16.5876,-6.0302],[16.6028,-5.9825],[16.5863,-5.9646],[16.6039,-5.9502],[16.5747,-5.943],[16.5847,-5.909],[16.5782,-5.8737],[16.5548,-5.874],[16.4919,-5.8435],[16.4693,-5.8561],[16.4624,-5.846],[16.4458,-5.869],[16.424,-5.8704],[16.388,-5.8605],[16.1744,-5.86],[15.8144,-5.8778],[15.6801,-5.8619],[14.761,-5.8748],[14.7712,-5.9126],[14.8777,-6.0685],[14.8912,-6.1935],[14.9854,-6.2674],[14.9318,-6.3415],[14.8921,-6.3721],[14.7877,-6.5454],[14.6816,-6.5905],[14.6122,-6.6038],[14.5425,-6.6011],[14.501,-6.6536],[14.4339,-6.6833],[14.3409,-6.6814],[14.2824,-6.7194],[14.2413,-6.8141],[14.149,-6.8575],[14.0293,-6.8889],[13.9402,-6.9653],[13.852,-6.9634],[13.8037,-6.979],[13.835,-7.0287],[13.8581,-7.1228],[13.9417,-7.193],[13.9381,-7.2172],[13.8782,-7.2853],[13.8631,-7.355],[13.9027,-7.3947],[13.9138,-7.4389],[13.9695,-7.4887],[13.9189,-7.5423],[13.8461,-7.557],[13.8249,-7.6198],[13.8666,-7.6307],[13.9786,-7.6244],[14.1364,-7.6354],[14.1558,-7.6582],[14.1552,-7.6801],[14.2375,-7.7458],[14.3152,-7.8428],[14.4333,-7.9007],[14.5037,-7.9076],[14.6284,-7.8793],[14.7008,-7.8826],[14.7238,-7.9018],[14.7288,-7.9276],[14.72,-8.0902],[14.6519,-8.2053],[14.6358,-8.2789],[14.6685,-8.3984],[14.7058,-8.3922],[14.7807,-8.4123],[14.8214,-8.399],[14.8683,-8.3495]]]}},{"type":"Feature","properties":{"name":"Zaire","code":"26408823B68708736810578","iso":"AGO"},"geometry":{"type":"Polygon","coordinates":[[[13.8249,-7.6198],[13.8461,-7.557],[13.9189,-7.5423],[13.9695,-7.4887],[13.9138,-7.4389],[13.9027,-7.3947],[13.8631,-7.355],[13.8782,-7.2853],[13.9381,-7.2172],[13.9417,-7.193],[13.8581,-7.1228],[13.835,-7.0287],[13.8037,-6.979],[13.852,-6.9634],[13.9402,-6.9653],[14.0293,-6.8889],[14.149,-6.8575],[14.2413,-6.8141],[14.2824,-6.7194],[14.3409,-6.6814],[14.4339,-6.6833],[14.501,-6.6536],[14.5425,-6.6011],[14.6122,-6.6038],[14.6816,-6.5905],[14.7793,-6.5507],[14.8921,-6.3721],[14.9318,-6.3415],[14.9854,-6.2674],[14.8912,-6.1935],[14.8777,-6.0685],[14.7712,-5.9126],[14.761,-5.8748],[14.5958,-5.9047],[14.5054,-5.8874],[14.4123,-5.8968],[14.3033,-5.8814],[14.2996,-5.8643],[14.2827,-5.8571],[14.2603,-5.879],[14.239,-5.8808],[14.2281,-5.864],[14.2077,-5.8741],[14.1808,-5.8395],[14.1607,-5.8504],[14.1369,-5.8359],[14.1038,-5.8369],[14.0399,-5.8523],[13.9999,-5.8264],[13.9599,-5.8509],[13.7739,-5.8694],[13.5871,-5.8679],[13.5602,-5.8866],[13.5143,-5.8625],[13.4942,-5.8701],[13.431,-5.8601],[13.3783,-5.8714],[13.3543,-5.9079],[13.2188,-5.8642],[13.1182,-5.904],[13.0952,-5.8767],[13.0429,-5.8637],[12.9504,-5.9136],[12.8916,-5.9176],[12.886,-5.9348],[12.8457,-5.9424],[12.7908,-5.9833],[12.7448,-5.9747],[12.7037,-6.0021],[12.4621,-6.0755],[12.3997,-6.0701],[12.3629,-6.0529],[12.2757,-6.1093],[12.2785,-6.1537],[12.3951,-6.3238],[12.5624,-6.6635],[12.7465,-6.8657],[12.8296,-6.9932],[12.8501,-7.1107],[12.8429,-7.1518],[12.856,-7.201],[12.8532,-7.2693],[12.9135,-7.3346],[12.9354,-7.4329],[12.9551,-7.4563],[12.9868,-7.554],[13.0076,-7.5749],[12.9976,-7.5988],[13.0199,-7.6238],[13.0668,-7.7704],[13.0879,-7.8011],[13.1786,-7.7833],[13.2175,-7.7672],[13.2531,-7.7336],[13.2914,-7.7484],[13.3132,-7.7155],[13.3996,-7.6916],[13.466,-7.7363],[13.513,-7.7363],[13.5365,-7.7185],[13.6265,-7.7022],[13.6563,-7.6764],[13.7292,-7.6751],[13.8249,-7.6198]]]}}]}