{"type":"FeatureCollection","features":[{"type":"Feature","properties":{"name":"Gitega","code":"87207978B95213924600823","iso":"BDI"},"geometry":{"type":"Polygon","coordinates":[[[29.7206,-3.6528],[29.7612,-3.6473],[29.7805,-3.6685],[29.7522,-3.8239],[29.773,-3.8261],[29.797,-3.8012],[29.8345,-3.727],[29.8567,-3.7545],[29.8611,-3.7913],[29.9019,-3.8027],[29.9248,-3.8386],[29.9424,-3.8446],[29.9472,-3.7948],[29.9979,-3.7719],[29.9735,-3.7544],[30.0035,-3.7239],[30.0567,-3.709],[30.0919,-3.6647],[30.1028,-3.5993],[30.0572,-3.4782],[30.079,-3.4252],[30.0434,-3.3718],[30.0149,-3.3929],[29.9824,-3.3533],[30.0249,-3.2896],[30.0286,-3.2517],[29.9607,-3.1589],[29.9247,-3.1821],[29.9045,-3.1778],[29.9002,-3.143],[29.9265,-3.086],[29.8837,-3.0579],[29.8572,-3.0615],[29.8229,-3.0983],[29.8511,-3.1432],[29.8152,-3.1793],[29.8088,-3.2038],[29.8494,-3.2361],[29.8203,-3.2419],[29.7837,-3.2856],[29.7832,-3.2981],[29.8164,-3.3116],[29.8392,-3.3405],[29.8258,-3.3673],[29.8731,-3.3947],[29.8552,-3.4314],[29.8519,-3.507],[29.8402,-3.522],[29.7931,-3.5269],[29.7709,-3.5491],[29.8026,-3.6264],[29.746,-3.6208],[29.7206,-3.6528]]]}},{"type":"Feature","properties":{"name":"Kirundo","code":"87207978B16018837471159","iso":"BDI"},"geometry":{"type":"Polygon","coordinates":[[[30.363,-2.3542],[30.321,-2.385],[30.2366,-2.3624],[30.1996,-2.3902],[30.1863,-2.4265],[30.1305,-2.4373],[30.0967,-2.4235],[30.0273,-2.3466],[29.9592,-2.3273],[29.9441,-2.3694],[29.9684,-2.4628],[29.9222,-2.5553],[29.9342,-2.6482],[30.0118,-2.6883],[30.0167,-2.7165],[30.0522,-2.7416],[30.0702,-2.7832],[30.098,-2.7713],[30.123,-2.7769],[30.152,-2.7266],[30.1729,-2.7353],[30.2297,-2.6866],[30.2598,-2.6792],[30.2806,-2.6881],[30.357,-2.6005],[30.3946,-2.5975],[30.4098,-2.5735],[30.4161,-2.5329],[30.3998,-2.5007],[30.4163,-2.468],[30.363,-2.3542]]]}},{"type":"Feature","properties":{"name":"Muyinga","code":"87207978B26491438187770","iso":"BDI"},"geometry":{"type":"Polygon","coordinates":[[[30.0771,-2.783],[30.1357,-2.8562],[30.1574,-2.8416],[30.1928,-2.858],[30.1747,-2.8736],[30.1768,-2.9072],[30.2217,-2.9072],[30.2787,-2.9602],[30.2688,-3.0529],[30.2307,-3.1168],[30.2404,-3.1341],[30.273,-3.1537],[30.3006,-3.1436],[30.3201,-3.1557],[30.3404,-3.1472],[30.3636,-3.1562],[30.3606,-3.1359],[30.3811,-3.1205],[30.381,-3.0792],[30.4205,-3.0544],[30.4312,-3.005],[30.4458,-2.987],[30.4719,-2.9838],[30.4878,-2.9522],[30.44,-2.904],[30.4336,-2.8752],[30.4126,-2.8636],[30.4412,-2.7953],[30.4412,-2.7473],[30.4953,-2.712],[30.5293,-2.6664],[30.5175,-2.6536],[30.4615,-2.6918],[30.4202,-2.6666],[30.4834,-2.5557],[30.4839,-2.5276],[30.5192,-2.4758],[30.5409,-2.4124],[30.4703,-2.3663],[30.461,-2.3197],[30.4284,-2.3278],[30.3993,-2.3133],[30.363,-2.3542],[30.4163,-2.468],[30.3998,-2.5007],[30.4161,-2.5329],[30.3989,-2.5953],[30.357,-2.6005],[30.2806,-2.6881],[30.2598,-2.6792],[30.2297,-2.6866],[30.1729,-2.7353],[30.152,-2.7266],[30.123,-2.7769],[30.098,-2.7713],[30.0771,-2.783]]]}},{"type":"Feature","properties":{"name":"Ngozi","code":"87207978B61642532121810","iso":"BDI"},"geometry":{"type":"Polygon","coordinates":[[[29.9265,-3.086],[29.9429,-3.0571],[29.9653,-3.055],[29.9842,-3.0123],[30.0179,-2.9844],[30.0843,-2.9801],[30.1492,-2.9397],[30.1768,-2.9072],[30.1747,-2.8736],[30.1928,-2.858],[30.1574,-2.8416],[30.1357,-2.8562],[30.1258,-2.8482],[30.1035,-2.8034],[30.0702,-2.7832],[30.0522,-2.7416],[30.0167,-2.7165],[30.0118,-2.6883],[29.9342,-2.6482],[29.9132,-2.7093],[29.8781,-2.7603],[29.8397,-2.781],[29.7955,-2.7568],[29.7705,-2.7677],[29.7508,-2.8103],[29.7236,-2.8163],[29.6623,-2.7906],[29.6607,-2.8299],[29.6364,-2.8424],[29.6514,-2.8651],[29.6989,-2.8752],[29.7123,-2.9323],[29.7535,-2.9213],[29.7587,-2.9564],[29.8,-3.0138],[29.8757,-3.0059],[29.8632,-3.0599],[29.8837,-3.0579],[29.9265,-3.086]]]}},{"type":"Feature","properties":{"name":"Makamba","code":"87207978B35376687740120","iso":"BDI"},"geometry":{"type":"Polygon","coordinates":[[[30.1857,-4.071],[30.1492,-4.0409],[30.1033,-4.0706],[30.0244,-4.061],[29.9882,-4.0886],[29.8841,-4.0934],[29.8686,-4.0756],[29.8224,-4.0808],[29.8146,-4.0409],[29.7916,-4.0106],[29.768,-4.0029],[29.7483,-4.0191],[29.732,-4.0657],[29.6811,-4.0701],[29.611,-4.1504],[29.5414,-4.1673],[29.548,-4.2365],[29.5872,-4.3347],[29.6642,-4.3937],[29.6712,-4.4511],[29.7595,-4.4658],[29.7647,-4.426],[29.8138,-4.3617],[29.8691,-4.3763],[29.8861,-4.3556],[29.9362,-4.3401],[29.976,-4.3009],[30.0426,-4.2697],[30.0895,-4.1565],[30.1487,-4.1181],[30.1857,-4.071]]]}},{"type":"Feature","properties":{"name":"Rutana","code":"87207978B60452886876050","iso":"BDI"},"geometry":{"type":"Polygon","coordinates":[[[29.9152,-3.8229],[29.891,-3.843],[29.9011,-3.8779],[29.8867,-3.8828],[29.8805,-3.9179],[29.8146,-4.0409],[29.8224,-4.0808],[29.8686,-4.0756],[29.8841,-4.0934],[29.9105,-4.0957],[29.9382,-4.083],[29.9498,-4.0967],[29.9882,-4.0886],[30.0244,-4.061],[30.1098,-4.0689],[30.1492,-4.0409],[30.1857,-4.071],[30.2216,-4.0324],[30.2211,-3.9905],[30.2615,-3.8817],[30.3078,-3.846],[30.3272,-3.7885],[30.3698,-3.7757],[30.3972,-3.7943],[30.407,-3.7688],[30.3916,-3.715],[30.3572,-3.7271],[30.3271,-3.7164],[30.3173,-3.6921],[30.2788,-3.6896],[30.2465,-3.6518],[30.2087,-3.6497],[30.1566,-3.6829],[30.1219,-3.6427],[30.0963,-3.6328],[30.0919,-3.6647],[30.0567,-3.709],[30.0035,-3.7239],[29.9735,-3.7544],[29.9979,-3.7719],[29.9472,-3.7948],[29.9375,-3.8188],[29.9464,-3.8437],[29.9152,-3.8229]]]}},{"type":"Feature","properties":{"name":"Ruyigi","code":"87207978B85164203636576","iso":"BDI"},"geometry":{"type":"Polygon","coordinates":[[[30.0963,-3.6328],[30.1219,-3.6427],[30.1566,-3.6829],[30.2087,-3.6497],[30.2465,-3.6518],[30.2788,-3.6896],[30.3173,-3.6921],[30.3271,-3.7164],[30.3572,-3.7271],[30.3815,-3.7205],[30.446,-3.6153],[30.4485,-3.5628],[30.4965,-3.5194],[30.5166,-3.5265],[30.539,-3.5022],[30.6186,-3.4655],[30.6629,-3.4308],[30.6752,-3.3963],[30.6352,-3.3615],[30.5776,-3.3955],[30.5762,-3.375],[30.5505,-3.3525],[30.5202,-3.3476],[30.5205,-3.3288],[30.5411,-3.3162],[30.5005,-3.3005],[30.4838,-3.3144],[30.4625,-3.3069],[30.4311,-3.2421],[30.3666,-3.2115],[30.3256,-3.2174],[30.32,-3.1872],[30.3015,-3.1925],[30.2524,-3.2443],[30.2341,-3.2867],[30.2194,-3.2836],[30.1861,-3.3243],[30.0613,-3.3538],[30.0434,-3.3718],[30.079,-3.4252],[30.0572,-3.4782],[30.1028,-3.5993],[30.0963,-3.6328]]]}},{"type":"Feature","properties":{"name":"Cankuzo","code":"87207978B60812330206497","iso":"BDI"},"geometry":{"type":"Polygon","coordinates":[[[30.3505,-3.1528],[30.3265,-3.1724],[30.3209,-3.2152],[30.3666,-3.2115],[30.4229,-3.2368],[30.4752,-3.3131],[30.4968,-3.3003],[30.5411,-3.3162],[30.5205,-3.3288],[30.5202,-3.3476],[30.5505,-3.3525],[30.5762,-3.375],[30.5776,-3.3955],[30.6352,-3.3615],[30.6673,-3.321],[30.7184,-3.3001],[30.733,-3.2727],[30.7581,-3.2905],[30.8413,-3.253],[30.8144,-3.2215],[30.844,-3.205],[30.8421,-3.1569],[30.8216,-3.1498],[30.8346,-3.0916],[30.7985,-3.0532],[30.8511,-2.9725],[30.7602,-2.9977],[30.7042,-2.972],[30.6708,-2.9938],[30.6478,-2.972],[30.6461,-2.9526],[30.5676,-2.8955],[30.5391,-2.9341],[30.5086,-2.953],[30.4874,-2.9485],[30.4719,-2.9838],[30.4458,-2.987],[30.4181,-3.0282],[30.4205,-3.0544],[30.381,-3.0792],[30.3811,-3.1205],[30.3606,-3.1359],[30.3636,-3.1562],[30.3505,-3.1528]]]}},{"type":"Feature","properties":{"name":"Karuzi","code":"87207978B19413274687877","iso":"BDI"},"geometry":{"type":"Polygon","coordinates":[[[30.0434,-3.3718],[30.0613,-3.3538],[30.1861,-3.3243],[30.2194,-3.2836],[30.2341,-3.2867],[30.263,-3.2313],[30.3505,-3.1528],[30.3201,-3.1557],[30.3006,-3.1436],[30.2636,-3.1514],[30.2325,-3.1216],[30.2688,-3.0529],[30.2794,-2.965],[30.2217,-2.9072],[30.1768,-2.9072],[30.1492,-2.9397],[30.0843,-2.9801],[30.0179,-2.9844],[29.9842,-3.0123],[29.9653,-3.055],[29.9385,-3.0619],[29.9394,-3.079],[29.9148,-3.1041],[29.9002,-3.143],[29.9045,-3.1778],[29.9247,-3.1821],[29.9607,-3.1589],[30.0286,-3.2517],[30.0249,-3.2896],[29.9824,-3.3533],[30.0149,-3.3929],[30.0434,-3.3718]]]}},{"type":"Feature","properties":{"name":"Cibitoke","code":"87207978B68487327478732","iso":"BDI"},"geometry":{"type":"Polygon","coordinates":[[[29.4317,-2.8046],[29.3683,-2.8385],[29.353,-2.8018],[29.3578,-2.783],[29.336,-2.7485],[29.3541,-2.7248],[29.3336,-2.6898],[29.3341,-2.6587],[29.2827,-2.6285],[29.2153,-2.6235],[29.1507,-2.5907],[29.1341,-2.6007],[29.0886,-2.5907],[29.0643,-2.5984],[29.0412,-2.7463],[29.0007,-2.7906],[29.0061,-2.8153],[29.0543,-2.8234],[29.0894,-2.8742],[29.0994,-2.9235],[29.158,-2.9505],[29.1688,-2.9952],[29.2382,-3.034],[29.2563,-3.076],[29.2523,-3.1009],[29.2737,-3.103],[29.2953,-3.0969],[29.2892,-3.0328],[29.3029,-3.0082],[29.3545,-2.9985],[29.37,-2.9498],[29.395,-2.9473],[29.4082,-2.9647],[29.4495,-2.9369],[29.4767,-2.937],[29.4851,-2.9167],[29.4527,-2.827],[29.4317,-2.8046]]]}},{"type":"Feature","properties":{"name":"Kayanza","code":"87207978B90339845453995","iso":"BDI"},"geometry":{"type":"Polygon","coordinates":[[[29.8632,-3.0599],[29.8757,-3.0059],[29.8,-3.0138],[29.7587,-2.9564],[29.7535,-2.9213],[29.7123,-2.9323],[29.6989,-2.8752],[29.645,-2.8579],[29.6364,-2.8424],[29.6607,-2.8299],[29.6623,-2.7906],[29.5271,-2.8303],[29.4867,-2.806],[29.4317,-2.8046],[29.4527,-2.827],[29.474,-2.9013],[29.5124,-2.9272],[29.5086,-2.955],[29.5541,-3.074],[29.5484,-3.1073],[29.5743,-3.113],[29.587,-3.1428],[29.6122,-3.1462],[29.6296,-3.1665],[29.6764,-3.1561],[29.7043,-3.2096],[29.7442,-3.228],[29.7574,-3.2067],[29.8087,-3.1961],[29.8499,-3.1493],[29.8505,-3.1279],[29.8285,-3.1185],[29.8229,-3.0983],[29.8632,-3.0599]]]}},{"type":"Feature","properties":{"name":"Bubanza","code":"87207978B36636371084075","iso":"BDI"},"geometry":{"type":"Polygon","coordinates":[[[29.2523,-3.1009],[29.2583,-3.1157],[29.2359,-3.1519],[29.2251,-3.2327],[29.239,-3.2688],[29.2793,-3.3156],[29.2945,-3.2925],[29.3435,-3.2651],[29.4133,-3.2557],[29.4175,-3.2706],[29.4879,-3.2503],[29.516,-3.2637],[29.5609,-3.1669],[29.5346,-3.1284],[29.5541,-3.074],[29.5203,-2.9959],[29.5033,-2.9161],[29.4082,-2.9647],[29.395,-2.9473],[29.37,-2.9498],[29.3545,-2.9985],[29.3056,-3.0064],[29.2892,-3.0328],[29.2953,-3.0969],[29.2523,-3.1009]]]}},{"type":"Feature","properties":{"name":"Muramvya","code":"87207978B78895752231307","iso":"BDI"},"geometry":{"type":"Polygon","coordinates":[[[29.8087,-3.1961],[29.7856,-3.1937],[29.7369,-3.2278],[29.7043,-3.2096],[29.6764,-3.1561],[29.6296,-3.1665],[29.6122,-3.1462],[29.5846,-3.141],[29.5743,-3.113],[29.5484,-3.1073],[29.5346,-3.1284],[29.5609,-3.1669],[29.5186,-3.2602],[29.5026,-3.2636],[29.5335,-3.3223],[29.523,-3.3398],[29.5606,-3.3999],[29.5814,-3.3825],[29.5856,-3.3486],[29.6182,-3.3564],[29.6427,-3.384],[29.6504,-3.4259],[29.6994,-3.4042],[29.7176,-3.3615],[29.7337,-3.3545],[29.7583,-3.3687],[29.7837,-3.2856],[29.8203,-3.2419],[29.8508,-3.2323],[29.8236,-3.2221],[29.8087,-3.1961]]]}},{"type":"Feature","properties":{"name":"Bujumbura Rural","code":"87207978B39611815861631","iso":"BDI"},"geometry":{"type":"Polygon","coordinates":[[[29.239,-3.2688],[29.2101,-3.2951],[29.1939,-3.3367],[29.2012,-3.3521],[29.2656,-3.3629],[29.3147,-3.3535],[29.3107,-3.3057],[29.3224,-3.3036],[29.3302,-3.3228],[29.3422,-3.3087],[29.4245,-3.315],[29.4083,-3.346],[29.4053,-3.4051],[29.3831,-3.4053],[29.3938,-3.4285],[29.3743,-3.4268],[29.3519,-3.443],[29.3394,-3.4293],[29.3444,-3.5854],[29.3478,-3.5953],[29.3706,-3.5918],[29.383,-3.5681],[29.41,-3.5607],[29.4127,-3.589],[29.4496,-3.585],[29.4671,-3.6126],[29.4919,-3.6242],[29.4971,-3.6752],[29.5069,-3.6738],[29.5348,-3.5912],[29.5725,-3.5461],[29.5855,-3.5455],[29.5812,-3.4938],[29.598,-3.4715],[29.579,-3.4354],[29.5898,-3.3881],[29.5593,-3.3982],[29.523,-3.3398],[29.5335,-3.3223],[29.5238,-3.2928],[29.491,-3.2504],[29.4175,-3.2706],[29.4133,-3.2557],[29.3435,-3.2651],[29.2945,-3.2925],[29.2793,-3.3156],[29.239,-3.2688]]]}},{"type":"Feature","properties":{"name":"Bujumbura Mairie","code":"87207978B47636051590360","iso":"BDI"},"geometry":{"type":"Polygon","coordinates":[[[29.3147,-3.3535],[29.3404,-3.3671],[29.3486,-3.3863],[29.3394,-3.4293],[29.3614,-3.4427],[29.3743,-3.4268],[29.3938,-3.4285],[29.3831,-3.4053],[29.4053,-3.4051],[29.4083,-3.346],[29.4245,-3.315],[29.3422,-3.3087],[29.3302,-3.3228],[29.3224,-3.3036],[29.3107,-3.3057],[29.3147,-3.3535]]]}},{"type":"Feature","properties":{"name":"Bururi","code":"87207978B31722215463268","iso":"BDI"},"geometry":{"type":"Polygon","coordinates":[[[29.7206,-3.6528],[29.6997,-3.7],[29.669,-3.7197],[29.678,-3.6562],[29.625,-3.6202],[29.5923,-3.567],[29.5666,-3.5586],[29.5348,-3.5912],[29.5069,-3.6738],[29.4892,-3.6878],[29.4947,-3.7099],[29.5255,-3.707],[29.5449,-3.7461],[29.5682,-3.7179],[29.6068,-3.7825],[29.5522,-3.9059],[29.5151,-3.9511],[29.5499,-3.9528],[29.5598,-3.9841],[29.5184,-4.0153],[29.534,-4.0522],[29.5274,-4.0926],[29.5577,-4.1575],[29.611,-4.1504],[29.6811,-4.0701],[29.732,-4.0657],[29.7483,-4.0191],[29.768,-4.0029],[29.7916,-4.0106],[29.8146,-4.0409],[29.8805,-3.9179],[29.8867,-3.8828],[29.9031,-3.8722],[29.891,-3.843],[29.9151,-3.8178],[29.8611,-3.7913],[29.8567,-3.7545],[29.8345,-3.727],[29.797,-3.8012],[29.773,-3.8261],[29.7522,-3.8239],[29.7805,-3.6685],[29.7612,-3.6473],[29.7206,-3.6528]]]}},{"type":"Feature","properties":{"name":"Mwaro","code":"87207978B17615748265547","iso":"BDI"},"geometry":{"type":"Polygon","coordinates":[[[29.7832,-3.2981],[29.7583,-3.3687],[29.7337,-3.3545],[29.7176,-3.3615],[29.6994,-3.4042],[29.6757,-3.4074],[29.6579,-3.4264],[29.6182,-3.3564],[29.5815,-3.3497],[29.5903,-3.3946],[29.579,-3.4354],[29.598,-3.4715],[29.5812,-3.4938],[29.5855,-3.5455],[29.5666,-3.5586],[29.5923,-3.567],[29.625,-3.6202],[29.678,-3.6562],[29.669,-3.7197],[29.6997,-3.7],[29.7186,-3.6468],[29.746,-3.6208],[29.8026,-3.6264],[29.7709,-3.5491],[29.7931,-3.5269],[29.8402,-3.522],[29.8519,-3.507],[29.8552,-3.4314],[29.8731,-3.3947],[29.8258,-3.3673],[29.8392,-3.3405],[29.8164,-3.3116],[29.7832,-3.2981]]]}},{"type":"Feature","properties":{"name":"Rumonge","code":"87207978B49849916836933","iso":"BDI"},"geometry":{"type":"Polygon","coordinates":[[[29.5577,-4.1575],[29.5274,-4.0926],[29.534,-4.0522],[29.5184,-4.0153],[29.5598,-3.9841],[29.5499,-3.9528],[29.5151,-3.9511],[29.5522,-3.9059],[29.6068,-3.7825],[29.5682,-3.7179],[29.5449,-3.7461],[29.5255,-3.707],[29.4947,-3.7099],[29.4919,-3.6242],[29.4671,-3.6126],[29.4496,-3.585],[29.4127,-3.589],[29.4056,-3.5592],[29.383,-3.5681],[29.3706,-3.5918],[29.3478,-3.5953],[29.3133,-3.7255],[29.413,-3.9543],[29.432,-3.9696],[29.4295,-4.0075],[29.488,-4.0927],[29.5164,-4.1781],[29.5383,-4.1927],[29.5414,-4.1673],[29.5577,-4.1575]]]}}]}