{"type":"FeatureCollection","features":[{"type":"Feature","properties":{"name":"Borgou","code":"11314189B6086502013331","iso":"BEN"},"geometry":{"type":"Polygon","coordinates":[[[3.8385,10.6914],[3.7097,10.6444],[3.7159,10.6624],[3.4142,10.5742],[3.3742,10.578],[3.116,10.4856],[2.969,10.4641],[2.9114,10.4856],[2.9001,10.5182],[2.7819,10.5176],[2.7154,10.4521],[2.6714,10.4492],[2.5805,10.4742],[2.5482,10.5175],[2.4925,10.5261],[2.4427,10.5002],[2.3478,10.4944],[2.2892,10.5155],[2.2814,10.4915],[2.2393,10.4694],[2.2149,10.431],[2.2051,10.3675],[2.2677,10.2675],[2.3039,10.1367],[2.2824,10.0991],[2.254,10.0828],[2.2032,10.0654],[2.1211,10.0674],[2.1103,10.051],[2.1201,10.0096],[2.1181,9.9865],[2.0986,9.973],[2.1074,9.9037],[2.0919,9.799],[2.1163,9.7176],[2.1726,9.6405],[2.1318,9.3805],[2.0976,9.3515],[2.0096,9.3467],[1.9852,9.3197],[1.9803,9.2908],[1.9745,9.1441],[2.0527,9.0823],[2.0165,8.9202],[2.0468,8.8545],[2.1007,8.8242],[2.1948,8.8048],[2.2028,8.7957],[2.1896,8.7577],[2.7325,8.7656],[2.7341,8.7921],[2.7557,8.8056],[2.7493,8.8495],[2.7714,8.889],[2.7558,8.913],[2.7701,8.9277],[2.773,9.0476],[2.7848,9.0688],[2.8649,9.0659],[2.8962,9.0862],[2.9294,9.0901],[2.9891,9.0717],[3.0868,9.1055],[3.165,9.3052],[3.1366,9.448],[3.1503,9.4798],[3.2461,9.5983],[3.2588,9.6514],[3.3419,9.6774],[3.3488,9.6899],[3.3302,9.793],[3.3488,9.8257],[3.4905,9.8874],[3.5218,9.8825],[3.6055,9.9985],[3.6201,10.1064],[3.6669,10.1514],[3.6766,10.2002],[3.6685,10.2243],[3.626,10.2456],[3.5832,10.3028],[3.636,10.4054],[3.6381,10.4377],[3.6821,10.4732],[3.773,10.4483],[3.7857,10.4569],[3.8082,10.5088],[3.8023,10.5463],[3.8433,10.6289],[3.8385,10.6914]]]}},{"type":"Feature","properties":{"name":"Alibori","code":"11314189B84365908568321","iso":"BEN"},"geometry":{"type":"Polygon","coordinates":[[[3.8385,10.6914],[3.836,10.7377],[3.7853,10.75],[3.7797,10.7918],[3.7484,10.8108],[3.7459,10.8409],[3.7722,10.9146],[3.7428,11.0141],[3.7265,11.0313],[3.7266,11.1229],[3.6818,11.1354],[3.4968,11.2992],[3.5296,11.4779],[3.5961,11.6939],[3.5204,11.7527],[3.51,11.7856],[3.4664,11.8225],[3.4371,11.8272],[3.3691,11.8789],[3.3298,11.8613],[3.309,11.8671],[3.2654,11.9294],[3.247,11.9987],[3.1767,12.0519],[3.1721,12.0833],[3.1477,12.1117],[3.1156,12.1087],[3.0897,12.149],[3.0225,12.1774],[3.0194,12.2281],[3.0041,12.249],[2.9507,12.2729],[2.8438,12.3878],[2.8078,12.4114],[2.7453,12.3938],[2.7148,12.3643],[2.6866,12.3668],[2.6682,12.2987],[2.6379,12.3168],[2.5992,12.2988],[2.5794,12.3097],[2.5419,12.2774],[2.4951,12.3001],[2.4859,12.2614],[2.4634,12.2817],[2.4538,12.252],[2.4326,12.2739],[2.3786,12.2645],[2.4036,12.1151],[2.4153,12.0731],[2.4329,12.0568],[2.4348,12.0205],[2.4866,12.0033],[2.4886,11.9746],[2.4671,11.9612],[2.4515,11.9698],[2.4358,11.944],[2.4075,11.9507],[2.4006,11.9278],[2.4163,11.9105],[2.4202,11.8579],[2.4026,11.8379],[2.3879,11.769],[2.3293,11.7058],[2.339,11.6532],[2.2139,11.5976],[2.0328,11.4344],[2.2772,10.9864],[2.3596,10.9611],[2.3928,10.917],[2.3557,10.9016],[2.298,10.8373],[2.2843,10.7346],[2.2915,10.5147],[2.3478,10.4944],[2.4427,10.5002],[2.4925,10.5261],[2.5482,10.5175],[2.5805,10.4742],[2.6714,10.4492],[2.7154,10.4521],[2.7819,10.5176],[2.9001,10.5182],[2.9114,10.4856],[2.969,10.4641],[3.116,10.4856],[3.3742,10.578],[3.4142,10.5742],[3.7159,10.6624],[3.7097,10.6444],[3.8385,10.6914]]]}},{"type":"Feature","properties":{"name":"Atakora","code":"11314189B98234112011604","iso":"BEN"},"geometry":{"type":"Polygon","coordinates":[[[2.2915,10.5147],[2.2843,10.7346],[2.298,10.8373],[2.3557,10.9016],[2.3928,10.917],[2.3596,10.9611],[2.2772,10.9864],[2.045,11.4239],[2.0328,11.4344],[1.8751,11.456],[1.7732,11.4323],[1.732,11.437],[1.6367,11.4001],[1.5967,11.404],[1.5802,11.4362],[1.5422,11.4597],[1.4761,11.4597],[1.4505,11.4727],[1.3945,11.4444],[1.3755,11.3816],[1.3496,11.3791],[1.3099,11.3452],[1.3437,11.3123],[1.3306,11.298],[1.305,11.2897],[1.2709,11.311],[1.2407,11.3048],[1.2666,11.2733],[1.2507,11.2449],[1.2192,11.262],[1.1602,11.2535],[1.1441,11.2703],[1.1208,11.2553],[1.1536,11.1595],[1.1384,11.1542],[1.1195,11.1663],[1.0477,11.1255],[1.0508,11.1155],[1.0729,11.1167],[1.1169,11.0264],[1.065,11.0467],[1.0249,11.0427],[0.9853,11.0698],[0.9557,11.0663],[0.9585,11.049],[0.9357,11.018],[0.9477,10.989],[0.9021,10.9779],[0.8764,10.9005],[0.8921,10.863],[0.8708,10.8465],[0.8639,10.7838],[0.7883,10.6952],[0.797,10.5846],[0.7708,10.5074],[0.7687,10.3822],[1.3654,9.9878],[1.5893,10],[1.6978,10.0481],[1.7262,10.0934],[1.798,10.1043],[1.8482,10.0629],[2.2032,10.0654],[2.2824,10.0991],[2.3039,10.1367],[2.297,10.1886],[2.2403,10.3223],[2.2169,10.3348],[2.2012,10.3887],[2.2393,10.4694],[2.2814,10.4915],[2.2915,10.5147]]]}},{"type":"Feature","properties":{"name":"Donga","code":"11314189B13023113934095","iso":"BEN"},"geometry":{"type":"Polygon","coordinates":[[[2.1185,10.0634],[2.0369,10.072],[1.8482,10.0629],[1.798,10.1043],[1.7262,10.0934],[1.6978,10.0481],[1.5893,10],[1.3596,9.9948],[1.3743,9.6408],[1.346,9.553],[1.3714,9.4962],[1.3909,9.5],[1.4193,9.3334],[1.4906,9.2377],[1.5698,9.1624],[1.602,9.1074],[1.6128,9.0486],[1.6221,8.5924],[1.7223,8.5936],[1.7887,8.6149],[1.8288,8.6023],[1.8924,8.5501],[1.933,8.5497],[2.04,8.4748],[2.1582,8.4575],[2.2095,8.4847],[2.1947,8.5272],[2.2084,8.5574],[2.2062,8.6464],[2.1812,8.7336],[2.2028,8.7957],[2.0566,8.8477],[2.0165,8.9018],[2.0233,8.981],[2.0527,9.0823],[1.9745,9.1441],[1.9696,9.1914],[1.9852,9.3197],[2.0096,9.3467],[2.0976,9.3515],[2.1318,9.3805],[2.1726,9.6405],[2.1163,9.7176],[2.0919,9.799],[2.1074,9.9037],[2.0986,9.973],[2.1181,9.9865],[2.1103,10.051],[2.1185,10.0634]]]}},{"type":"Feature","properties":{"name":"Collines","code":"11314189B64147716128567","iso":"BEN"},"geometry":{"type":"Polygon","coordinates":[[[2.1896,8.7577],[2.1812,8.7336],[2.2062,8.6464],[2.2084,8.5574],[2.1947,8.5272],[2.2095,8.4847],[2.1582,8.4575],[2.04,8.4748],[1.933,8.5497],[1.8924,8.5501],[1.8288,8.6023],[1.7887,8.6149],[1.6571,8.5886],[1.6221,8.5924],[1.6159,8.6133],[1.6177,8.5528],[1.6496,8.5039],[1.6227,8.4532],[1.6127,8.3758],[1.6234,8.364],[1.6275,8.2542],[1.6334,7.651],[1.906,7.6114],[2.0732,7.5378],[2.2233,7.5159],[2.299,7.4836],[2.3371,7.4464],[2.3628,7.4389],[2.416,7.4538],[2.443,7.5049],[2.4711,7.5248],[2.4707,7.5922],[2.4859,7.6367],[2.7233,7.6474],[2.7297,7.8041],[2.7061,7.8247],[2.6768,7.8886],[2.6925,7.9237],[2.7137,8.1325],[2.7381,8.1919],[2.7006,8.3034],[2.7,8.3554],[2.7463,8.5039],[2.7335,8.655],[2.7427,8.7067],[2.7325,8.7656],[2.1896,8.7577]]]}},{"type":"Feature","properties":{"name":"Plateau","code":"11314189B63929627317717","iso":"BEN"},"geometry":{"type":"Polygon","coordinates":[[[2.4019,7.4491],[2.405,7.4211],[2.421,7.4084],[2.4221,7.3343],[2.4593,7.2101],[2.5209,7.1646],[2.516,7.1316],[2.5414,7.0239],[2.5169,6.876],[2.5307,6.8336],[2.5917,6.7033],[2.6277,6.569],[2.7214,6.5537],[2.7349,6.6755],[2.7509,6.6948],[2.7721,6.694],[2.7805,6.7151],[2.7569,6.7831],[2.7257,6.793],[2.735,6.9257],[2.71,6.9499],[2.7244,7.0095],[2.7763,7.0529],[2.7496,7.0734],[2.733,7.1083],[2.7584,7.1578],[2.7437,7.3973],[2.7497,7.4208],[2.7829,7.4406],[2.7845,7.5089],[2.7313,7.5609],[2.7233,7.6474],[2.4859,7.6367],[2.4691,7.5783],[2.4767,7.5371],[2.4019,7.4491]]]}},{"type":"Feature","properties":{"name":"Zou","code":"11314189B15837635829289","iso":"BEN"},"geometry":{"type":"Polygon","coordinates":[[[1.6334,7.651],[1.6409,7.5259],[1.6875,7.4688],[1.7501,7.3287],[1.7504,7.2933],[1.8177,7.2309],[1.8261,7.2019],[1.8505,7.1821],[1.8821,7.0836],[2.0243,6.891],[2.0419,6.8852],[2.0869,6.9055],[2.2639,6.9424],[2.3115,6.9747],[2.3302,6.9437],[2.3745,6.9921],[2.3976,6.9875],[2.4065,6.9705],[2.5339,6.9733],[2.5414,7.0239],[2.516,7.1316],[2.5209,7.1646],[2.4593,7.2101],[2.4221,7.3343],[2.421,7.4084],[2.405,7.4211],[2.4019,7.4491],[2.3628,7.4389],[2.3371,7.4464],[2.299,7.4836],[2.2233,7.5159],[2.0732,7.5378],[1.906,7.6114],[1.6334,7.651]]]}},{"type":"Feature","properties":{"name":"Littoral","code":"11314189B51785125282818","iso":"BEN"},"geometry":{"type":"Polygon","coordinates":[[[2.329,6.3055],[2.4109,6.3092],[2.5479,6.3391],[2.5017,6.3944],[2.476,6.4118],[2.4422,6.4143],[2.3578,6.3845],[2.329,6.3055]]]}},{"type":"Feature","properties":{"name":"Kouffo","code":"11314189B98727282609866","iso":"BEN"},"geometry":{"type":"Polygon","coordinates":[[[1.6433,7.5244],[1.6443,6.9985],[1.5498,7.0097],[1.5754,6.9349],[1.6041,6.9098],[1.6027,6.8163],[1.6279,6.7555],[1.6102,6.7296],[1.6632,6.738],[1.7167,6.7638],[1.8492,6.7822],[1.893,6.7555],[1.9124,6.7095],[2.0107,6.6634],[2.0463,6.7783],[2.0699,6.8149],[2.0695,6.8507],[2.0891,6.8586],[2.0782,6.903],[2.0419,6.8852],[2.0243,6.891],[1.9056,7.0457],[1.8613,7.1241],[1.8505,7.1821],[1.7832,7.2734],[1.7504,7.2933],[1.7501,7.3287],[1.6875,7.4688],[1.6433,7.5244]]]}},{"type":"Feature","properties":{"name":"Oueme","code":"11314189B51984097201256","iso":"BEN"},"geometry":{"type":"Polygon","coordinates":[[[2.5339,6.9733],[2.4061,6.9713],[2.3684,6.9039],[2.4022,6.8654],[2.4128,6.8313],[2.4302,6.5127],[2.4767,6.486],[2.4758,6.4119],[2.5479,6.3391],[2.7069,6.3778],[2.7041,6.461],[2.7214,6.5537],[2.6277,6.569],[2.5917,6.7033],[2.5169,6.876],[2.5339,6.9733]]]}},{"type":"Feature","properties":{"name":"Atlanique","code":"11314189B92184841279532","iso":"BEN"},"geometry":{"type":"Polygon","coordinates":[[[2.0782,6.903],[2.0891,6.8586],[2.0695,6.8507],[2.0699,6.8149],[2.0463,6.7783],[2.0107,6.6634],[2.0199,6.6352],[1.9903,6.5948],[1.9963,6.4817],[1.9666,6.3813],[2.0025,6.2517],[2.3301,6.299],[2.3578,6.3845],[2.4422,6.4143],[2.4758,6.4119],[2.4795,6.4323],[2.4767,6.486],[2.4302,6.5127],[2.4128,6.8313],[2.4022,6.8654],[2.3684,6.9039],[2.4061,6.9713],[2.3976,6.9875],[2.3745,6.9921],[2.3302,6.9437],[2.3115,6.9747],[2.2639,6.9424],[2.0782,6.903]]]}},{"type":"Feature","properties":{"name":"Mono","code":"11314189B32238589455429","iso":"BEN"},"geometry":{"type":"Polygon","coordinates":[[[1.6102,6.7296],[1.5956,6.7229],[1.5892,6.6882],[1.6191,6.6489],[1.6279,6.5938],[1.6771,6.5763],[1.6827,6.5568],[1.7052,6.5433],[1.7173,6.4827],[1.7388,6.4799],[1.7616,6.4575],[1.817,6.2609],[1.6694,6.24],[1.6522,6.2285],[1.6583,6.2107],[1.7829,6.2222],[1.8851,6.2467],[2.0025,6.2516],[1.9666,6.3813],[1.9963,6.4817],[1.9903,6.5948],[2.0199,6.6352],[2.0107,6.6634],[1.9124,6.7095],[1.893,6.7555],[1.8492,6.7822],[1.7167,6.7638],[1.6632,6.738],[1.6102,6.7296]]]}}]}