{"type":"FeatureCollection","features":[{"type":"Feature","properties":{"name":"Centre","code":"92566538B14190085014946","iso":"BFA"},"geometry":{"type":"Polygon","coordinates":[[[-1.0708,12.1786],[-1.0636,12.2004],[-1.0714,12.2226],[-1.0918,12.2258],[-1.0966,12.2664],[-1.1436,12.2616],[-1.1459,12.2777],[-1.1654,12.2799],[-1.1711,12.3054],[-1.1884,12.2938],[-1.2052,12.3258],[-1.2796,12.3551],[-1.2702,12.3947],[-1.249,12.4172],[-1.2532,12.4922],[-1.3458,12.5091],[-1.3889,12.4749],[-1.4494,12.4655],[-1.4606,12.5001],[-1.4471,12.5365],[-1.4748,12.5688],[-1.5558,12.5459],[-1.5756,12.5521],[-1.578,12.5872],[-1.5606,12.6232],[-1.5837,12.6807],[-1.6033,12.6849],[-1.6242,12.6113],[-1.6735,12.6058],[-1.7284,12.5767],[-1.7199,12.5034],[-1.6917,12.4759],[-1.6942,12.4463],[-1.6815,12.4242],[-1.7496,12.409],[-1.7732,12.3816],[-1.8133,12.3713],[-1.7856,12.338],[-1.8175,12.3208],[-1.7865,12.3009],[-1.7863,12.2425],[-1.8238,12.2153],[-1.8269,12.1595],[-1.7912,12.0935],[-1.7234,12.0922],[-1.69,12.0513],[-1.6611,12.0923],[-1.5678,12.1402],[-1.538,12.189],[-1.4879,12.2043],[-1.4401,12.1925],[-1.4055,12.1061],[-1.3703,12.1347],[-1.3125,12.1545],[-1.2933,12.1553],[-1.2808,12.1381],[-1.2511,12.1603],[-1.1645,12.1635],[-1.1249,12.1428],[-1.0708,12.1786]]]}},{"type":"Feature","properties":{"name":"Boucle du Mouhoun","code":"92566538B5930876876994","iso":"BFA"},"geometry":{"type":"Polygon","coordinates":[[[-2.9537,13.6268],[-3.0065,13.6676],[-3.0514,13.6239],[-3.0687,13.6631],[-3.1073,13.6954],[-3.1856,13.6853],[-3.2394,13.7125],[-3.2796,13.7158],[-3.2838,13.701],[-3.2563,13.6699],[-3.2551,13.6485],[-3.2606,13.5757],[-3.282,13.5341],[-3.2596,13.359],[-3.2378,13.3056],[-3.2561,13.2839],[-3.4315,13.2634],[-3.4196,13.1935],[-3.4332,13.1629],[-3.5322,13.172],[-3.5998,13.2022],[-3.6714,13.2625],[-3.7226,13.2832],[-3.7977,13.3585],[-3.9609,13.3828],[-3.9748,13.4076],[-3.9198,13.4316],[-3.9158,13.4446],[-3.9463,13.4593],[-3.9568,13.4953],[-3.972,13.5012],[-3.9845,13.4959],[-3.9846,13.4597],[-3.9984,13.4399],[-4.1026,13.3859],[-4.1227,13.3261],[-4.1471,13.2984],[-4.2583,13.2297],[-4.2463,13.1827],[-4.2874,13.1807],[-4.3511,13.141],[-4.3533,13.1163],[-4.3009,13.0597],[-4.2816,13.0093],[-4.232,12.9498],[-4.2333,12.7555],[-4.2483,12.7259],[-4.2945,12.6992],[-4.3342,12.7047],[-4.3696,12.7314],[-4.4793,12.7218],[-4.4895,12.7105],[-4.4875,12.6517],[-4.4281,12.6021],[-4.3935,12.5319],[-4.4294,12.4836],[-4.4529,12.4147],[-4.451,12.3768],[-4.421,12.3143],[-4.4844,12.3228],[-4.5033,12.2676],[-4.5909,12.1899],[-4.5869,12.1712],[-4.5616,12.1523],[-4.5691,12.1346],[-4.6255,12.1136],[-4.6502,12.0618],[-4.6083,12.056],[-4.5769,12.0726],[-4.5374,12.0738],[-4.4969,12.1077],[-4.4633,12.0774],[-4.4776,12.0043],[-4.427,11.9974],[-4.4509,11.9687],[-4.4422,11.9536],[-4.4516,11.9318],[-4.4398,11.923],[-4.4573,11.8219],[-4.491,11.7956],[-4.4822,11.7412],[-4.4662,11.7264],[-4.439,11.7109],[-4.398,11.7553],[-4.3594,11.7472],[-4.345,11.7234],[-4.3254,11.7299],[-4.2971,11.7469],[-4.263,11.8057],[-4.2379,11.9283],[-4.1177,11.9398],[-4.0898,11.961],[-4.0487,11.9588],[-3.9751,11.9391],[-3.9814,11.9172],[-3.9528,11.8627],[-3.9129,11.8701],[-3.9154,11.8397],[-3.8691,11.8245],[-3.8459,11.7556],[-3.73,11.7254],[-3.6784,11.781],[-3.6255,11.7662],[-3.5681,11.7736],[-3.5217,11.7342],[-3.3651,11.6962],[-3.3953,11.6378],[-3.4203,11.6198],[-3.3837,11.5725],[-3.2947,11.5619],[-3.2964,11.5226],[-3.3079,11.5144],[-3.2849,11.4862],[-3.2557,11.483],[-3.225,11.504],[-3.1925,11.4969],[-3.1261,11.5233],[-3.0725,11.5643],[-3.074,11.5795],[-3.052,11.5862],[-3.0122,11.5699],[-3.0175,11.5491],[-2.9867,11.532],[-2.9616,11.5535],[-2.9411,11.546],[-2.9418,11.5596],[-2.9009,11.527],[-2.8859,11.5314],[-2.8896,11.5498],[-2.8465,11.539],[-2.8311,11.5174],[-2.8569,11.4752],[-2.8334,11.4633],[-2.83,11.409],[-2.844,11.3536],[-2.8403,11.3086],[-2.8791,11.2642],[-2.8733,11.2469],[-2.8059,11.2394],[-2.8023,11.2835],[-2.7404,11.349],[-2.7005,11.3288],[-2.6311,11.3248],[-2.6199,11.3748],[-2.5579,11.3732],[-2.5162,11.4105],[-2.6712,11.5012],[-2.6696,11.5733],[-2.7082,11.6088],[-2.7207,11.6925],[-2.7568,11.73],[-2.7968,11.7605],[-2.875,11.753],[-2.9181,11.7829],[-2.9221,11.8127],[-2.882,11.8136],[-2.8474,11.8299],[-2.8223,11.8754],[-2.8302,11.8966],[-2.8792,11.9323],[-2.8491,11.9734],[-2.8551,12.0017],[-2.908,12.028],[-2.9286,12.0635],[-2.8722,12.102],[-2.8423,12.0928],[-2.8157,12.0626],[-2.804,12.0702],[-2.7916,12.1276],[-2.8187,12.1601],[-2.8321,12.2234],[-2.883,12.2668],[-2.8792,12.3015],[-2.8499,12.3415],[-2.8251,12.3412],[-2.8303,12.38],[-2.8488,12.3875],[-2.7758,12.4413],[-2.7218,12.5106],[-2.7686,12.6134],[-2.7622,12.6298],[-2.7152,12.6859],[-2.6872,12.6921],[-2.6796,12.7184],[-2.6403,12.752],[-2.6842,12.7932],[-2.7129,12.7885],[-2.7287,12.7996],[-2.7318,12.9369],[-2.7,12.9792],[-2.7132,13.1033],[-2.6957,13.1228],[-2.6058,13.1056],[-2.5801,13.1132],[-2.5066,13.2215],[-2.4631,13.2682],[-2.4414,13.2695],[-2.4434,13.2819],[-2.5209,13.3172],[-2.5395,13.283],[-2.6083,13.3114],[-2.6453,13.3726],[-2.6473,13.4762],[-2.6888,13.4798],[-2.7102,13.5179],[-2.8591,13.5467],[-2.9537,13.6268]]]}},{"type":"Feature","properties":{"name":"Cascades","code":"92566538B65696039363280","iso":"BFA"},"geometry":{"type":"Polygon","coordinates":[[[-3.7133,10.8403],[-3.7481,10.8316],[-3.7536,10.8505],[-3.778,10.8516],[-3.795,10.8389],[-3.794,10.8237],[-3.8262,10.7827],[-3.8225,10.7698],[-3.8451,10.7601],[-3.8339,10.7283],[-3.8516,10.7303],[-3.8546,10.7039],[-3.9125,10.6882],[-3.9216,10.6698],[-3.9223,10.6885],[-3.9476,10.7128],[-3.9865,10.714],[-4.0182,10.7409],[-4.0296,10.7348],[-4.0511,10.7467],[-4.0824,10.7953],[-4.138,10.7544],[-4.2064,10.7437],[-4.2481,10.698],[-4.2754,10.7084],[-4.2893,10.7386],[-4.3549,10.7465],[-4.3824,10.7339],[-4.4493,10.8735],[-4.4699,10.879],[-4.4829,10.8668],[-4.5386,10.8699],[-4.5732,10.8528],[-4.5848,10.828],[-4.6654,10.7769],[-4.7387,10.8098],[-4.7682,10.8744],[-4.9257,10.8758],[-4.9571,10.8917],[-4.9999,10.834],[-5.1093,10.8232],[-5.1932,10.789],[-5.2247,10.862],[-5.2591,10.8536],[-5.2735,10.9216],[-5.3701,10.9743],[-5.4103,11.017],[-5.4936,11.0204],[-5.4896,10.9732],[-5.4686,10.9617],[-5.4649,10.9055],[-5.4484,10.8722],[-5.4223,10.8526],[-5.4492,10.7706],[-5.4739,10.7584],[-5.4829,10.6234],[-5.4651,10.5973],[-5.4654,10.5616],[-5.5143,10.4624],[-5.5175,10.4233],[-5.5091,10.4252],[-5.4881,10.3779],[-5.4687,10.3733],[-5.4681,10.3459],[-5.4072,10.2956],[-5.3742,10.2859],[-5.3547,10.3068],[-5.3346,10.2933],[-5.3039,10.3048],[-5.3003,10.3199],[-5.2861,10.3094],[-5.2225,10.3094],[-5.2069,10.3224],[-5.1876,10.2848],[-5.1575,10.2839],[-5.1314,10.3079],[-5.1243,10.2985],[-5.1111,10.3047],[-5.1205,10.2788],[-5.099,10.2721],[-5.1188,10.2564],[-5.1196,10.2422],[-5.1072,10.2379],[-5.1229,10.209],[-5.0948,10.2268],[-5.0885,10.2104],[-5.1147,10.1813],[-5.0747,10.1829],[-5.0799,10.1423],[-5.0441,10.1238],[-5.0787,10.1239],[-5.08,10.109],[-5.0478,10.1061],[-5.063,10.0807],[-5.0037,10.1039],[-5.0212,10.0703],[-4.9937,10.0608],[-4.9615,10.0236],[-4.9644,10.004],[-4.9896,10.0066],[-4.9878,9.9844],[-4.9469,9.9525],[-4.9646,9.9383],[-4.9679,9.8924],[-4.9344,9.8735],[-4.9138,9.8935],[-4.8803,9.8707],[-4.8315,9.8638],[-4.8205,9.8423],[-4.7887,9.8334],[-4.7887,9.7851],[-4.8163,9.7865],[-4.8098,9.7681],[-4.7768,9.7362],[-4.7715,9.7538],[-4.741,9.7502],[-4.6945,9.6782],[-4.6658,9.6888],[-4.6528,9.7141],[-4.6283,9.7016],[-4.6177,9.7226],[-4.571,9.6873],[-4.5454,9.7197],[-4.5593,9.7405],[-4.5193,9.746],[-4.5053,9.7335],[-4.5233,9.6882],[-4.5079,9.6468],[-4.4334,9.6623],[-4.3944,9.597],[-4.3749,9.5965],[-4.3612,9.6262],[-4.3187,9.5996],[-4.2908,9.6379],[-4.2657,9.7337],[-4.2777,9.7396],[-4.2711,9.757],[-4.2353,9.7545],[-4.1804,9.7753],[-4.1301,9.832],[-4.0635,9.7991],[-4.0429,9.8016],[-4.0306,9.8342],[-3.9809,9.833],[-3.9729,9.8695],[-3.9186,9.8789],[-3.8967,9.9038],[-3.8891,9.9435],[-3.9222,9.9792],[-3.954,9.9894],[-3.9655,10.0157],[-4,10.0406],[-3.9704,10.1108],[-3.9024,10.0976],[-3.7995,10.1305],[-3.7892,10.1732],[-3.7384,10.2358],[-3.7384,10.2717],[-3.7592,10.3029],[-3.7553,10.326],[-3.7818,10.3462],[-3.718,10.4042],[-3.7132,10.4461],[-3.6927,10.4773],[-3.6879,10.5112],[-3.7068,10.5271],[-3.7006,10.5574],[-3.7103,10.5772],[-3.7015,10.6429],[-3.7174,10.694],[-3.7687,10.6975],[-3.7918,10.7269],[-3.7765,10.7522],[-3.7186,10.7478],[-3.6731,10.7673],[-3.7133,10.8403]]]}},{"type":"Feature","properties":{"name":"Centre-Est","code":"92566538B37033565003987","iso":"BFA"},"geometry":{"type":"Polygon","coordinates":[[[-0.2406,12.5597],[-0.2741,12.5432],[-0.2996,12.5566],[-0.3335,12.5441],[-0.3944,12.5144],[-0.4275,12.4794],[-0.6313,12.5415],[-0.6275,12.4817],[-0.6139,12.4693],[-0.5545,12.4698],[-0.5491,12.4083],[-0.5163,12.4086],[-0.5167,12.3752],[-0.5323,12.3663],[-0.5397,12.3329],[-0.5179,12.3115],[-0.5208,12.2935],[-0.4959,12.2778],[-0.4909,12.2192],[-0.462,12.2109],[-0.4233,12.1648],[-0.4405,12.158],[-0.4156,12.0811],[-0.4369,12.0386],[-0.4676,12.0105],[-0.5024,12.001],[-0.5624,12.019],[-0.6029,12.0013],[-0.6506,11.9495],[-0.6602,11.9169],[-0.6997,11.8872],[-0.7164,11.8907],[-0.7314,11.8758],[-0.8257,11.8744],[-0.8329,11.8538],[-0.8194,11.8464],[-0.844,11.7972],[-0.8975,11.7784],[-0.9021,11.6895],[-0.8156,11.6044],[-0.7742,11.5887],[-0.736,11.5454],[-0.7195,11.5423],[-0.693,11.5761],[-0.6475,11.5263],[-0.5588,11.4839],[-0.5956,11.4406],[-0.5775,11.3998],[-0.5616,11.4022],[-0.5627,11.3936],[-0.5843,11.3883],[-0.6152,11.4131],[-0.6356,11.4122],[-0.6395,11.3813],[-0.6878,11.352],[-0.6925,11.3197],[-0.7403,11.2994],[-0.7441,11.2821],[-0.7249,11.2515],[-0.7636,11.2082],[-0.7537,11.1589],[-0.7218,11.1481],[-0.7411,11.1162],[-0.6957,11.0934],[-0.6816,11.0604],[-0.7041,11.0057],[-0.6792,11.0047],[-0.6817,10.9753],[-0.6564,10.9809],[-0.6731,10.9538],[-0.6631,10.9479],[-0.6574,10.9579],[-0.6339,10.9385],[-0.6211,10.9022],[-0.5956,10.9125],[-0.595,10.9436],[-0.5697,10.9813],[-0.5516,10.9728],[-0.5344,10.9916],[-0.5194,10.9842],[-0.4826,11.0241],[-0.4375,11.0297],[-0.4327,11.0983],[-0.3996,11.12],[-0.3767,11.116],[-0.3611,11.0681],[-0.3374,11.1039],[-0.274,11.1219],[-0.2914,11.1436],[-0.2733,11.1733],[0.4241,11.0244],[0.4554,11.1096],[0.4886,11.1049],[0.5083,11.0703],[0.526,11.075],[0.5232,11.1393],[0.573,11.2165],[0.5623,11.2313],[0.5704,11.2514],[0.5467,11.2848],[0.5497,11.3134],[0.5337,11.3399],[0.5883,11.3673],[0.5319,11.5037],[0.5067,11.6955],[0.4322,11.6771],[0.2757,11.7663],[0.1949,11.7669],[0.1704,11.7926],[0.1182,11.786],[0.0613,11.8061],[0.046,11.7885],[0.0466,11.7626],[0.0161,11.7487],[-0.0001,11.8538],[-0.0374,11.883],[-0.0793,11.8718],[-0.1058,11.8812],[-0.1117,11.9163],[-0.1428,11.9334],[-0.1192,12.0499],[-0.1261,12.0697],[-0.1019,12.0868],[-0.0607,12.0742],[-0.0504,12.1011],[-0.0329,12.0983],[-0.0041,12.1165],[-0.0238,12.1522],[-0.0456,12.1567],[-0.057,12.2033],[-0.0817,12.2119],[-0.1031,12.2475],[-0.2085,12.2856],[-0.1824,12.3583],[-0.144,12.3965],[-0.1859,12.4335],[-0.2443,12.4343],[-0.2648,12.4565],[-0.2406,12.5597]]]}},{"type":"Feature","properties":{"name":"Centre-Nord","code":"92566538B59117792838125","iso":"BFA"},"geometry":{"type":"Polygon","coordinates":[[[-0.2406,12.5597],[-0.218,12.6901],[-0.2529,12.7263],[-0.2585,12.7486],[-0.213,12.8105],[-0.2486,12.8406],[-0.3317,12.8795],[-0.3578,12.9224],[-0.3555,12.9742],[-0.3843,12.9874],[-0.3905,13.0207],[-0.3664,13.1213],[-0.3049,13.1955],[-0.3429,13.2765],[-0.3063,13.3043],[-0.3018,13.3352],[-0.2728,13.372],[-0.3205,13.4133],[-0.29,13.4643],[-0.2369,13.4699],[-0.2254,13.494],[-0.2589,13.5561],[-0.2258,13.6038],[-0.2333,13.6232],[-0.2205,13.6472],[-0.2802,13.6241],[-0.3325,13.6486],[-0.3646,13.6339],[-0.3828,13.6413],[-0.4158,13.705],[-0.47,13.7493],[-0.4766,13.7819],[-0.4613,13.8113],[-0.4824,13.8213],[-0.4971,13.8703],[-0.5483,13.8933],[-0.5704,13.9266],[-0.6062,13.926],[-0.6243,13.9405],[-0.6213,13.9642],[-0.6345,13.9725],[-0.6179,13.9977],[-0.685,13.9957],[-0.6994,13.9801],[-0.7027,13.9448],[-0.7465,13.9413],[-0.761,13.9167],[-0.7881,13.9254],[-0.8448,13.8888],[-0.8548,13.8684],[-0.9113,13.8556],[-0.9811,13.865],[-0.9941,13.8289],[-1.0452,13.8236],[-1.0943,13.7693],[-1.1217,13.7839],[-1.1542,13.7684],[-1.2124,13.7703],[-1.3125,13.7491],[-1.4642,13.7723],[-1.4976,13.7971],[-1.5465,13.8912],[-1.623,13.878],[-1.6763,13.8883],[-1.7578,13.7626],[-1.729,13.7195],[-1.7393,13.6985],[-1.8391,13.6638],[-1.905,13.6156],[-1.8983,13.5748],[-1.8595,13.5305],[-1.8772,13.5173],[-1.8506,13.47],[-1.8599,13.4398],[-1.8391,13.3745],[-1.8436,13.3458],[-1.807,13.3202],[-1.7981,13.2912],[-1.7614,13.3047],[-1.7612,13.2595],[-1.7442,13.2545],[-1.7549,13.2448],[-1.7334,13.2063],[-1.7422,13.1833],[-1.7301,13.1681],[-1.748,13.1483],[-1.6978,13.0793],[-1.6066,13.0622],[-1.5925,13.0386],[-1.5972,13.0215],[-1.5877,13.0251],[-1.5797,13.0067],[-1.5512,12.9935],[-1.5337,12.9586],[-1.5359,12.9258],[-1.4957,12.9144],[-1.4793,12.8839],[-1.4345,12.8858],[-1.4213,12.873],[-1.3862,12.8858],[-1.3597,12.8684],[-1.3712,12.8365],[-1.3319,12.8389],[-1.2915,12.8203],[-1.2372,12.8255],[-1.1521,12.782],[-1.1482,12.7192],[-1.1615,12.7104],[-1.1524,12.6879],[-1.1214,12.6826],[-1.1514,12.6499],[-1.1368,12.6311],[-1.1187,12.6483],[-1.1062,12.6918],[-1.0169,12.6733],[-0.9958,12.6792],[-0.9782,12.6545],[-0.9633,12.6563],[-0.9745,12.6351],[-0.9516,12.6297],[-0.9159,12.5668],[-0.8707,12.5429],[-0.7429,12.6202],[-0.7786,12.6724],[-0.7742,12.6879],[-0.7065,12.7055],[-0.6766,12.701],[-0.6552,12.679],[-0.6447,12.6435],[-0.659,12.6009],[-0.6403,12.544],[-0.5449,12.5099],[-0.4275,12.4794],[-0.3944,12.5144],[-0.3335,12.5441],[-0.2996,12.5566],[-0.2741,12.5432],[-0.2406,12.5597]]]}},{"type":"Feature","properties":{"name":"Centre-Ouest","code":"92566538B57875752774417","iso":"BFA"},"geometry":{"type":"Polygon","coordinates":[[[-1.8133,12.3713],[-1.948,12.3501],[-1.9828,12.3112],[-2.0073,12.3086],[-2.0089,12.2965],[-2.0519,12.2986],[-2.0792,12.3151],[-2.0824,12.3287],[-2.0363,12.3762],[-2.0337,12.4162],[-2,12.4709],[-1.9195,12.4813],[-1.8653,12.4474],[-1.785,12.4889],[-1.8394,12.6096],[-1.9383,12.6515],[-1.9224,12.6782],[-1.9436,12.6926],[-1.9826,12.6745],[-1.9768,12.6967],[-1.9894,12.7069],[-2.0642,12.7074],[-2.0887,12.6882],[-2.1499,12.7083],[-2.2008,12.6992],[-2.4809,12.6162],[-2.4812,12.6696],[-2.4445,12.6752],[-2.4342,12.7028],[-2.526,12.6921],[-2.5297,12.7544],[-2.4899,12.7755],[-2.5086,12.8231],[-2.5475,12.8417],[-2.6796,12.7184],[-2.6872,12.6921],[-2.7152,12.6859],[-2.7622,12.6298],[-2.7686,12.6134],[-2.7218,12.5106],[-2.7758,12.4413],[-2.8488,12.3875],[-2.8303,12.38],[-2.8251,12.3412],[-2.8499,12.3415],[-2.8644,12.3264],[-2.8852,12.2741],[-2.8321,12.2234],[-2.8187,12.1601],[-2.7916,12.1276],[-2.804,12.0702],[-2.8157,12.0626],[-2.8423,12.0928],[-2.8722,12.102],[-2.9286,12.0635],[-2.908,12.028],[-2.8551,12.0017],[-2.8491,11.9734],[-2.8792,11.9323],[-2.8302,11.8966],[-2.8223,11.8754],[-2.8474,11.8299],[-2.882,11.8136],[-2.9196,11.8144],[-2.9232,11.8006],[-2.9181,11.7829],[-2.875,11.753],[-2.7968,11.7605],[-2.7289,11.7037],[-2.7082,11.6088],[-2.6696,11.5733],[-2.6712,11.5012],[-2.5162,11.4105],[-2.5579,11.3732],[-2.6199,11.3748],[-2.6311,11.3248],[-2.7005,11.3288],[-2.7404,11.349],[-2.8023,11.2835],[-2.8072,11.2423],[-2.7863,11.1384],[-2.7296,11.1606],[-2.7338,11.1967],[-2.7102,11.2034],[-2.6071,11.1197],[-2.6228,11.0559],[-2.6771,11.054],[-2.7159,10.9965],[-2.5054,10.9834],[-1.7417,10.9761],[-1.6599,10.9969],[-1.5927,10.9883],[-1.5869,11.019],[-1.4272,11.0143],[-1.4329,11.031],[-1.4195,11.0392],[-1.4189,11.0576],[-1.4347,11.0425],[-1.4554,11.0494],[-1.4842,11.0778],[-1.4765,11.0953],[-1.5391,11.0924],[-1.5464,11.1122],[-1.5691,11.1109],[-1.5682,11.1312],[-1.5981,11.1238],[-1.6113,11.1442],[-1.638,11.1545],[-1.6366,11.1661],[-1.6627,11.1683],[-1.6213,11.2239],[-1.6208,11.2731],[-1.5957,11.2957],[-1.6,11.3362],[-1.5718,11.3952],[-1.5519,11.4045],[-1.5409,11.3918],[-1.5131,11.3937],[-1.491,11.4286],[-1.4067,11.4693],[-1.3531,11.5277],[-1.3307,11.5257],[-1.3093,11.5469],[-1.3532,11.6017],[-1.3924,11.5969],[-1.3942,11.6157],[-1.454,11.6434],[-1.4618,11.6921],[-1.4879,11.6826],[-1.4987,11.7137],[-1.5313,11.71],[-1.5373,11.7279],[-1.5603,11.7363],[-1.5612,11.7529],[-1.6181,11.7889],[-1.6517,11.7863],[-1.6636,11.8176],[-1.6914,11.831],[-1.6993,11.8597],[-1.7836,11.9223],[-1.7814,11.9479],[-1.8012,11.9625],[-1.8426,11.9587],[-1.8892,11.9157],[-1.9285,11.9382],[-1.9659,11.9234],[-1.9863,11.9567],[-2.0514,12.0073],[-1.9581,12.0761],[-1.9854,12.1239],[-1.9379,12.1329],[-1.9203,12.1587],[-1.8269,12.1595],[-1.8238,12.2153],[-1.7863,12.2425],[-1.7865,12.3009],[-1.8175,12.3208],[-1.7856,12.338],[-1.8133,12.3713]]]}},{"type":"Feature","properties":{"name":"Centre-Sud","code":"92566538B49759193106183","iso":"BFA"},"geometry":{"type":"Polygon","coordinates":[[[-1.8269,12.1595],[-1.9203,12.1587],[-1.9379,12.1329],[-1.9854,12.1239],[-1.9581,12.0761],[-2.0514,12.0073],[-1.9863,11.9567],[-1.9659,11.9234],[-1.9285,11.9382],[-1.8892,11.9157],[-1.8426,11.9587],[-1.8012,11.9625],[-1.7814,11.9479],[-1.7836,11.9223],[-1.6993,11.8597],[-1.6914,11.831],[-1.6636,11.8176],[-1.6517,11.7863],[-1.6181,11.7889],[-1.5612,11.7529],[-1.5603,11.7363],[-1.5373,11.7279],[-1.5313,11.71],[-1.4987,11.7137],[-1.4879,11.6826],[-1.4618,11.6921],[-1.454,11.6434],[-1.3942,11.6157],[-1.3924,11.5969],[-1.3532,11.6017],[-1.3093,11.5469],[-1.3307,11.5257],[-1.3531,11.5277],[-1.4067,11.4693],[-1.491,11.4286],[-1.5131,11.3937],[-1.5409,11.3918],[-1.5519,11.4045],[-1.5718,11.3952],[-1.6,11.3362],[-1.5957,11.2957],[-1.6208,11.2731],[-1.6213,11.2239],[-1.6609,11.1657],[-1.6366,11.1661],[-1.638,11.1545],[-1.6113,11.1442],[-1.5981,11.1238],[-1.5682,11.1312],[-1.5691,11.1109],[-1.5464,11.1122],[-1.5391,11.0924],[-1.4765,11.0953],[-1.4842,11.0778],[-1.4423,11.0409],[-1.4189,11.0576],[-1.4195,11.0392],[-1.4329,11.031],[-1.3974,10.9902],[-1.1219,10.9828],[-1.1196,11.001],[-0.933,10.9942],[-0.9215,10.9737],[-0.8787,10.9591],[-0.8608,10.9894],[-0.837,10.9915],[-0.833,11.0028],[-0.8089,10.9928],[-0.6833,10.9927],[-0.6873,11.0124],[-0.7003,11.0013],[-0.7061,11.0142],[-0.6938,11.0454],[-0.6806,11.0483],[-0.6935,11.09],[-0.7357,11.1079],[-0.7416,11.1183],[-0.7218,11.1481],[-0.7602,11.1684],[-0.7636,11.2082],[-0.7249,11.2515],[-0.7462,11.2889],[-0.7289,11.31],[-0.6925,11.3197],[-0.6878,11.352],[-0.6395,11.3813],[-0.6322,11.415],[-0.5843,11.3883],[-0.5627,11.3936],[-0.5616,11.4022],[-0.5775,11.3998],[-0.5956,11.4406],[-0.5588,11.4839],[-0.6475,11.5263],[-0.693,11.5761],[-0.7195,11.5423],[-0.736,11.5454],[-0.9021,11.6895],[-0.8975,11.7784],[-0.844,11.7972],[-0.8194,11.8464],[-0.8329,11.8538],[-0.8248,11.8727],[-0.8907,11.8933],[-0.891,11.9499],[-0.9149,11.9856],[-0.9718,12.0148],[-1.0113,12.0679],[-1.0263,12.0892],[-1.0213,12.1199],[-1.0367,12.1549],[-1.0708,12.1786],[-1.1249,12.1428],[-1.1645,12.1635],[-1.2511,12.1603],[-1.2808,12.1381],[-1.2933,12.1553],[-1.3125,12.1545],[-1.3703,12.1347],[-1.4055,12.1061],[-1.4401,12.1925],[-1.4879,12.2043],[-1.538,12.189],[-1.5678,12.1402],[-1.6611,12.0923],[-1.69,12.0513],[-1.7234,12.0922],[-1.7912,12.0935],[-1.8269,12.1595]]]}},{"type":"Feature","properties":{"name":"Est","code":"92566538B57532963969301","iso":"BFA"},"geometry":{"type":"Polygon","coordinates":[[[0.4241,11.0244],[0.5029,11.0091],[0.49,10.9862],[0.5058,10.9801],[0.4947,10.931],[0.6563,10.9974],[0.9122,10.9965],[0.9699,11.058],[0.9786,11.0905],[1.0131,11.0834],[1.0351,11.0495],[1.0696,11.059],[1.1102,11.0304],[1.0866,11.1133],[1.0509,11.1277],[1.0555,11.1431],[1.097,11.1474],[1.1183,11.1716],[1.1601,11.1644],[1.1485,11.2032],[1.1564,11.2239],[1.1293,11.2565],[1.1478,11.2708],[1.2521,11.2453],[1.2763,11.2642],[1.2708,11.2895],[1.2667,11.2764],[1.2548,11.2899],[1.2591,11.321],[1.2904,11.2933],[1.3081,11.3011],[1.3251,11.2899],[1.3409,11.3113],[1.32,11.3628],[1.3406,11.364],[1.3538,11.3904],[1.3883,11.3995],[1.3844,11.4422],[1.4192,11.4524],[1.4401,11.4738],[1.4758,11.4541],[1.5012,11.4664],[1.5318,11.4473],[1.5544,11.4715],[1.5789,11.4435],[1.5745,11.4299],[1.5899,11.4212],[1.593,11.3982],[1.6205,11.3904],[1.6428,11.4024],[1.6631,11.3964],[1.6834,11.4141],[1.6997,11.408],[1.7141,11.4291],[1.7524,11.4167],[1.8417,11.4444],[1.9563,11.4202],[2.0104,11.4233],[2.1854,11.5972],[2.2062,11.6009],[2.3057,11.6744],[2.3037,11.7353],[2.3404,11.7854],[2.3724,11.7931],[2.3792,11.8541],[2.4026,11.8706],[2.3945,11.8892],[2.4054,11.9016],[2.0664,12.3509],[2.0821,12.3935],[2.1038,12.3955],[2.1094,12.3837],[2.1552,12.42],[2.2155,12.4142],[2.236,12.426],[2.2532,12.4153],[2.2743,12.4284],[2.2678,12.4749],[2.2283,12.5218],[2.2259,12.583],[2.196,12.6241],[2.1515,12.6491],[2.1606,12.688],[2.1108,12.7069],[2.1042,12.7309],[2.0828,12.7211],[1.9775,12.7372],[1.9486,12.6916],[1.9259,12.6937],[1.8654,12.6054],[1.576,12.6331],[1.1181,12.9998],[0.9975,12.9997],[0.9921,13.084],[0.9279,13.0824],[0.883,13.0564],[0.8819,13.0391],[0.8401,13.0407],[0.8421,13.0152],[0.8155,13.0026],[0.79,13.0259],[0.7727,13.0239],[0.7714,12.9805],[0.7383,12.9932],[0.695,12.9831],[0.6863,13.0065],[0.6739,13.004],[0.6716,12.983],[0.6546,12.9796],[0.6333,13.0056],[0.5942,12.9699],[0.5745,12.9934],[0.569,13.0288],[0.5069,13.0571],[0.4866,13.1157],[0.4399,13.1306],[0.4256,13.1758],[0.2646,13.2288],[0.2304,13.3011],[0.1786,13.3361],[0.1495,13.3801],[0.1038,13.4923],[0.0653,13.4873],[0.0622,13.5764],[-0.0033,13.5701],[-0.0272,13.5399],[-0.0764,13.5412],[-0.1024,13.5616],[-0.1796,13.5758],[-0.2067,13.5233],[-0.2342,13.5085],[-0.2254,13.494],[-0.2369,13.4699],[-0.282,13.4697],[-0.3205,13.4133],[-0.3168,13.4003],[-0.2816,13.3892],[-0.2728,13.3697],[-0.3018,13.3352],[-0.3063,13.3043],[-0.3429,13.2765],[-0.3049,13.1955],[-0.3664,13.1213],[-0.3906,13.0005],[-0.3555,12.9742],[-0.3578,12.9224],[-0.3317,12.8795],[-0.2486,12.8406],[-0.213,12.8105],[-0.2585,12.7486],[-0.2529,12.7263],[-0.218,12.6901],[-0.2648,12.4565],[-0.2443,12.4343],[-0.1859,12.4335],[-0.144,12.3965],[-0.1824,12.3583],[-0.2085,12.2856],[-0.1031,12.2475],[-0.0817,12.2119],[-0.057,12.2033],[-0.0456,12.1567],[-0.0238,12.1522],[-0.0041,12.1165],[-0.0329,12.0983],[-0.0504,12.1011],[-0.0607,12.0742],[-0.1019,12.0868],[-0.1261,12.0697],[-0.1192,12.0499],[-0.1462,11.9426],[-0.1117,11.9163],[-0.1058,11.8812],[-0.0793,11.8718],[-0.0374,11.883],[-0.0001,11.8538],[0.0161,11.7487],[0.0466,11.7626],[0.046,11.7885],[0.0613,11.8061],[0.1182,11.786],[0.1704,11.7926],[0.1949,11.7669],[0.2757,11.7663],[0.4322,11.6771],[0.5067,11.6955],[0.5319,11.5037],[0.5883,11.3673],[0.5337,11.3399],[0.5497,11.3134],[0.5467,11.2848],[0.5704,11.2514],[0.5623,11.2313],[0.573,11.2165],[0.5232,11.1393],[0.526,11.075],[0.5083,11.0703],[0.4886,11.1049],[0.4554,11.1096],[0.4241,11.0244]]]}},{"type":"Feature","properties":{"name":"Hauts-Bassins","code":"92566538B19127906733451","iso":"BFA"},"geometry":{"type":"Polygon","coordinates":[[[-4.6502,12.0618],[-4.7073,12.0501],[-4.7344,11.9968],[-4.8408,12.0174],[-4.8811,12.0012],[-4.9533,12.0011],[-4.9949,11.983],[-5.0785,11.9815],[-5.1546,11.9494],[-5.158,11.9332],[-5.1787,11.9299],[-5.1886,11.9047],[-5.2505,11.8633],[-5.2533,11.8426],[-5.2677,11.8356],[-5.2862,11.8542],[-5.3073,11.8383],[-5.3287,11.8449],[-5.3541,11.8248],[-5.382,11.8425],[-5.4093,11.8319],[-5.3573,11.7963],[-5.3513,11.8055],[-5.2994,11.7857],[-5.2856,11.7596],[-5.264,11.7637],[-5.2716,11.6859],[-5.2991,11.6193],[-5.2844,11.6047],[-5.2413,11.6049],[-5.2232,11.5853],[-5.2039,11.5292],[-5.215,11.5124],[-5.2144,11.4667],[-5.1995,11.4325],[-5.2163,11.3957],[-5.2656,11.3588],[-5.2721,11.2345],[-5.3282,11.1975],[-5.3414,11.1366],[-5.3942,11.0979],[-5.4908,11.0719],[-5.4936,11.0204],[-5.4103,11.017],[-5.3701,10.9743],[-5.2735,10.9216],[-5.2591,10.8536],[-5.2247,10.862],[-5.1932,10.789],[-5.1093,10.8232],[-4.9999,10.834],[-4.9571,10.8917],[-4.9257,10.8758],[-4.7682,10.8744],[-4.7387,10.8098],[-4.6654,10.7769],[-4.5848,10.828],[-4.5732,10.8528],[-4.5386,10.8699],[-4.4829,10.8668],[-4.4699,10.879],[-4.4493,10.8735],[-4.3824,10.7339],[-4.3549,10.7465],[-4.2893,10.7386],[-4.2754,10.7084],[-4.2481,10.698],[-4.2064,10.7437],[-4.138,10.7544],[-4.0824,10.7953],[-4.0511,10.7467],[-4.0296,10.7348],[-4.0182,10.7409],[-3.9865,10.714],[-3.9476,10.7128],[-3.9223,10.6885],[-3.9216,10.6698],[-3.9125,10.6882],[-3.8546,10.7039],[-3.8516,10.7303],[-3.8339,10.7283],[-3.8451,10.7601],[-3.8225,10.7698],[-3.8262,10.7827],[-3.794,10.8237],[-3.795,10.8389],[-3.7563,10.8509],[-3.7481,10.8316],[-3.7196,10.836],[-3.7124,10.8438],[-3.7345,10.8668],[-3.7175,10.8713],[-3.718,10.8882],[-3.6998,10.873],[-3.688,10.8952],[-3.6758,10.8798],[-3.6708,10.8908],[-3.6452,10.8897],[-3.6486,10.9187],[-3.6588,10.9101],[-3.665,10.9268],[-3.6558,10.9261],[-3.6463,10.9678],[-3.6183,10.9572],[-3.6126,10.9777],[-3.6039,10.9734],[-3.6067,10.9985],[-3.5786,11.0271],[-3.5839,11.0419],[-3.6023,11.0425],[-3.5887,11.0585],[-3.5709,11.0586],[-3.5776,11.0706],[-3.5587,11.0895],[-3.5476,11.0667],[-3.4977,11.1372],[-3.496,11.1584],[-3.4568,11.1509],[-3.4388,11.1818],[-3.3861,11.1866],[-3.3481,11.2216],[-3.3147,11.1933],[-3.29,11.2019],[-3.2868,11.261],[-3.2177,11.3478],[-3.145,11.3681],[-3.1114,11.3338],[-3.0242,11.3642],[-2.8825,11.3008],[-2.8496,11.2974],[-2.8403,11.3086],[-2.8324,11.46],[-2.8569,11.4752],[-2.8311,11.5174],[-2.8482,11.5399],[-2.8896,11.5498],[-2.8859,11.5314],[-2.9009,11.527],[-2.9418,11.5596],[-2.9411,11.546],[-2.9616,11.5535],[-2.9867,11.532],[-3.0175,11.5491],[-3.0122,11.5699],[-3.052,11.5862],[-3.074,11.5795],[-3.0725,11.5643],[-3.1261,11.5233],[-3.1925,11.4969],[-3.225,11.504],[-3.2557,11.483],[-3.2849,11.4862],[-3.3079,11.5144],[-3.2964,11.5226],[-3.2947,11.5619],[-3.3837,11.5725],[-3.4203,11.6198],[-3.3953,11.6378],[-3.3651,11.6962],[-3.5217,11.7342],[-3.5681,11.7736],[-3.6255,11.7662],[-3.6784,11.781],[-3.73,11.7254],[-3.8459,11.7556],[-3.8691,11.8245],[-3.9154,11.8397],[-3.9129,11.8701],[-3.9528,11.8627],[-3.9814,11.9172],[-3.9751,11.9391],[-4.0487,11.9588],[-4.0898,11.961],[-4.1177,11.9398],[-4.2379,11.9283],[-4.263,11.8057],[-4.2971,11.7469],[-4.345,11.7234],[-4.3594,11.7472],[-4.4068,11.7535],[-4.4429,11.7095],[-4.4822,11.7412],[-4.4906,11.7844],[-4.4573,11.8219],[-4.4398,11.923],[-4.4516,11.9318],[-4.4422,11.9536],[-4.4509,11.9687],[-4.427,11.9974],[-4.4776,12.0043],[-4.4633,12.0774],[-4.4969,12.1077],[-4.5374,12.0738],[-4.5769,12.0726],[-4.6083,12.056],[-4.6502,12.0618]]]}},{"type":"Feature","properties":{"name":"Nord","code":"92566538B60283727543208","iso":"BFA"},"geometry":{"type":"Polygon","coordinates":[[[-2.6403,12.752],[-2.5522,12.8404],[-2.5197,12.8331],[-2.4899,12.7755],[-2.5297,12.7544],[-2.526,12.6921],[-2.4342,12.7028],[-2.4445,12.6752],[-2.4812,12.6696],[-2.4809,12.6162],[-2.1499,12.7083],[-2.0887,12.6882],[-2.0642,12.7074],[-1.9894,12.7069],[-1.9768,12.6967],[-1.9791,12.6732],[-1.9436,12.6926],[-1.9755,12.7219],[-1.9729,12.7539],[-1.9367,12.8124],[-1.8825,12.8304],[-1.8603,12.8769],[-1.8056,12.896],[-1.7446,12.8951],[-1.6766,12.9301],[-1.6055,12.9331],[-1.5793,12.9059],[-1.5457,12.8971],[-1.5321,12.9477],[-1.5606,13.0059],[-1.5972,13.0215],[-1.5925,13.0386],[-1.6066,13.0622],[-1.6978,13.0793],[-1.748,13.1483],[-1.7301,13.1681],[-1.7422,13.1833],[-1.7334,13.2063],[-1.7549,13.2448],[-1.7442,13.2545],[-1.7612,13.2595],[-1.7614,13.3047],[-1.7981,13.2912],[-1.807,13.3202],[-1.8436,13.3458],[-1.8391,13.3745],[-1.8599,13.4398],[-1.8506,13.47],[-1.8772,13.5173],[-1.8595,13.5305],[-1.8983,13.5748],[-1.905,13.6156],[-1.8391,13.6638],[-1.7393,13.6985],[-1.729,13.7195],[-1.7362,13.7409],[-1.8853,13.8859],[-1.8923,13.9501],[-1.8682,14.0002],[-1.9723,14.036],[-2.0903,14.1417],[-2.292,14.2522],[-2.4765,14.2979],[-2.6723,14.1342],[-2.837,14.0606],[-2.8514,14.0022],[-2.8324,13.9979],[-2.8959,13.8256],[-2.903,13.7244],[-2.872,13.6553],[-2.9537,13.6268],[-2.8591,13.5467],[-2.7102,13.5179],[-2.6888,13.4798],[-2.6473,13.4762],[-2.6453,13.3726],[-2.6083,13.3114],[-2.5395,13.283],[-2.5209,13.3172],[-2.4434,13.2819],[-2.4414,13.2695],[-2.4631,13.2682],[-2.5066,13.2215],[-2.5801,13.1132],[-2.6058,13.1056],[-2.6957,13.1228],[-2.7132,13.1033],[-2.7,12.9792],[-2.7318,12.9369],[-2.7287,12.7996],[-2.7129,12.7885],[-2.6842,12.7932],[-2.6403,12.752]]]}},{"type":"Feature","properties":{"name":"Plateau Central","code":"92566538B74906977122081","iso":"BFA"},"geometry":{"type":"Polygon","coordinates":[[[-1.0708,12.1786],[-1.0311,12.1461],[-1.0263,12.0892],[-0.976,12.0199],[-0.9149,11.9856],[-0.897,11.9601],[-0.8856,11.9296],[-0.8932,11.8985],[-0.8626,11.8765],[-0.841,11.8854],[-0.8268,11.8738],[-0.7314,11.8758],[-0.7164,11.8907],[-0.6997,11.8872],[-0.6602,11.9169],[-0.633,11.9742],[-0.58,12.0145],[-0.5024,12.001],[-0.4544,12.0177],[-0.4119,12.0956],[-0.43,12.1083],[-0.426,12.1309],[-0.4405,12.158],[-0.4233,12.1648],[-0.462,12.2109],[-0.4909,12.2192],[-0.4959,12.2778],[-0.5208,12.2935],[-0.5179,12.3115],[-0.5397,12.3329],[-0.5323,12.3663],[-0.5167,12.3752],[-0.5163,12.4086],[-0.5491,12.4083],[-0.5545,12.4698],[-0.6139,12.4693],[-0.6324,12.4909],[-0.6313,12.5415],[-0.6475,12.5544],[-0.659,12.6009],[-0.6447,12.6435],[-0.6552,12.679],[-0.6766,12.701],[-0.7374,12.7039],[-0.7742,12.6879],[-0.7786,12.6724],[-0.7429,12.6202],[-0.8707,12.5429],[-0.9159,12.5668],[-0.9516,12.6297],[-0.9745,12.6351],[-0.9633,12.6563],[-0.9782,12.6545],[-0.9958,12.6792],[-1.0169,12.6733],[-1.1062,12.6918],[-1.1275,12.633],[-1.1427,12.6354],[-1.1496,12.6554],[-1.1214,12.6826],[-1.1524,12.6879],[-1.1615,12.7104],[-1.1482,12.7192],[-1.1545,12.7838],[-1.2372,12.8255],[-1.2915,12.8203],[-1.3319,12.8389],[-1.3712,12.8365],[-1.3587,12.8569],[-1.3671,12.8775],[-1.3967,12.8881],[-1.4213,12.873],[-1.4345,12.8858],[-1.4793,12.8839],[-1.4957,12.9144],[-1.5359,12.9258],[-1.5457,12.8971],[-1.5793,12.9059],[-1.6055,12.9331],[-1.6766,12.9301],[-1.7446,12.8951],[-1.8315,12.8892],[-1.8697,12.8695],[-1.8825,12.8304],[-1.9367,12.8124],[-1.9729,12.7539],[-1.9755,12.7219],[-1.9238,12.6809],[-1.9383,12.6515],[-1.8394,12.6096],[-1.785,12.4889],[-1.8653,12.4474],[-1.9195,12.4813],[-2,12.4709],[-2.0337,12.4162],[-2.0363,12.3762],[-2.0824,12.3287],[-2.0792,12.3151],[-2.0519,12.2986],[-2.0089,12.2965],[-2.0073,12.3086],[-1.9828,12.3112],[-1.948,12.3501],[-1.7891,12.3761],[-1.7496,12.409],[-1.6815,12.4242],[-1.6942,12.4463],[-1.6917,12.4759],[-1.7199,12.5034],[-1.7284,12.5767],[-1.6735,12.6058],[-1.6242,12.6113],[-1.6033,12.6849],[-1.5837,12.6807],[-1.5606,12.6232],[-1.578,12.5872],[-1.5756,12.5521],[-1.5558,12.5459],[-1.4748,12.5688],[-1.4471,12.5365],[-1.4606,12.5001],[-1.4494,12.4655],[-1.3889,12.4749],[-1.3458,12.5091],[-1.2532,12.4922],[-1.249,12.4172],[-1.2702,12.3947],[-1.2796,12.3551],[-1.2052,12.3258],[-1.1884,12.2938],[-1.1711,12.3054],[-1.1654,12.2799],[-1.1459,12.2777],[-1.1436,12.2616],[-1.0966,12.2664],[-1.0918,12.2258],[-1.0714,12.2226],[-1.0636,12.2004],[-1.0708,12.1786]]]}},{"type":"Feature","properties":{"name":"Sahel","code":"92566538B81581720767285","iso":"BFA"},"geometry":{"type":"Polygon","coordinates":[[[-0.2342,13.5085],[-0.2067,13.5233],[-0.1796,13.5758],[-0.1024,13.5616],[-0.0764,13.5412],[-0.0272,13.5399],[-0.0033,13.5701],[0.0622,13.5764],[0.0653,13.4873],[0.1038,13.4923],[0.1495,13.3801],[0.1786,13.3361],[0.2304,13.3011],[0.2646,13.2288],[0.4256,13.1758],[0.4399,13.1306],[0.4866,13.1157],[0.5069,13.0571],[0.569,13.0288],[0.5745,12.9934],[0.5942,12.9699],[0.6333,13.0056],[0.6546,12.9796],[0.6716,12.983],[0.6739,13.004],[0.6863,13.0065],[0.695,12.9831],[0.7383,12.9932],[0.7714,12.9805],[0.7727,13.0239],[0.79,13.0259],[0.8155,13.0026],[0.8421,13.0152],[0.8401,13.0407],[0.8819,13.0391],[0.883,13.0564],[0.9279,13.0824],[0.9921,13.084],[0.9918,13.3709],[1.0531,13.3686],[1.1197,13.333],[1.1686,13.3226],[1.2015,13.3354],[1.2023,13.3738],[1.2125,13.3809],[1.2456,13.3393],[1.283,13.3522],[1.2409,13.3914],[1.2216,13.3873],[1.1367,13.414],[1.0879,13.4608],[1.0141,13.4874],[1.0148,13.531],[0.99,13.5764],[0.9586,13.5806],[0.9071,13.6187],[0.8272,13.6187],[0.7816,13.6427],[0.7784,13.6643],[0.7969,13.6773],[0.7726,13.6921],[0.619,13.6991],[0.5997,13.7304],[0.6256,13.7653],[0.6205,13.7866],[0.5894,13.7876],[0.5782,13.813],[0.5304,13.8407],[0.5208,13.8739],[0.4734,13.9177],[0.4805,13.9658],[0.4552,13.95],[0.4503,13.9777],[0.3988,14.0279],[0.3841,14.0705],[0.3951,14.0863],[0.37,14.1071],[0.357,14.1484],[0.391,14.1902],[0.3869,14.222],[0.4038,14.2497],[0.3859,14.2887],[0.3229,14.362],[0.2754,14.3784],[0.192,14.4606],[0.168,14.5234],[0.2361,14.7495],[0.2016,14.8404],[0.2083,14.8659],[0.2357,14.8861],[0.2293,14.9897],[0.0946,14.9781],[-0.0092,14.9852],[-0.2538,15.077],[-0.3887,15.0076],[-0.4621,15.0826],[-0.7192,15.0804],[-0.8237,15.0133],[-1.0879,14.7901],[-1.315,14.7336],[-1.6749,14.5069],[-1.7577,14.4823],[-1.9754,14.4809],[-1.9937,14.1958],[-2.1058,14.1503],[-1.9723,14.036],[-1.8682,14.0002],[-1.8923,13.9501],[-1.8853,13.8859],[-1.7578,13.7626],[-1.6763,13.8883],[-1.623,13.878],[-1.5483,13.8917],[-1.4976,13.7971],[-1.4642,13.7723],[-1.3125,13.7491],[-1.2124,13.7703],[-1.1542,13.7684],[-1.1217,13.7839],[-1.0943,13.7693],[-1.0452,13.8236],[-0.9941,13.8289],[-0.9811,13.865],[-0.9113,13.8556],[-0.8548,13.8684],[-0.8448,13.8888],[-0.7881,13.9254],[-0.761,13.9167],[-0.7465,13.9413],[-0.7027,13.9448],[-0.6994,13.9801],[-0.685,13.9957],[-0.6179,13.9977],[-0.6345,13.9725],[-0.6213,13.9642],[-0.6243,13.9405],[-0.6062,13.926],[-0.5704,13.9266],[-0.5483,13.8933],[-0.4971,13.8703],[-0.4824,13.8213],[-0.4613,13.8113],[-0.4766,13.7819],[-0.47,13.7493],[-0.4158,13.705],[-0.3828,13.6413],[-0.3646,13.6339],[-0.3325,13.6486],[-0.2802,13.6241],[-0.2222,13.6501],[-0.2333,13.6232],[-0.2258,13.6038],[-0.2589,13.5561],[-0.2342,13.5085]]]}},{"type":"Feature","properties":{"name":"Sud-Ouest","code":"92566538B26761698110708","iso":"BFA"},"geometry":{"type":"Polygon","coordinates":[[[-2.8496,11.2974],[-2.8825,11.3008],[-3.0089,11.3616],[-3.0311,11.3641],[-3.0587,11.3451],[-3.1114,11.3338],[-3.145,11.3681],[-3.1918,11.3571],[-3.2254,11.3405],[-3.2868,11.261],[-3.29,11.2019],[-3.3147,11.1933],[-3.3481,11.2216],[-3.3861,11.1866],[-3.4388,11.1818],[-3.4568,11.1509],[-3.496,11.1584],[-3.4977,11.1372],[-3.5499,11.0646],[-3.5538,11.0888],[-3.5671,11.0847],[-3.5776,11.0706],[-3.5709,11.0586],[-3.5887,11.0585],[-3.6023,11.0425],[-3.5839,11.0419],[-3.5786,11.0271],[-3.6067,10.9985],[-3.6039,10.9734],[-3.6126,10.9777],[-3.6183,10.9572],[-3.6463,10.9678],[-3.6558,10.9261],[-3.665,10.9268],[-3.6588,10.9101],[-3.6486,10.9187],[-3.6452,10.8897],[-3.6708,10.8908],[-3.6758,10.8798],[-3.688,10.8952],[-3.6998,10.873],[-3.718,10.8882],[-3.7175,10.8713],[-3.7345,10.8668],[-3.6731,10.7673],[-3.7186,10.7478],[-3.7765,10.7522],[-3.7918,10.7269],[-3.7687,10.6975],[-3.7174,10.694],[-3.7015,10.6429],[-3.7103,10.5772],[-3.7006,10.5574],[-3.7068,10.5271],[-3.6879,10.5112],[-3.6927,10.4773],[-3.7132,10.4461],[-3.718,10.4042],[-3.7818,10.3462],[-3.7553,10.326],[-3.7592,10.3029],[-3.7384,10.2717],[-3.7384,10.2358],[-3.7892,10.1732],[-3.7995,10.1305],[-3.9024,10.0976],[-3.9704,10.1108],[-4,10.0406],[-3.9655,10.0157],[-3.954,9.9894],[-3.9222,9.9792],[-3.8891,9.9435],[-3.9004,9.9006],[-3.814,9.8879],[-3.752,9.9316],[-3.6738,9.9401],[-3.6417,9.9571],[-3.5993,9.9197],[-3.4698,9.9251],[-3.3972,9.9165],[-3.3496,9.8911],[-3.3153,9.9015],[-3.3185,9.8591],[-3.2812,9.8516],[-3.1955,9.9275],[-3.187,9.8449],[-3.1255,9.8446],[-3.095,9.791],[-3.0915,9.7611],[-3.0601,9.7195],[-3.0173,9.7433],[-3.0067,9.7373],[-2.9012,9.531],[-2.7987,9.4193],[-2.7632,9.4011],[-2.6899,9.4888],[-2.7137,9.5227],[-2.7714,9.5643],[-2.7769,9.5973],[-2.7542,9.642],[-2.7629,9.6738],[-2.7957,9.7052],[-2.7952,9.7477],[-2.7357,9.8283],[-2.7709,9.8925],[-2.7527,9.9565],[-2.7918,10.0517],[-2.7964,10.1061],[-2.7996,10.1807],[-2.7625,10.2386],[-2.7771,10.2627],[-2.8394,10.2943],[-2.854,10.3184],[-2.8348,10.3852],[-2.7914,10.3995],[-2.7763,10.4177],[-2.8699,10.452],[-2.9423,10.6126],[-2.9446,10.6378],[-2.9113,10.6862],[-2.9431,10.7077],[-2.8938,10.7741],[-2.8694,10.8785],[-2.8407,10.8884],[-2.8251,10.9133],[-2.823,10.931],[-2.8447,10.9599],[-2.8343,11.0041],[-2.7159,10.9965],[-2.6771,11.054],[-2.6228,11.0559],[-2.6062,11.1126],[-2.7102,11.2034],[-2.7338,11.1967],[-2.7296,11.1606],[-2.7863,11.1384],[-2.8059,11.2394],[-2.8794,11.2505],[-2.8496,11.2974]]]}}]}