{"type":"FeatureCollection","features":[{"type":"Feature","properties":{"name":"South-East District","code":"57670837B20379019036464","iso":"BWA"},"geometry":{"type":"Polygon","coordinates":[[[25.7156,-24.7873],[25.709,-24.8535],[25.6338,-24.8857],[25.6609,-24.9117],[25.5998,-25.0218],[25.6683,-25.0279],[25.539,-25.4358],[25.6621,-25.4673],[25.6998,-25.291],[25.7289,-25.257],[25.86,-24.924],[25.8828,-24.914],[25.8737,-24.904],[25.8892,-24.8817],[25.8749,-24.8282],[25.859,-24.8266],[25.8624,-24.8082],[25.8417,-24.7901],[25.8472,-24.7553],[25.9637,-24.7492],[26.0067,-24.724],[26.1886,-24.6868],[26.1506,-24.6467],[26.033,-24.5796],[25.9728,-24.5126],[25.9518,-24.5385],[25.8884,-24.566],[25.903,-24.5677],[25.8736,-24.5822],[25.8958,-24.5849],[25.9027,-24.5984],[25.7891,-24.7328],[25.7156,-24.7873]]]}},{"type":"Feature","properties":{"name":"Kgatleng District","code":"57670837B30841156556030","iso":"BWA"},"geometry":{"type":"Polygon","coordinates":[[[26.1886,-24.6868],[26.3934,-24.6367],[26.4087,-24.6456],[26.4263,-24.6178],[26.4711,-24.589],[26.5103,-24.488],[26.5597,-24.4536],[26.5875,-24.4107],[26.6587,-24.385],[26.6757,-24.344],[26.697,-24.3392],[26.7334,-24.3041],[26.7519,-24.3132],[26.7816,-24.299],[26.7858,-24.3066],[26.8257,-24.2722],[26.8557,-24.2635],[26.8691,-24.2445],[26.8594,-24.223],[26.8833,-24.1902],[26.8645,-24.1791],[26.8791,-24.1601],[26.8617,-24.1385],[26.8602,-24.1066],[26.8848,-24.0895],[26.8892,-24.0548],[26.9093,-24.0284],[26.9146,-23.9714],[26.9322,-23.9554],[26.9278,-23.9224],[26.9552,-23.874],[26.9323,-23.8515],[26.9587,-23.8308],[26.9491,-23.8139],[26.9621,-23.7468],[26.9308,-23.7546],[26.9255,-23.7952],[26.9075,-23.7766],[26.8965,-23.8027],[26.8708,-23.8052],[26.8725,-23.8239],[26.8442,-23.8412],[26.8436,-23.8612],[26.8005,-23.8628],[26.787,-23.8942],[26.7561,-23.9066],[26.7584,-23.9248],[26.7298,-23.9368],[26.722,-23.9623],[26.0322,-23.5811],[25.9556,-24.2853],[25.9678,-24.286],[25.9062,-24.3858],[25.8839,-24.3984],[25.8976,-24.4356],[25.8862,-24.4552],[25.9083,-24.4767],[25.9361,-24.4715],[26.033,-24.5796],[26.1506,-24.6467],[26.1886,-24.6868]]]}},{"type":"Feature","properties":{"name":"North-East District","code":"57670837B74109899498700","iso":"BWA"},"geometry":{"type":"Polygon","coordinates":[[[27.2995,-20.4944],[27.2999,-20.5319],[27.2864,-20.5523],[27.3089,-20.6063],[27.2586,-20.6895],[27.2256,-20.7147],[27.2154,-20.8151],[27.2296,-20.8354],[27.2273,-20.8582],[27.2745,-20.8758],[27.3493,-20.996],[27.3432,-21.0338],[27.3608,-21.0407],[27.3631,-21.0557],[27.3488,-21.1453],[27.3878,-21.1867],[27.4052,-21.3338],[27.4585,-21.3929],[27.4622,-21.4218],[27.5178,-21.4765],[27.5414,-21.4694],[27.5593,-21.4923],[27.5794,-21.4809],[27.6183,-21.532],[27.7588,-21.5633],[27.8266,-21.5428],[27.8522,-21.5503],[27.8625,-21.5295],[27.88,-21.5451],[27.9288,-21.5398],[27.9708,-21.5675],[28.0129,-21.5659],[27.9943,-21.5286],[28.0022,-21.5163],[27.9702,-21.5175],[27.9837,-21.4849],[27.9573,-21.4728],[27.9777,-21.457],[27.9517,-21.4309],[27.9574,-21.4131],[27.9206,-21.362],[27.9209,-21.3315],[27.9046,-21.3027],[27.8842,-21.2902],[27.8053,-21.1754],[27.7884,-21.1776],[27.7794,-21.1597],[27.7504,-21.1531],[27.693,-21.0869],[27.6853,-21.0518],[27.7047,-21.038],[27.6955,-21.0059],[27.7072,-21.0004],[27.7103,-20.9578],[27.6894,-20.9343],[27.7019,-20.9057],[27.6933,-20.8662],[27.7176,-20.8383],[27.7334,-20.7412],[27.7333,-20.7038],[27.7048,-20.666],[27.7034,-20.6027],[27.729,-20.557],[27.7291,-20.5213],[27.6833,-20.4867],[27.6467,-20.4987],[27.6219,-20.4792],[27.6031,-20.4801],[27.5766,-20.4942],[27.4714,-20.4675],[27.4338,-20.4821],[27.3623,-20.4682],[27.2995,-20.4944]]]}},{"type":"Feature","properties":{"name":"Central District","code":"57670837B77729612727439","iso":"BWA"},"geometry":{"type":"Polygon","coordinates":[[[26.9621,-23.7468],[26.9711,-23.7028],[27.0024,-23.6881],[27.0028,-23.6443],[27.0257,-23.6445],[27.038,-23.6827],[27.0702,-23.671],[27.0812,-23.6433],[27.0594,-23.6126],[27.08,-23.6135],[27.0816,-23.5989],[27.0997,-23.6029],[27.1172,-23.5622],[27.1299,-23.5741],[27.1547,-23.5694],[27.1346,-23.5436],[27.1357,-23.5232],[27.1599,-23.5371],[27.1722,-23.5219],[27.201,-23.5343],[27.2109,-23.526],[27.1924,-23.4981],[27.2261,-23.4851],[27.2333,-23.4959],[27.2586,-23.4723],[27.3025,-23.463],[27.337,-23.4004],[27.3566,-23.4],[27.3495,-23.426],[27.3743,-23.4271],[27.3772,-23.399],[27.4084,-23.3891],[27.4012,-23.413],[27.4218,-23.4265],[27.442,-23.3847],[27.5286,-23.3853],[27.5671,-23.3411],[27.5602,-23.3149],[27.5729,-23.2653],[27.6012,-23.2472],[27.6025,-23.2162],[27.6495,-23.2257],[27.6893,-23.1962],[27.714,-23.2286],[27.7421,-23.23],[27.7596,-23.1906],[27.7851,-23.1708],[27.7664,-23.1342],[27.7785,-23.1318],[27.7819,-23.1431],[27.807,-23.1356],[27.8195,-23.1248],[27.8141,-23.1065],[27.8479,-23.1048],[27.9201,-23.0683],[27.9435,-23.0362],[27.9398,-22.9563],[27.9597,-22.9606],[28.0371,-22.9128],[28.0513,-22.8846],[28.0414,-22.8331],[28.0948,-22.8137],[28.151,-22.7696],[28.1642,-22.748],[28.1592,-22.7195],[28.1826,-22.6886],[28.2097,-22.6645],[28.2466,-22.6563],[28.2784,-22.6149],[28.3113,-22.6063],[28.3479,-22.5718],[28.4791,-22.5709],[28.5235,-22.5874],[28.5641,-22.561],[28.6413,-22.558],[28.7375,-22.5045],[28.8311,-22.4883],[28.8297,-22.4646],[28.8561,-22.4512],[28.9185,-22.4606],[28.9714,-22.377],[28.9666,-22.3075],[29.0028,-22.2747],[29.0142,-22.2309],[29.0359,-22.2166],[29.15,-22.2159],[29.2189,-22.1781],[29.2577,-22.1934],[29.3206,-22.187],[29.3338,-22.2048],[29.3466,-22.1928],[29.3753,-22.1955],[29.2889,-22.1228],[29.2702,-22.0794],[29.2471,-22.0598],[29.1967,-22.0746],[29.1391,-22.0721],[29.0538,-22.0223],[29.0262,-21.9723],[29.0207,-21.9147],[29.0388,-21.8612],[29.077,-21.8178],[29.0626,-21.8027],[29.0075,-21.7892],[28.9995,-21.7711],[28.9592,-21.7756],[28.8623,-21.7557],[28.5791,-21.6294],[28.5028,-21.6689],[28.3655,-21.6025],[28.3498,-21.6079],[28.294,-21.5894],[28.1991,-21.6033],[28.1,-21.5786],[28.0246,-21.5764],[28.0088,-21.5634],[27.9708,-21.5675],[27.9288,-21.5398],[27.88,-21.5451],[27.8625,-21.5295],[27.8522,-21.5503],[27.8266,-21.5428],[27.7588,-21.5633],[27.6183,-21.532],[27.5794,-21.4809],[27.5593,-21.4923],[27.5414,-21.4694],[27.5178,-21.4765],[27.4919,-21.4591],[27.4622,-21.4218],[27.4585,-21.3929],[27.4052,-21.3338],[27.3878,-21.1867],[27.3488,-21.1453],[27.3631,-21.0557],[27.3608,-21.0407],[27.3432,-21.0338],[27.3493,-20.996],[27.2745,-20.8758],[27.2273,-20.8582],[27.2296,-20.8354],[27.2154,-20.8151],[27.2256,-20.7147],[27.2586,-20.6895],[27.3089,-20.6063],[27.2864,-20.5523],[27.2999,-20.5319],[27.2995,-20.4944],[27.2887,-20.4989],[27.2856,-20.4855],[27.3037,-20.318],[27.2848,-20.2322],[27.2663,-20.2138],[27.2338,-20.1205],[27.2059,-20.082],[27.1433,-20.0796],[27.0404,-20.0087],[26.9789,-20.0145],[26.8515,-19.9616],[26.7265,-19.9399],[26.7028,-19.8877],[26.643,-19.8729],[26.619,-19.8812],[26.5622,-19.7817],[26.4406,-19.7489],[26.4146,-19.7247],[26.3917,-19.6711],[26.3534,-19.6759],[26.328,-19.6642],[26.3586,-19.6149],[26.3123,-19.5761],[26.247,-19.5857],[26.1702,-19.5464],[26.1418,-19.4382],[26.1261,-19.4281],[26.0724,-19.272],[26.0437,-19.2366],[26.0419,-19.2106],[25.9645,-19.1079],[25.9653,-19.0667],[25.9966,-19.0315],[25.9888,-19.0011],[25.0046,-19],[24.9992,-19.9969],[25.176,-20.0718],[25.1782,-20.3423],[24.4713,-20.3852],[24.4096,-20.4037],[24.3374,-20.3517],[24.3261,-20.3212],[24.2845,-20.3155],[24.2695,-20.2861],[24.2823,-20.2549],[24.2669,-20.2465],[24.2604,-20.2203],[24.2314,-20.2538],[24.2075,-20.2425],[24.1972,-20.2163],[24.1546,-20.1976],[24.123,-20.2174],[24.0974,-20.2149],[24.0539,-20.2542],[24.0307,-20.2517],[23.9972,-20.2887],[23.997,-20.3112],[23.9702,-20.3065],[23.9401,-20.327],[23.8895,-20.3024],[23.8844,-21.0002],[25.746,-23.3207],[25.8595,-23.3573],[26.0322,-23.5811],[26.722,-23.9623],[26.7298,-23.9368],[26.7584,-23.9248],[26.7561,-23.9066],[26.787,-23.8942],[26.8005,-23.8628],[26.8436,-23.8612],[26.8442,-23.8412],[26.8725,-23.8239],[26.8708,-23.8052],[26.8965,-23.8027],[26.9075,-23.7766],[26.9255,-23.7952],[26.9308,-23.7546],[26.9621,-23.7468]]]}},{"type":"Feature","properties":{"name":"Ghanzi District","code":"57670837B99453960122440","iso":"BWA"},"geometry":{"type":"Polygon","coordinates":[[[23.8844,-21.0002],[20.999,-20.9954],[20.9987,-22.0003],[19.9991,-21.9999],[19.9991,-23.3205],[25.2387,-23.3211],[25.4466,-22.9473],[23.8844,-21.0002]]]}},{"type":"Feature","properties":{"name":"Kweneng District","code":"57670837B49806718353307","iso":"BWA"},"geometry":{"type":"Polygon","coordinates":[[[25.9728,-24.5126],[25.9361,-24.4715],[25.9083,-24.4767],[25.8862,-24.4552],[25.8976,-24.4356],[25.8839,-24.3984],[25.9062,-24.3858],[25.9678,-24.286],[25.9556,-24.2853],[26.0322,-23.5811],[25.8595,-23.3573],[25.746,-23.3207],[25.4466,-22.9473],[25.2387,-23.3211],[23.059,-23.321],[23.059,-23.4409],[22.9645,-23.4409],[22.9645,-23.6007],[23.0591,-23.6007],[23.059,-24.0051],[24.7772,-24.5011],[25.2919,-24.6381],[25.319,-24.6482],[25.3441,-24.6802],[25.3935,-24.6785],[25.4127,-24.6932],[25.4404,-24.6831],[25.6796,-24.7811],[25.7156,-24.7873],[25.7891,-24.7328],[25.9027,-24.5984],[25.8958,-24.5849],[25.8736,-24.5822],[25.903,-24.5677],[25.8884,-24.566],[25.897,-24.5569],[25.9518,-24.5385],[25.9728,-24.5126]]]}},{"type":"Feature","properties":{"name":"Southern District","code":"57670837B18017563073821","iso":"BWA"},"geometry":{"type":"Polygon","coordinates":[[[25.7156,-24.7873],[25.4404,-24.6831],[25.4127,-24.6932],[25.3935,-24.6785],[25.3441,-24.6802],[25.319,-24.6482],[25.2919,-24.6381],[24.7772,-24.5011],[23.059,-24.0051],[23.0591,-24.8535],[24.0954,-24.8537],[24.25,-24.9988],[24.25,-25.5114],[24.4109,-25.6565],[24.4992,-25.6565],[24.5082,-25.7583],[24.5694,-25.7727],[24.6089,-25.8007],[24.6827,-25.8239],[24.729,-25.804],[24.7947,-25.8253],[24.8132,-25.8103],[24.8969,-25.8108],[24.9128,-25.7844],[24.9278,-25.7877],[24.9544,-25.7603],[24.9667,-25.7661],[25.0036,-25.7387],[25.0006,-25.7296],[25.0375,-25.7222],[25.1043,-25.7412],[25.1214,-25.7638],[25.1437,-25.7564],[25.3348,-25.7709],[25.4238,-25.7314],[25.4695,-25.6959],[25.513,-25.6847],[25.5809,-25.6388],[25.6621,-25.4673],[25.539,-25.4358],[25.6683,-25.0279],[25.5998,-25.0218],[25.6609,-24.9117],[25.6338,-24.8857],[25.709,-24.8535],[25.7156,-24.7873]]]}},{"type":"Feature","properties":{"name":"Kgalagadi District","code":"57670837B51384475500083","iso":"BWA"},"geometry":{"type":"Polygon","coordinates":[[[19.9991,-23.3205],[20.0001,-24.7677],[20.0381,-24.8094],[20.0905,-24.8331],[20.0877,-24.8524],[20.1216,-24.885],[20.1502,-24.8795],[20.1818,-24.9118],[20.2036,-24.8964],[20.2222,-24.92],[20.2591,-24.9236],[20.2965,-24.9806],[20.384,-25.0344],[20.3788,-25.0617],[20.4124,-25.0823],[20.4314,-25.1545],[20.4693,-25.1567],[20.4466,-25.1992],[20.4715,-25.2284],[20.4989,-25.2284],[20.4873,-25.2531],[20.4964,-25.269],[20.5459,-25.2862],[20.5139,-25.3171],[20.5479,-25.3205],[20.5392,-25.3448],[20.562,-25.3892],[20.6014,-25.3945],[20.6031,-25.428],[20.6309,-25.4251],[20.6171,-25.4461],[20.6223,-25.4619],[20.673,-25.4501],[20.6676,-25.4696],[20.6362,-25.4753],[20.643,-25.4985],[20.6298,-25.5196],[20.6691,-25.5493],[20.6984,-25.5924],[20.6638,-25.6065],[20.6516,-25.6358],[20.6875,-25.635],[20.6771,-25.6864],[20.7167,-25.7163],[20.731,-25.77],[20.763,-25.7806],[20.7397,-25.8229],[20.7886,-25.8031],[20.783,-25.8538],[20.8137,-25.8718],[20.7983,-25.9006],[20.8035,-25.9202],[20.8405,-25.9559],[20.8166,-26.0075],[20.8361,-26.0387],[20.82,-26.0603],[20.8421,-26.0817],[20.8208,-26.104],[20.863,-26.1337],[20.8193,-26.1823],[20.7894,-26.2717],[20.7588,-26.287],[20.7209,-26.3325],[20.6934,-26.3974],[20.6768,-26.3979],[20.6514,-26.4316],[20.6176,-26.4436],[20.6046,-26.5143],[20.6098,-26.56],[20.6324,-26.5922],[20.6351,-26.6648],[20.6145,-26.6864],[20.6347,-26.7257],[20.6257,-26.7492],[20.6373,-26.7689],[20.622,-26.7865],[20.6506,-26.8099],[20.6449,-26.8288],[20.6825,-26.84],[20.6856,-26.9056],[20.715,-26.8701],[20.7635,-26.8664],[20.7866,-26.8417],[20.8163,-26.8417],[20.8207,-26.8193],[20.8981,-26.7963],[20.9466,-26.8139],[20.9718,-26.8072],[21.011,-26.8466],[21.078,-26.8485],[21.1337,-26.8737],[21.222,-26.8435],[21.2696,-26.8372],[21.2974,-26.8492],[21.3331,-26.8255],[21.4042,-26.8221],[21.5254,-26.8618],[21.5409,-26.8431],[21.5615,-26.85],[21.5756,-26.8399],[21.6031,-26.8451],[21.6269,-26.8666],[21.6775,-26.854],[21.6947,-26.8613],[21.781,-26.8023],[21.7934,-26.7707],[21.7875,-26.7222],[21.7691,-26.6952],[21.7874,-26.6759],[21.8235,-26.6597],[21.9488,-26.6698],[22.0173,-26.6363],[22.0484,-26.6348],[22.0773,-26.5813],[22.1635,-26.5086],[22.1602,-26.4829],[22.182,-26.4694],[22.1814,-26.4393],[22.2002,-26.4248],[22.19,-26.4011],[22.2386,-26.3707],[22.2423,-26.3499],[22.3069,-26.3441],[22.3259,-26.3223],[22.363,-26.3255],[22.3631,-26.2858],[22.4029,-26.2727],[22.3988,-26.2481],[22.4201,-26.2244],[22.4541,-26.2279],[22.4734,-26.2],[22.5294,-26.2268],[22.5552,-26.2234],[22.5775,-26.1918],[22.5782,-26.1421],[22.6049,-26.1492],[22.6091,-26.1273],[22.6354,-26.1181],[22.6317,-26.0945],[22.6731,-26.0735],[22.6657,-26.0179],[22.7247,-26.0152],[22.7239,-25.9501],[22.7492,-25.918],[22.712,-25.893],[22.7378,-25.8821],[22.7357,-25.8567],[22.7716,-25.8413],[22.7817,-25.8233],[22.7346,-25.7937],[22.7593,-25.7887],[22.7693,-25.7328],[22.7999,-25.7231],[22.8215,-25.6905],[22.8302,-25.6578],[22.8083,-25.6509],[22.8004,-25.6328],[22.8534,-25.6152],[22.8141,-25.5824],[22.8535,-25.5335],[22.8604,-25.507],[22.8464,-25.4902],[22.8637,-25.4796],[22.9004,-25.4869],[22.8857,-25.4684],[22.9099,-25.4223],[22.97,-25.3811],[22.9779,-25.3399],[23.0113,-25.3359],[23.0103,-25.2972],[23.0308,-25.3129],[23.0584,-25.2899],[23.0544,-25.3186],[23.0787,-25.332],[23.1074,-25.3042],[23.1345,-25.3174],[23.212,-25.2734],[23.2781,-25.2741],[23.295,-25.2941],[23.3113,-25.2818],[23.3241,-25.2924],[23.3556,-25.2851],[23.3684,-25.3034],[23.4143,-25.3158],[23.4422,-25.277],[23.4658,-25.2767],[23.4581,-25.2977],[23.4784,-25.2985],[23.4943,-25.3179],[23.4962,-25.3516],[23.524,-25.3401],[23.5596,-25.3547],[23.5573,-25.3717],[23.5844,-25.3756],[23.5893,-25.3965],[23.616,-25.3839],[23.6115,-25.4035],[23.6327,-25.4109],[23.6375,-25.4316],[23.669,-25.4163],[23.6772,-25.4269],[23.6666,-25.4414],[23.6952,-25.4446],[23.7034,-25.4627],[23.7293,-25.4463],[23.759,-25.4691],[23.752,-25.481],[23.7629,-25.503],[23.8205,-25.5119],[23.8089,-25.5453],[23.8352,-25.5411],[23.8397,-25.5679],[23.8802,-25.5774],[23.8828,-25.595],[23.907,-25.6055],[23.9045,-25.6275],[23.9457,-25.6385],[23.9504,-25.6229],[23.9726,-25.6149],[24.012,-25.6245],[24.0052,-25.6513],[24.0299,-25.6343],[24.0586,-25.6519],[24.0677,-25.631],[24.0858,-25.6434],[24.1386,-25.6281],[24.1406,-25.6142],[24.1571,-25.6082],[24.1594,-25.6301],[24.1918,-25.6204],[24.2268,-25.644],[24.2609,-25.7073],[24.2884,-25.6943],[24.2783,-25.7143],[24.2857,-25.7267],[24.3264,-25.7109],[24.3242,-25.7317],[24.3564,-25.7579],[24.4013,-25.7625],[24.4054,-25.7471],[24.426,-25.7515],[24.4329,-25.734],[24.4467,-25.7336],[24.5082,-25.7583],[24.4992,-25.6565],[24.4109,-25.6565],[24.25,-25.5114],[24.25,-24.9988],[24.0954,-24.8537],[23.0591,-24.8535],[23.0591,-23.6007],[22.9645,-23.6007],[22.9645,-23.4567],[22.9645,-23.4409],[23.059,-23.4409],[23.059,-23.321],[19.9991,-23.3205]]]}},{"type":"Feature","properties":{"name":"North-West District","code":"57670837B3917923701881","iso":"BWA"},"geometry":{"type":"Polygon","coordinates":[[[25.0046,-19],[23.8822,-19.0004],[23.8819,-18.2756],[23.8641,-18.3052],[23.8513,-18.3018],[23.8446,-18.3268],[23.8029,-18.34],[23.8085,-18.3535],[23.7959,-18.374],[23.7377,-18.4251],[23.7143,-18.4363],[23.687,-18.4308],[23.659,-18.4775],[23.6161,-18.5023],[23.5932,-18.4963],[23.5676,-18.4807],[23.5716,-18.4545],[23.5548,-18.4402],[23.5643,-18.4134],[23.5505,-18.3821],[23.5645,-18.3698],[23.5535,-18.3583],[23.5586,-18.3368],[23.5279,-18.3198],[23.5258,-18.2731],[23.503,-18.2661],[23.5004,-18.2418],[23.4692,-18.2467],[23.4531,-18.2362],[23.4455,-18.2129],[23.3975,-18.2081],[23.403,-18.1746],[23.3843,-18.1637],[23.3674,-18.1163],[23.3241,-18.0825],[23.3203,-18.0586],[23.335,-18.0523],[23.3079,-18.0375],[23.317,-18.0235],[23.3087,-18.0018],[23.0984,-18.0008],[21.453,-18.3176],[20.9989,-18.3176],[20.999,-20.9954],[23.8844,-21.0002],[23.8895,-20.3024],[23.9401,-20.327],[23.9702,-20.3065],[23.997,-20.3112],[23.9972,-20.2887],[24.0307,-20.2517],[24.0539,-20.2542],[24.0974,-20.2149],[24.123,-20.2174],[24.1546,-20.1976],[24.1972,-20.2163],[24.2075,-20.2425],[24.2314,-20.2538],[24.2604,-20.2203],[24.2669,-20.2465],[24.2823,-20.2549],[24.2695,-20.2861],[24.2845,-20.3155],[24.3261,-20.3212],[24.3374,-20.3517],[24.4096,-20.4037],[24.4713,-20.3852],[25.1782,-20.3423],[25.176,-20.0718],[24.9992,-19.9969],[25.0046,-19]]]}},{"type":"Feature","properties":{"name":"Chobe District","code":"57670837B89802666826813","iso":"BWA"},"geometry":{"type":"Polygon","coordinates":[[[25.9888,-19.0011],[25.947,-18.9077],[25.8255,-18.8373],[25.7955,-18.7509],[25.7917,-18.6986],[25.8037,-18.6859],[25.7824,-18.6245],[25.6922,-18.573],[25.6475,-18.4961],[25.6038,-18.4779],[25.5236,-18.3839],[25.4157,-18.1529],[25.3553,-18.0908],[25.319,-18.078],[25.2897,-18.0294],[25.2655,-17.9485],[25.2373,-17.9119],[25.2397,-17.8725],[25.2647,-17.8169],[25.2617,-17.7907],[25.1625,-17.7783],[25.1439,-17.808],[25.129,-17.8019],[25.1162,-17.8258],[25.0657,-17.841],[25.0493,-17.8307],[25.0615,-17.8259],[25.0542,-17.8078],[25.0134,-17.8383],[24.9999,-17.8314],[25.0041,-17.8157],[24.994,-17.8298],[24.9764,-17.8259],[24.9808,-17.8133],[24.9645,-17.8045],[24.9822,-17.7927],[24.9596,-17.7883],[24.932,-17.8199],[24.9288,-17.8088],[24.9111,-17.8101],[24.9006,-17.8303],[24.8536,-17.8507],[24.8235,-17.8459],[24.7959,-17.8757],[24.7708,-17.8722],[24.7747,-17.8823],[24.7572,-17.8949],[24.7395,-17.8843],[24.6992,-17.9429],[24.6658,-17.9498],[24.6461,-17.9783],[24.6277,-17.9837],[24.6285,-17.9955],[24.6169,-17.9944],[24.6161,-18.0205],[24.5754,-18.0739],[24.5389,-18.0703],[24.5221,-18.0513],[24.5083,-18.0659],[24.4953,-18.0553],[24.4991,-18.0427],[24.4816,-18.0347],[24.4872,-18.0147],[24.4544,-17.9849],[24.4572,-17.9634],[24.4502,-17.9735],[24.4235,-17.9518],[24.4182,-17.96],[24.372,-17.9493],[24.3037,-18.007],[24.2947,-18.0366],[24.2687,-18.0113],[24.2371,-18.0266],[24.1958,-18.0183],[24.1081,-18.1105],[24.0899,-18.1205],[24.0513,-18.11],[24.0612,-18.1232],[24.0485,-18.1384],[23.9892,-18.1653],[23.9754,-18.1914],[23.9598,-18.184],[23.9315,-18.2044],[23.9191,-18.2245],[23.9344,-18.2363],[23.9321,-18.2505],[23.8832,-18.27],[23.8822,-19.0004],[25.9888,-19.0011]]]}}]}