{"type":"FeatureCollection","features":[{"type":"Feature","properties":{"name":"Centre","code":"27767025B11866847137657","iso":"CMR"},"geometry":{"type":"Polygon","coordinates":[[[10.2594,3.5581],[10.2395,3.5266],[10.2895,3.3616],[10.3129,3.3527],[10.7626,3.4807],[10.8243,3.4787],[10.8607,3.4109],[10.9464,3.4383],[10.9649,3.4362],[10.9799,3.413],[11.0341,3.4226],[11.0533,3.4089],[11.0842,3.3726],[11.1123,3.2542],[11.1548,3.2364],[11.1575,3.1946],[11.2158,3.1419],[11.3536,3.1385],[11.4057,3.1542],[11.5072,3.1385],[11.5942,3.1529],[11.7046,3.2104],[11.7204,3.2822],[11.7444,3.3],[11.7581,3.3377],[11.7931,3.3459],[11.874,3.3945],[11.8891,3.4431],[11.9041,3.4554],[11.9254,3.4561],[11.9412,3.4369],[11.9823,3.4342],[12.1324,3.3555],[12.1427,3.3425],[12.1372,3.2987],[12.2271,3.3254],[12.2778,3.4848],[12.4094,3.5854],[12.4691,3.6675],[12.5109,3.658],[12.55,3.5813],[12.5733,3.5642],[12.5897,3.5772],[12.6144,3.6251],[12.6137,3.764],[12.5328,3.8078],[12.5123,3.8365],[12.515,3.8659],[12.5993,3.9261],[12.6789,3.9514],[12.7351,4.0116],[12.7899,4.041],[12.7954,4.0834],[12.7673,4.1299],[12.8112,4.2441],[12.8071,4.3474],[12.8482,4.4068],[12.8654,4.5114],[12.9545,4.5818],[12.9984,4.5709],[13.095,4.5681],[13.1327,4.5791],[13.189,4.5702],[13.2047,4.5893],[13.2157,4.6515],[13.2328,4.8128],[13.1862,4.9432],[13.08,4.9603],[13.0361,4.9801],[13.0505,5.0552],[13.0388,5.0826],[12.8222,5.2949],[12.8606,5.3113],[12.9531,5.3099],[12.9661,5.3202],[13.0573,5.512],[13.0004,5.6341],[12.9881,5.6907],[12.9568,5.7238],[12.9086,5.8293],[12.8669,5.8805],[12.8636,5.9897],[12.513,5.9949],[12.4355,6.1026],[12.297,6.2008],[12.2613,6.2124],[12.1427,6.1626],[12.0934,6.1654],[12.0063,6.2117],[11.9604,6.2703],[11.9329,6.2485],[11.9055,6.2451],[11.8925,6.2226],[11.7842,6.2035],[11.6374,6.0849],[11.4023,6.0324],[11.3399,6.0079],[11.2994,6.0079],[11.2641,5.9838],[11.2584,5.8834],[11.272,5.7996],[11.2878,5.7891],[11.2698,5.745],[11.2018,5.683],[11.1842,5.6123],[11.2005,5.5145],[11.1649,5.4551],[11.1772,5.4131],[11.1434,5.3895],[11.1281,5.3581],[11.0824,5.338],[11.0701,5.3192],[11.0723,5.2541],[11.0579,5.2226],[11.0688,5.1947],[11.0302,5.1785],[10.9984,5.1341],[10.9499,4.961],[10.883,4.9579],[10.7946,5.0217],[10.7665,4.982],[10.6092,4.8978],[10.5011,4.9116],[10.4987,4.8804],[10.4611,4.8336],[10.3725,4.7833],[10.3567,4.7099],[10.3738,4.6963],[10.3891,4.702],[10.4716,4.7576],[10.4967,4.744],[10.4905,4.6679],[10.4221,4.5892],[10.3979,4.5459],[10.397,4.5104],[10.4142,4.4868],[10.4515,4.4951],[10.5809,4.4278],[10.6121,4.437],[10.6458,4.4811],[10.6814,4.4912],[10.7112,4.5293],[10.7428,4.4829],[10.759,4.4912],[10.7823,4.5196],[10.8099,4.622],[10.9253,4.6211],[10.9201,4.5209],[10.9635,4.3976],[11.0127,4.325],[11.1158,4.2339],[11.1197,4.2024],[11.0601,4.1547],[10.8266,4.0707],[10.7924,4.0738],[10.702,4.0269],[10.6612,3.9534],[10.6542,3.8006],[10.6116,3.7433],[10.5906,3.7463],[10.5603,3.7888],[10.4664,3.8356],[10.4076,3.8151],[10.3707,3.7686],[10.3676,3.7008],[10.3339,3.6031],[10.2594,3.5581]]]}},{"type":"Feature","properties":{"name":"Far North","code":"27767025B65184844379073","iso":"CMR"},"geometry":{"type":"Polygon","coordinates":[[[14.1957,9.9808],[14.2215,9.9957],[14.3053,10.0035],[14.3595,9.9957],[14.4836,10.007],[14.8356,9.9227],[14.9778,9.9946],[15.0085,9.9934],[15.0585,9.9673],[15.088,9.9673],[15.1236,9.9916],[15.1754,9.9702],[15.2562,9.9863],[15.4562,9.9346],[15.5876,9.9542],[15.684,9.9904],[15.508,10.0996],[15.4219,10.2129],[15.3152,10.3083],[15.2381,10.4773],[15.1519,10.5324],[15.1525,10.6544],[15.0784,10.7828],[15.073,10.8184],[15.0929,10.8586],[15.0935,10.8994],[15.0826,10.9539],[15.0627,10.9687],[15.0495,11.0118],[15.0344,11.0988],[15.0627,11.4085],[15.0929,11.4717],[15.1338,11.5159],[15.1423,11.5537],[15.0959,11.6116],[15.0772,11.6718],[15.073,11.7084],[15.117,11.7927],[15.0513,11.8965],[15.0862,12.0074],[15.0573,12.0345],[15.0555,12.0669],[15.0151,12.1199],[14.9543,12.1105],[14.9175,12.1393],[14.9061,12.1741],[14.9061,12.3972],[14.8579,12.5096],[14.8404,12.6196],[14.8259,12.6367],[14.7675,12.6502],[14.7548,12.6861],[14.7126,12.7219],[14.653,12.7284],[14.6241,12.7654],[14.5716,12.7766],[14.562,12.927],[14.4595,13.0732],[14.0853,13.079],[14.198,12.5073],[14.183,12.469],[14.1866,12.399],[14.233,12.3678],[14.3921,12.3655],[14.4758,12.3502],[14.5439,12.2783],[14.5542,12.2418],[14.5885,12.2259],[14.6024,12.1977],[14.6596,12.1918],[14.6717,12.177],[14.6747,12.1529],[14.6386,12.0924],[14.649,12.0656],[14.6232,12.0324],[14.6518,11.9567],[14.6349,11.929],[14.6409,11.9142],[14.6048,11.8712],[14.6126,11.7815],[14.5548,11.7261],[14.5638,11.7036],[14.6433,11.6411],[14.6397,11.5732],[14.6078,11.5183],[14.518,11.4746],[14.4589,11.4663],[14.4234,11.4096],[14.2782,11.3488],[14.1992,11.2785],[14.1583,11.2613],[14.1209,11.2466],[14.0938,11.2537],[14.054,11.285],[13.9883,11.308],[13.9907,11.2761],[13.9678,11.2395],[13.9226,11.2011],[13.8781,11.1147],[13.8274,11.0657],[13.7961,11.0142],[13.7021,10.9758],[13.6714,10.8521],[13.6087,10.7598],[13.5864,10.6875],[13.5328,10.6301],[13.5551,10.4921],[13.5231,10.4429],[13.5057,10.2923],[13.4683,10.2301],[13.4556,10.1803],[13.3984,10.1272],[13.4097,10.0781],[13.4502,10.0558],[13.5064,10.0761],[13.5482,10.0687],[13.673,10.1105],[13.6531,10.1679],[13.6607,10.2023],[13.6881,10.2192],[13.9356,10.1942],[14.0658,10.0788],[14.1447,10.0754],[14.1824,10.0558],[14.1941,10.0437],[14.1957,9.9808]]]}},{"type":"Feature","properties":{"name":"North","code":"27767025B7666404469333","iso":"CMR"},"geometry":{"type":"Polygon","coordinates":[[[13.3984,10.1272],[13.3171,10.1097],[13.2815,10.0545],[13.2544,10.0355],[13.2556,10.0041],[13.2869,9.9779],[13.2869,9.959],[13.2399,9.9073],[13.2435,9.8658],[13.2905,9.8408],[13.2978,9.8248],[13.2592,9.7583],[13.2417,9.6692],[13.2441,9.5973],[13.2134,9.5432],[13.1791,9.523],[13.0417,9.5082],[12.9917,9.4779],[12.935,9.416],[12.8856,9.4],[12.8573,9.3762],[12.8567,9.3637],[12.9169,9.3399],[12.9121,9.2359],[12.891,9.1556],[12.9037,9.0889],[12.879,9.0699],[12.8778,9.0324],[12.8579,8.989],[12.7976,8.9181],[12.8043,8.7758],[12.7898,8.7592],[12.7265,8.7466],[12.709,8.6841],[12.6886,8.6561],[12.5861,8.5989],[12.4813,8.6204],[12.412,8.4863],[12.3077,8.4654],[12.236,8.4356],[12.2348,8.3474],[12.2568,8.1834],[12.2709,8.1509],[12.48,7.9547],[12.5095,7.9391],[12.6248,7.9202],[12.6546,7.8628],[12.6335,7.8315],[12.641,7.7546],[12.7371,7.7168],[12.7599,7.695],[12.8845,7.6598],[13.0043,7.6463],[13.1184,7.5889],[13.2464,7.6123],[13.2667,7.6718],[13.2925,7.6946],[13.3638,7.6966],[13.4262,7.6341],[13.4707,7.6171],[13.5174,7.5771],[13.6449,7.6477],[13.721,7.6396],[13.8396,7.6661],[13.8801,7.66],[13.8835,7.6015],[13.9047,7.5859],[14.1084,7.5635],[14.1221,7.556],[14.1324,7.505],[14.2043,7.4384],[14.2105,7.4017],[14.2345,7.386],[14.2688,7.3323],[14.3202,7.2997],[14.3325,7.2772],[14.336,7.2004],[14.3264,7.1766],[14.3367,7.1623],[14.4121,7.1507],[14.4697,7.1657],[14.5142,7.1398],[14.5451,7.0759],[14.6596,7.0133],[14.7151,7.0208],[14.8344,7.0936],[14.999,7.165],[15.0826,7.1739],[15.1895,7.2708],[15.2437,7.269],[15.4158,7.4163],[15.4839,7.5107],[15.5436,7.568],[15.5749,7.6265],[15.596,7.7543],[15.5936,7.7693],[15.5135,7.7931],[15.4653,7.8642],[15.3972,8.039],[15.3948,8.0957],[15.2893,8.3027],[15.214,8.584],[15.1778,8.6269],[15.0971,8.6686],[14.9958,8.6758],[14.9681,8.7347],[14.9223,8.7514],[14.9187,8.78],[14.897,8.805],[14.8295,8.7919],[14.7614,8.8139],[14.6102,8.9646],[14.512,9.0271],[14.4921,9.0461],[14.4776,9.0991],[14.38,9.1954],[14.3896,9.249],[14.3824,9.2829],[14.3035,9.3619],[14.2583,9.378],[14.1884,9.4672],[14.154,9.4832],[14.1161,9.526],[14.0251,9.6419],[14.0221,9.6846],[14.0432,9.7428],[14.1245,9.8272],[14.1818,9.9097],[14.1957,9.9808],[14.1941,10.0437],[14.1824,10.0558],[14.1447,10.0754],[14.0658,10.0788],[13.9479,10.1901],[13.8705,10.2057],[13.7608,10.2057],[13.6881,10.2192],[13.6607,10.2023],[13.6531,10.1679],[13.673,10.1105],[13.5482,10.0687],[13.5064,10.0761],[13.4303,10.0592],[13.4097,10.0781],[13.3984,10.1272]]]}},{"type":"Feature","properties":{"name":"North-West","code":"27767025B74489197250691","iso":"CMR"},"geometry":{"type":"Polygon","coordinates":[[[11.1966,6.5401],[11.1622,6.5598],[11.1224,6.54],[11.0971,6.5502],[11.0953,6.6711],[11.0694,6.713],[10.9778,6.6897],[10.929,6.707],[10.8766,6.7986],[10.8236,6.8219],[10.8163,6.8548],[10.8422,6.935],[10.8085,6.9583],[10.741,6.9769],[10.6663,7.045],[10.6307,7.0474],[10.6078,7.0672],[10.6006,7.1359],[10.5783,7.1616],[10.5416,6.9434],[10.4982,6.9117],[10.2168,6.8937],[10.1806,6.9511],[10.18,7.0175],[10.1529,7.0397],[10.1161,6.996],[10.0324,6.932],[9.8938,6.7836],[9.8739,6.7764],[9.8088,6.792],[9.7835,6.78],[9.7152,6.5273],[9.7733,6.408],[9.776,6.3603],[9.8007,6.301],[9.8076,6.2274],[9.7945,6.2015],[9.8038,6.1627],[9.7806,6.1317],[9.7358,6.1365],[9.6998,6.0994],[9.591,6.0427],[9.5866,6.0292],[9.6156,5.9812],[9.6015,5.9201],[9.6349,5.9035],[9.6827,5.8489],[9.734,5.8542],[9.7533,5.8136],[9.7893,5.7883],[9.928,5.7429],[9.9697,5.7682],[10.1009,5.7402],[10.1579,5.7817],[10.182,5.7852],[10.2518,5.769],[10.2808,5.7293],[10.3137,5.7415],[10.3277,5.8092],[10.498,5.8393],[10.6049,5.8401],[10.6988,6.0331],[10.7379,6.0433],[10.8332,6.0154],[10.86,6.0358],[10.9553,6.0665],[10.9985,6.1129],[11.0135,6.1899],[10.9985,6.2328],[11.0087,6.2492],[11.128,6.2431],[11.1945,6.2983],[11.211,6.378],[11.1966,6.5401]]]}},{"type":"Feature","properties":{"name":"Adamaoua","code":"27767025B32580592296844","iso":"CMR"},"geometry":{"type":"Polygon","coordinates":[[[12.8636,5.9897],[13.7004,5.9915],[13.8341,6.0011],[13.9685,6.0611],[14.0261,6.0392],[14.0926,6.0351],[14.2414,6.0515],[14.2777,6.0733],[14.336,6.0795],[14.3655,6.1122],[14.4128,6.089],[14.4595,6.0968],[14.5542,6.1819],[14.747,6.2616],[14.8,6.3329],[14.8205,6.4257],[14.9687,6.7435],[15.0543,6.7645],[15.0657,6.7782],[15.1278,6.929],[15.1525,7.0331],[15.2158,7.1335],[15.2043,7.1598],[15.2212,7.2041],[15.2146,7.2262],[15.2437,7.269],[15.1895,7.2708],[15.0826,7.1739],[14.999,7.165],[14.8344,7.0936],[14.7151,7.0208],[14.6596,7.0133],[14.5451,7.0759],[14.5142,7.1398],[14.4697,7.1657],[14.4121,7.1507],[14.3367,7.1623],[14.3264,7.1766],[14.336,7.2004],[14.3325,7.2772],[14.3202,7.2997],[14.2688,7.3323],[14.2345,7.386],[14.2105,7.4017],[14.2043,7.4384],[14.1324,7.505],[14.1221,7.556],[14.1084,7.5635],[13.9047,7.5859],[13.8835,7.6015],[13.8801,7.66],[13.8396,7.6661],[13.721,7.6396],[13.6449,7.6477],[13.5174,7.5771],[13.4707,7.6171],[13.4262,7.6341],[13.3638,7.6966],[13.2925,7.6946],[13.2667,7.6718],[13.2464,7.6123],[13.1184,7.5889],[13.0043,7.6463],[12.8845,7.6598],[12.7599,7.695],[12.7371,7.7168],[12.641,7.7546],[12.6335,7.8315],[12.6546,7.8628],[12.6248,7.9202],[12.5095,7.9391],[12.48,7.9547],[12.2709,8.1509],[12.2568,8.1834],[12.2101,8.0927],[12.2131,7.9776],[12.1565,7.8946],[12.0998,7.8379],[12.0384,7.7078],[12.0209,7.6516],[12.0342,7.5262],[11.9618,7.4975],[11.8275,7.3475],[11.804,7.2513],[11.8184,7.1569],[11.8492,7.0911],[11.8431,7.0725],[11.8269,7.0618],[11.7268,7.057],[11.7124,7.0307],[11.631,6.9769],[11.6136,6.9117],[11.5876,6.9063],[11.5611,6.8602],[11.6003,6.8058],[11.5798,6.7818],[11.5852,6.7358],[11.5623,6.7118],[11.5214,6.6119],[11.434,6.5897],[11.4268,6.5287],[11.3394,6.5077],[11.2924,6.5322],[11.1966,6.5401],[11.211,6.378],[11.1945,6.2983],[11.272,6.2805],[11.2926,6.2615],[11.2823,6.1374],[11.3104,6.074],[11.2994,6.0079],[11.3399,6.0079],[11.4023,6.0324],[11.6374,6.0849],[11.7842,6.2035],[11.8925,6.2226],[11.9055,6.2451],[11.9329,6.2485],[11.9604,6.2703],[12.0063,6.2117],[12.0934,6.1654],[12.1427,6.1626],[12.2613,6.2124],[12.297,6.2008],[12.4355,6.1026],[12.513,5.9949],[12.8636,5.9897]]]}},{"type":"Feature","properties":{"name":"East","code":"27767025B81519146961984","iso":"CMR"},"geometry":{"type":"Polygon","coordinates":[[[12.5733,3.5642],[12.5637,3.4191],[12.6096,3.3473],[12.6967,3.2733],[12.7413,3.1994],[12.7762,3.0865],[12.7797,2.9468],[12.7872,2.9256],[12.8537,2.8811],[12.899,2.8681],[12.986,2.8667],[13.1135,2.8311],[13.1458,2.8482],[13.1842,2.8407],[13.2157,2.8496],[13.2911,2.7729],[13.3096,2.7756],[13.3151,2.8324],[13.3604,2.8003],[13.4399,2.7715],[13.481,2.7701],[13.5112,2.7736],[13.6031,2.879],[13.6339,2.8913],[13.6469,2.8277],[13.6747,2.1735],[14.2492,2.1716],[14.3123,2.1876],[14.4431,2.166],[14.5712,2.2074],[14.6004,2.1989],[14.6474,2.1415],[14.7096,2.117],[14.7783,2.069],[14.8056,2.0615],[14.8772,2.0935],[14.9082,2.0606],[14.8998,2.0229],[14.9242,2.0051],[14.9986,2.0182],[15.0316,1.9994],[15.1107,1.9862],[15.1465,2.0201],[15.1964,2.037],[15.2284,2.0342],[15.2877,1.9862],[15.3216,1.9298],[15.3432,1.9185],[15.4317,1.9646],[15.4967,1.9731],[15.7547,1.9081],[15.895,1.7924],[16.0249,1.766],[16.0155,1.7209],[16.0334,1.6606],[16.0644,1.6616],[16.1049,1.6955],[16.1388,1.6889],[16.136,1.7905],[16.1087,1.8837],[16.0795,1.9194],[16.0531,1.9872],[16.0776,2.0418],[16.087,2.1876],[16.1059,2.2008],[16.1464,2.1867],[16.1868,2.2092],[16.1878,2.2309],[16.1718,2.2497],[16.1426,2.356],[16.0748,2.4708],[16.0842,2.5855],[16.069,2.6528],[16.0793,2.7052],[16.063,2.7172],[16.0498,2.7858],[16.051,2.8021],[16.0883,2.8334],[16.0696,2.9104],[16.0401,2.9604],[16.0046,2.9947],[15.9624,2.9989],[15.8786,3.097],[15.8015,3.0994],[15.5647,3.3773],[15.2562,3.7039],[15.1429,3.8753],[15.0959,3.9769],[15.0591,3.9967],[15.0682,4.0111],[15.1802,4.0532],[15.1025,4.1337],[15.0892,4.293],[15.038,4.3579],[15.0109,4.4156],[14.9549,4.436],[14.8102,4.5285],[14.7223,4.6306],[14.7084,4.8462],[14.6735,5.0341],[14.6903,5.1025],[14.6777,5.1697],[14.6397,5.2142],[14.565,5.237],[14.5276,5.276],[14.5722,5.3906],[14.6018,5.4242],[14.6247,5.5057],[14.5915,5.6041],[14.6222,5.7042],[14.6156,5.9087],[14.5951,5.9224],[14.5373,5.9003],[14.4879,5.917],[14.4668,5.9758],[14.4409,5.9938],[14.4228,6.0273],[14.4294,6.0866],[14.3792,6.1142],[14.336,6.0795],[14.2777,6.0733],[14.2414,6.0515],[14.0494,6.0351],[13.9685,6.0611],[13.8341,6.0011],[12.8636,5.9897],[12.8669,5.8805],[12.9086,5.8293],[12.9568,5.7238],[12.9881,5.6907],[13.0004,5.6341],[13.0573,5.512],[12.9661,5.3202],[12.9531,5.3099],[12.8606,5.3113],[12.8222,5.2949],[13.0388,5.0826],[13.0505,5.0552],[13.0361,4.9801],[13.08,4.9603],[13.1862,4.9432],[13.2328,4.8128],[13.2157,4.6515],[13.2047,4.5893],[13.189,4.5702],[13.1327,4.5791],[13.095,4.5681],[12.9984,4.5709],[12.9545,4.5818],[12.8654,4.5114],[12.8482,4.4068],[12.8071,4.3474],[12.8112,4.2441],[12.7673,4.1299],[12.7954,4.0834],[12.7899,4.041],[12.7351,4.0116],[12.6789,3.9514],[12.5993,3.9261],[12.515,3.8659],[12.5123,3.8365],[12.5328,3.8078],[12.6137,3.764],[12.6144,3.6251],[12.5733,3.5642]]]}},{"type":"Feature","properties":{"name":"South","code":"27767025B67924123829422","iso":"CMR"},"geometry":{"type":"Polygon","coordinates":[[[10.2594,3.5581],[10.2511,3.5847],[10.1977,3.6128],[10.1202,3.5868],[10.0496,3.4924],[10.051,3.4321],[10.027,3.3651],[9.9639,3.2987],[9.8996,3.2742],[9.9699,3.0886],[9.9614,3.0378],[9.9134,2.9692],[9.904,2.9354],[9.8786,2.7445],[9.8428,2.6561],[9.8211,2.5121],[9.8343,2.2892],[9.8513,2.2478],[9.9078,2.2036],[10.0302,2.1669],[10.1102,2.1622],[10.2006,2.1744],[11.1619,2.1754],[11.1892,2.1876],[11.3558,2.1716],[11.3681,2.2817],[11.3907,2.2995],[11.6713,2.3127],[11.7842,2.2723],[12.0959,2.2854],[12.1919,2.2807],[12.2418,2.2582],[12.32,2.276],[12.4631,2.2525],[12.5921,2.261],[12.7446,2.2299],[12.8162,2.2553],[12.8651,2.2375],[12.9348,2.2535],[13.0667,2.2459],[13.13,2.2826],[13.1726,2.2811],[13.2668,2.2562],[13.2992,2.2032],[13.2992,2.1716],[13.6747,2.1735],[13.6469,2.8277],[13.6339,2.8913],[13.6031,2.879],[13.5112,2.7736],[13.4399,2.7715],[13.3309,2.8133],[13.3151,2.8324],[13.3096,2.7756],[13.2911,2.7729],[13.2157,2.8496],[13.1842,2.8407],[13.1458,2.8482],[13.1135,2.8311],[12.986,2.8667],[12.899,2.8681],[12.8057,2.9126],[12.7797,2.9468],[12.7666,3.1392],[12.6967,3.2733],[12.6096,3.3473],[12.5637,3.4191],[12.5733,3.5642],[12.55,3.5813],[12.4951,3.6682],[12.4691,3.6675],[12.4094,3.5854],[12.2778,3.4848],[12.2483,3.3705],[12.2092,3.313],[12.1372,3.2987],[12.1427,3.3425],[12.1324,3.3555],[11.9823,3.4342],[11.9412,3.4369],[11.9254,3.4561],[11.9041,3.4554],[11.8891,3.4431],[11.874,3.3945],[11.7931,3.3459],[11.7581,3.3377],[11.7444,3.3],[11.7204,3.2822],[11.7046,3.2104],[11.5942,3.1529],[11.5072,3.1385],[11.4057,3.1542],[11.3536,3.1385],[11.2158,3.1419],[11.1575,3.1946],[11.1548,3.2364],[11.1123,3.2542],[11.0842,3.3726],[11.0533,3.4089],[11.0341,3.4226],[10.9799,3.413],[10.9649,3.4362],[10.9464,3.4383],[10.8607,3.4109],[10.8243,3.4787],[10.7626,3.4807],[10.3129,3.3527],[10.2895,3.3616],[10.2395,3.5266],[10.2594,3.5581]]]}},{"type":"Feature","properties":{"name":"South-West","code":"27767025B54850051814081","iso":"CMR"},"geometry":{"type":"Polygon","coordinates":[[[9.7152,6.5273],[9.6714,6.5137],[9.607,6.5311],[9.5943,6.5269],[9.5804,6.4754],[9.5515,6.4472],[9.4678,6.4502],[9.431,6.3329],[9.4129,6.3161],[9.3509,6.3382],[9.3424,6.3293],[9.3472,6.2921],[9.2822,6.1633],[9.111,6.0723],[9.0002,5.9614],[8.9134,5.9027],[8.9013,5.8649],[8.8483,5.8349],[8.8507,5.7426],[8.817,5.7156],[8.8164,5.7024],[8.8724,5.6419],[8.8953,5.5867],[8.8067,5.2826],[8.8097,5.1739],[8.7784,5.1133],[8.7302,5.0773],[8.6446,4.9122],[8.6085,4.8882],[8.6284,4.8276],[8.597,4.803],[8.5705,4.8018],[8.5512,4.7225],[8.5573,4.6865],[8.5193,4.6684],[8.5048,4.6354],[8.5054,4.603],[8.532,4.5886],[8.5012,4.5531],[8.5151,4.5021],[8.5753,4.4858],[8.6651,4.4828],[8.7302,4.5129],[8.6669,4.5633],[8.6573,4.6486],[8.632,4.6841],[8.6398,4.7171],[8.6922,4.6324],[8.7151,4.5699],[8.7772,4.5315],[8.7995,4.5699],[8.8477,4.5303],[8.9056,4.5051],[8.8839,4.3933],[8.9188,4.3405],[8.9158,4.2828],[8.9779,4.2293],[8.9947,4.1956],[8.9863,4.0953],[9.1207,4.0075],[9.199,4.0087],[9.2376,3.9522],[9.2798,3.9726],[9.3087,4.0117],[9.331,4.0147],[9.296,3.969],[9.3002,3.9492],[9.3348,3.9169],[9.4024,3.9733],[9.4549,4.0834],[9.5252,4.1184],[9.5664,4.1683],[9.5379,4.2243],[9.4594,4.2309],[9.4475,4.2418],[9.4576,4.321],[9.5318,4.4273],[9.5129,4.4685],[9.5168,4.5511],[9.5809,4.6548],[9.6415,4.6482],[9.6445,4.6959],[9.7077,4.7606],[9.7165,4.8367],[9.8021,4.9211],[9.7718,4.9814],[9.7915,5.0395],[9.8117,5.0631],[9.856,5.0623],[9.8591,5.0776],[9.8262,5.1453],[9.7753,5.21],[9.7547,5.2982],[9.7999,5.3026],[9.831,5.3533],[9.8705,5.3559],[9.9082,5.3865],[9.9508,5.4926],[9.964,5.5795],[10.0293,5.6219],[10.0658,5.6664],[10.1149,5.6835],[10.1009,5.7402],[9.9697,5.7682],[9.9131,5.7442],[9.7893,5.7883],[9.7533,5.8136],[9.734,5.8542],[9.6827,5.8489],[9.6349,5.9035],[9.6015,5.9201],[9.6156,5.9812],[9.5866,6.0292],[9.591,6.0427],[9.6998,6.0994],[9.7358,6.1365],[9.7806,6.1317],[9.8038,6.1627],[9.7945,6.2015],[9.8076,6.2274],[9.8007,6.301],[9.776,6.3603],[9.7733,6.408],[9.7152,6.5273]]]}},{"type":"Feature","properties":{"name":"West","code":"27767025B65871807342439","iso":"CMR"},"geometry":{"type":"Polygon","coordinates":[[[11.2994,6.0079],[11.3104,6.074],[11.2823,6.1374],[11.2974,6.2369],[11.285,6.271],[11.1945,6.2983],[11.128,6.2431],[11.0087,6.2492],[10.9985,6.2328],[11.0135,6.1899],[10.9985,6.1129],[10.9779,6.0795],[10.8332,6.0154],[10.7379,6.0433],[10.6988,6.0331],[10.6049,5.8401],[10.498,5.8393],[10.3277,5.8092],[10.3049,5.7328],[10.2808,5.7293],[10.2518,5.769],[10.182,5.7852],[10.1579,5.7817],[10.1009,5.7402],[10.1149,5.6835],[10.0658,5.6664],[10.0293,5.6219],[9.964,5.5795],[9.9508,5.4926],[9.9082,5.3865],[9.8705,5.3559],[9.8583,5.2743],[9.8855,5.2648],[9.9364,5.2832],[9.9816,5.2488],[10.0069,5.1674],[9.9923,5.1314],[10.0147,5.0802],[10.0619,5.0519],[10.0712,5.0024],[10.099,4.9781],[10.1124,4.9271],[10.1442,4.9246],[10.1728,4.9851],[10.231,5.0253],[10.2562,5.0933],[10.2953,5.0785],[10.3691,5.0928],[10.3854,5.0827],[10.3865,5.0446],[10.4096,5.0237],[10.4382,4.9395],[10.4635,4.9501],[10.4854,4.9145],[10.5525,4.9006],[10.6092,4.8978],[10.6741,4.9283],[10.7665,4.982],[10.7946,5.0217],[10.883,4.9579],[10.9499,4.961],[10.9984,5.1341],[11.0302,5.1785],[11.0688,5.1947],[11.0579,5.2226],[11.0723,5.2541],[11.0701,5.3192],[11.0824,5.338],[11.1281,5.3581],[11.1434,5.3895],[11.1772,5.4131],[11.1649,5.4551],[11.2005,5.5145],[11.1877,5.6341],[11.2101,5.6957],[11.2847,5.7704],[11.2584,5.8834],[11.2571,5.962],[11.2641,5.9838],[11.2994,6.0079]]]}},{"type":"Feature","properties":{"name":"Littoral","code":"27767025B72594666306589","iso":"CMR"},"geometry":{"type":"Polygon","coordinates":[[[10.5011,4.9116],[10.4854,4.9145],[10.4635,4.9501],[10.4382,4.9395],[10.4096,5.0237],[10.3865,5.0446],[10.3854,5.0827],[10.3691,5.0928],[10.2953,5.0785],[10.2562,5.0933],[10.231,5.0253],[10.1728,4.9851],[10.1442,4.9246],[10.1124,4.9271],[10.099,4.9781],[10.0712,5.0024],[10.0619,5.0519],[10.0147,5.0802],[9.9923,5.1314],[10.0069,5.1674],[9.9816,5.2488],[9.9364,5.2832],[9.8855,5.2648],[9.8583,5.2743],[9.8705,5.3559],[9.831,5.3533],[9.7999,5.3026],[9.7547,5.2982],[9.7753,5.21],[9.8262,5.1453],[9.8591,5.0776],[9.856,5.0623],[9.8117,5.0631],[9.7915,5.0395],[9.7718,4.9814],[9.8021,4.9211],[9.7165,4.8367],[9.7077,4.7606],[9.6445,4.6959],[9.6415,4.6482],[9.5809,4.6548],[9.5168,4.5511],[9.5129,4.4685],[9.5318,4.4273],[9.4576,4.321],[9.4475,4.2418],[9.4594,4.2309],[9.5379,4.2243],[9.5664,4.1683],[9.5252,4.1184],[9.4549,4.0834],[9.4024,3.9733],[9.3348,3.9169],[9.3798,3.8927],[9.4165,3.8891],[9.4635,3.9023],[9.4696,3.9143],[9.4473,3.9318],[9.4605,3.9871],[9.4991,3.9636],[9.5304,3.9696],[9.522,4.0069],[9.4684,4.0616],[9.4708,4.0796],[9.4949,4.0983],[9.4955,4.0688],[9.5292,4.0279],[9.5859,4.0081],[9.6232,4.0183],[9.6865,4.0712],[9.6907,4.0887],[9.704,4.0887],[9.7088,4.0736],[9.6437,4.0021],[9.628,3.9528],[9.6588,3.9402],[9.7618,3.9384],[9.6787,3.9191],[9.713,3.865],[9.7425,3.856],[9.7576,3.8199],[9.7058,3.8524],[9.6654,3.8356],[9.625,3.8668],[9.6076,3.8506],[9.5955,3.8091],[9.5461,3.8121],[9.6497,3.6414],[9.6443,3.5542],[9.872,3.3302],[9.8996,3.2742],[9.9639,3.2987],[10.027,3.3651],[10.051,3.4321],[10.0496,3.4924],[10.1202,3.5868],[10.1977,3.6128],[10.2511,3.5847],[10.2594,3.5581],[10.2711,3.5558],[10.3339,3.6031],[10.3676,3.7008],[10.3707,3.7686],[10.4076,3.8151],[10.4664,3.8356],[10.5603,3.7888],[10.5906,3.7463],[10.6116,3.7433],[10.6542,3.8006],[10.6612,3.9534],[10.702,4.0269],[10.7924,4.0738],[10.8266,4.0707],[11.0601,4.1547],[11.1197,4.2024],[11.1158,4.2339],[11.0127,4.325],[10.9635,4.3976],[10.9201,4.5209],[10.9253,4.6211],[10.8099,4.622],[10.7823,4.5196],[10.759,4.4912],[10.7428,4.4829],[10.7112,4.5293],[10.6814,4.4912],[10.6458,4.4811],[10.5971,4.4278],[10.4515,4.4951],[10.4054,4.4934],[10.3979,4.5459],[10.4905,4.6679],[10.5019,4.7208],[10.4967,4.744],[10.4716,4.7576],[10.3738,4.6963],[10.3567,4.7099],[10.3606,4.7335],[10.3725,4.7833],[10.4611,4.8336],[10.4987,4.8804],[10.5011,4.9116]]]}}]}