{"type":"FeatureCollection","features":[{"type":"Feature","properties":{"name":"Lomami","code":"28894549B21546057795066","iso":"COD"},"geometry":{"type":"Polygon","coordinates":[[[26.1439,-6.2617],[26.1686,-6.2381],[26.1806,-6.2022],[26.1353,-6.1],[26.175,-6.0169],[26.1619,-5.9011],[26.1735,-5.7958],[26.1593,-5.7624],[26.0972,-5.7137],[26.085,-5.6819],[26.0815,-5.5956],[26.1453,-5.505],[26.0797,-5.39],[26.1295,-5.3252],[26.1485,-5.2705],[26.207,-5.2191],[26.2051,-5.0885],[26.2523,-5.0446],[26.2783,-5],[25.0514,-4.9999],[25.0594,-4.9855],[25.0136,-4.9192],[25.0104,-4.879],[24.969,-4.8137],[24.8549,-4.8715],[24.8174,-4.8992],[24.7708,-4.9801],[24.6863,-5.0035],[24.6037,-5.1132],[24.5877,-5.1499],[24.5859,-5.234],[24.556,-5.4001],[24.4366,-5.4623],[24.3514,-5.4901],[24.2709,-5.4984],[24.0433,-5.4838],[24.0477,-5.5259],[24.0633,-5.5313],[24.0524,-5.61],[24.063,-5.6804],[24.1453,-5.7343],[24.1764,-5.7803],[24.1438,-5.8248],[24.0182,-5.8439],[23.9546,-5.8246],[23.9605,-5.8717],[23.9756,-5.9382],[24.0149,-5.9527],[23.9971,-6.0267],[24.0602,-6.0349],[24.0736,-6.0574],[24.1064,-6.047],[24.1244,-6.0677],[24.1587,-6.0657],[24.1756,-6.1065],[24.1395,-6.1299],[24.1075,-6.192],[24.081,-6.1893],[24.0588,-6.2084],[24.0076,-6.2179],[24.0001,-6.2895],[24.1,-6.3437],[24.071,-6.3823],[23.9476,-6.4168],[23.9382,-6.4063],[23.9114,-6.4116],[23.9098,-6.3913],[23.8571,-6.398],[23.8451,-6.3652],[23.8106,-6.3962],[23.8201,-6.4056],[23.7997,-6.3989],[23.7945,-6.4212],[23.8103,-6.4462],[23.77,-6.5144],[23.7911,-6.5287],[23.7744,-6.5496],[23.774,-6.5868],[23.7509,-6.5876],[23.7452,-6.6407],[23.7912,-6.6751],[23.7581,-6.6818],[23.7314,-6.7221],[23.7474,-6.7338],[23.7374,-6.7601],[23.7123,-6.7619],[23.6978,-6.7356],[23.6339,-6.752],[23.6271,-6.7818],[23.5914,-6.7767],[23.477,-6.6711],[23.4424,-6.658],[23.4188,-6.5897],[23.4532,-6.554],[23.4277,-6.532],[23.3938,-6.548],[23.3665,-6.5291],[23.3448,-6.5471],[23.3162,-6.54],[23.249,-6.5849],[23.1766,-6.5947],[23.1706,-6.5101],[23.1526,-6.4997],[23.1611,-6.4815],[23.1454,-6.4649],[23.1002,-6.5518],[23.0957,-6.6233],[23.0776,-6.6382],[23.0612,-6.7161],[23.0152,-6.787],[23.0433,-6.798],[23.064,-6.827],[23.0611,-6.8467],[23.0851,-6.8678],[23.125,-6.8788],[23.1412,-6.8688],[23.1442,-6.8919],[23.1632,-6.9108],[23.216,-6.9277],[23.244,-6.9158],[23.2862,-6.9194],[23.2711,-6.9377],[23.2805,-6.9394],[23.2767,-6.9769],[23.2532,-7.0102],[23.2684,-7.041],[23.2401,-7.0595],[23.2399,-7.1041],[23.2201,-7.1597],[23.2417,-7.1722],[23.2425,-7.2838],[23.2309,-7.3365],[23.2636,-7.3647],[23.2381,-7.4168],[23.2625,-7.4543],[23.2387,-7.4989],[23.2128,-7.5147],[23.2338,-7.5751],[23.2204,-7.5975],[23.2341,-7.6671],[23.1797,-7.8012],[23.1925,-7.8179],[23.1897,-7.8564],[23.1746,-7.8799],[23.1811,-7.9158],[23.2078,-7.9161],[23.2045,-7.9522],[23.2157,-7.9609],[23.2291,-7.9544],[23.2798,-7.9864],[23.3277,-7.9573],[23.3703,-7.9717],[23.3808,-7.9556],[23.4836,-7.9877],[23.5224,-7.98],[23.5467,-7.9528],[23.5916,-7.942],[23.6359,-7.9824],[23.6866,-7.997],[23.72,-7.9156],[23.738,-7.9429],[23.7578,-7.9448],[23.7591,-7.9661],[23.8173,-7.9532],[23.8168,-7.9676],[23.8393,-7.9605],[23.8704,-7.8962],[23.9372,-7.9154],[23.9551,-7.9033],[23.9662,-7.8886],[23.9532,-7.8673],[23.9691,-7.8138],[23.9221,-7.7185],[23.9364,-7.6906],[23.9257,-7.6825],[23.9354,-7.6756],[23.9281,-7.6429],[23.9419,-7.5986],[23.9255,-7.5703],[23.9387,-7.5568],[23.9317,-7.5281],[23.9531,-7.5156],[23.9684,-7.4761],[23.9804,-7.3901],[24.0128,-7.364],[23.9981,-7.3465],[23.9703,-7.3421],[23.9898,-7.262],[23.9679,-7.2363],[23.9628,-7.2068],[23.9849,-7.2006],[23.9873,-7.1844],[24.0141,-7.1642],[24.0689,-7.0671],[24.1227,-7.0682],[24.1297,-7.0464],[24.1459,-7.0481],[24.1507,-7.017],[24.1335,-6.9993],[24.1565,-6.9837],[24.1225,-6.9467],[24.1598,-6.9355],[24.1516,-6.9031],[24.1891,-6.9095],[24.209,-6.9291],[24.2315,-6.9736],[24.2192,-7.0104],[24.2346,-7.0188],[24.2697,-7.0138],[24.3467,-7.0581],[24.3828,-7.0597],[24.4012,-7.0476],[24.5168,-7.065],[24.5409,-7.0037],[24.5582,-7.0228],[24.6603,-7.0019],[24.6477,-6.9815],[24.6582,-6.9515],[24.6989,-6.9545],[24.7517,-6.8902],[24.7824,-6.8921],[24.827,-6.8396],[24.9119,-6.7864],[24.9061,-6.7214],[24.9497,-6.6658],[25.0581,-6.6581],[25.1942,-6.6881],[25.2778,-6.7506],[25.3036,-6.8172],[25.3269,-6.8144],[25.384,-6.793],[25.4462,-6.7442],[25.454,-6.7313],[25.4412,-6.7163],[25.4524,-6.7148],[25.4471,-6.6982],[25.4713,-6.6702],[25.4758,-6.6273],[25.4526,-6.59],[25.4177,-6.5699],[25.4151,-6.5521],[25.4042,-6.5579],[25.3857,-6.5401],[25.3783,-6.552],[25.3653,-6.5458],[25.323,-6.4893],[25.2865,-6.4677],[25.2694,-6.4337],[25.3033,-6.4246],[25.3097,-6.3864],[25.3706,-6.3806],[25.402,-6.3448],[25.4324,-6.3592],[25.447,-6.3328],[25.4637,-6.3284],[25.4907,-6.3413],[25.5209,-6.2976],[25.6862,-6.2802],[25.7036,-6.2449],[25.7176,-6.2494],[25.8111,-6.2123],[25.8334,-6.1866],[25.824,-6.1618],[25.8569,-6.1608],[25.9405,-6.2129],[25.9513,-6.225],[25.9475,-6.2922],[25.9667,-6.3081],[25.9914,-6.3033],[26.0358,-6.2603],[26.1439,-6.2617]]]}},{"type":"Feature","properties":{"name":"Lualaba","code":"28894549B83017556697567","iso":"COD"},"geometry":{"type":"Polygon","coordinates":[[[26.3342,-9.5964],[26.0922,-9.6596],[25.9807,-9.663],[25.7039,-9.4914],[25.6467,-9.5047],[25.5618,-9.453],[25.5218,-9.4566],[25.4926,-9.4944],[25.5211,-9.618],[25.5182,-9.6608],[25.5368,-9.7018],[25.5277,-9.7431],[25.3129,-9.8651],[25.0583,-9.9519],[24.9797,-10.0347],[24.9556,-10.0347],[24.8955,-9.9654],[24.8129,-9.9841],[24.7298,-9.9734],[24.646,-9.9939],[24.4785,-9.9707],[24.4155,-9.9934],[24.3958,-9.9797],[24.2698,-9.9575],[24.2287,-9.927],[24.1995,-9.9522],[24.1872,-9.9824],[24.1491,-10.0074],[24.146,-9.967],[24.063,-9.9282],[24.0214,-9.8894],[23.9963,-9.8266],[23.9959,-9.7849],[24.0854,-9.6608],[24.1204,-9.5346],[24.1477,-9.4929],[24.1658,-9.4095],[24.1552,-9.2844],[24.1869,-9.2571],[24.3544,-9.1966],[24.3548,-9.18],[24.2305,-8.9817],[24.1056,-8.9423],[24.0094,-8.8672],[23.8553,-8.7764],[23.6772,-8.7413],[23.6266,-8.6166],[23.6295,-8.5753],[23.671,-8.4904],[23.6757,-8.4067],[23.7153,-8.3247],[23.7215,-8.2834],[23.7182,-8.1173],[23.6866,-7.997],[23.6359,-7.9824],[23.5916,-7.942],[23.5467,-7.9528],[23.5224,-7.98],[23.4836,-7.9877],[23.457,-7.9726],[23.4188,-7.972],[23.4048,-7.9568],[23.3808,-7.9556],[23.3614,-7.9718],[23.3277,-7.9573],[23.2798,-7.9864],[23.2291,-7.9544],[23.2157,-7.9609],[23.2045,-7.9522],[23.2078,-7.9161],[23.1811,-7.9158],[23.1746,-7.8799],[23.1897,-7.8564],[23.1925,-7.8179],[23.1797,-7.8012],[23.1872,-7.7742],[23.1481,-7.7886],[23.103,-7.8373],[23.0711,-7.8957],[22.946,-7.8889],[22.8079,-7.9187],[22.7099,-7.9134],[22.6962,-7.8946],[22.6654,-7.8922],[22.6778,-7.8548],[22.6477,-7.8278],[22.6497,-7.795],[22.6397,-7.7867],[22.6539,-7.7757],[22.6118,-7.744],[22.5008,-7.7933],[22.4121,-7.7968],[22.2829,-7.8656],[22.1883,-7.8757],[22.1422,-7.8458],[22.0426,-7.722],[22.0369,-7.6894],[22.0051,-7.6852],[21.9968,-7.7055],[21.9615,-7.7099],[21.9485,-7.6835],[21.9366,-7.6946],[21.8789,-7.694],[21.8347,-7.6763],[21.8303,-7.6576],[21.8136,-7.6646],[21.8016,-7.7394],[21.7738,-7.7878],[21.7734,-7.803],[21.7859,-7.8068],[21.7756,-7.816],[21.7849,-7.8292],[21.7697,-7.8434],[21.7776,-7.9077],[21.7515,-7.94],[21.7696,-7.9697],[21.7638,-7.9999],[21.7763,-8.029],[21.8238,-8.0701],[21.8492,-8.143],[21.8836,-8.1763],[21.8725,-8.1938],[21.8927,-8.2912],[21.9269,-8.3081],[21.9327,-8.3274],[21.915,-8.3472],[21.9184,-8.394],[21.9492,-8.4405],[21.9534,-8.5049],[21.93,-8.526],[21.9443,-8.5405],[21.9426,-8.5599],[21.9256,-8.5671],[21.9202,-8.5912],[21.933,-8.5938],[21.9064,-8.6361],[21.9154,-8.6653],[21.8928,-8.7004],[21.8958,-8.7858],[21.8723,-8.8246],[21.8788,-8.8373],[21.8611,-8.8544],[21.8684,-8.8761],[21.8548,-8.9031],[21.8437,-9.0267],[21.8561,-9.044],[21.8353,-9.0605],[21.8342,-9.098],[21.8577,-9.1653],[21.8595,-9.2275],[21.8084,-9.3321],[21.8106,-9.3731],[21.7912,-9.4179],[21.831,-9.4566],[21.8316,-9.5072],[21.8657,-9.5611],[21.8743,-9.6503],[21.9367,-9.6869],[21.9354,-9.7072],[21.9682,-9.7267],[21.9776,-9.7613],[21.9978,-9.7499],[22.0136,-9.8212],[22.0396,-9.8301],[22.0691,-9.8749],[22.0935,-9.8818],[22.1112,-9.87],[22.1868,-9.9213],[22.2035,-9.9832],[22.1937,-9.9969],[22.2138,-10.0207],[22.2057,-10.0408],[22.2217,-10.0711],[22.2155,-10.1583],[22.2309,-10.1741],[22.2349,-10.2153],[22.2771,-10.261],[22.282,-10.3053],[22.3057,-10.3253],[22.3047,-10.3523],[22.3266,-10.3802],[22.2718,-10.5085],[22.3075,-10.5311],[22.3165,-10.5649],[22.3096,-10.6148],[22.32,-10.6362],[22.3073,-10.6654],[22.3283,-10.7068],[22.32,-10.7227],[22.3343,-10.7354],[22.3283,-10.7601],[22.3038,-10.7825],[22.2681,-10.785],[22.2231,-10.8091],[22.1669,-10.8661],[22.2048,-10.9354],[22.2157,-11.1097],[22.2489,-11.1343],[22.2685,-11.1782],[22.2499,-11.2641],[22.3115,-11.2362],[22.3448,-11.2013],[22.3462,-11.1824],[22.4347,-11.1783],[22.4503,-11.1678],[22.5024,-11.1119],[22.4888,-11.0643],[22.5089,-11.0395],[22.5777,-11.0281],[22.6183,-11.0395],[22.6334,-11.0706],[22.6948,-11.0937],[22.7099,-11.1133],[22.7733,-11.1184],[22.863,-11.0627],[22.9067,-11.0867],[23.0408,-11.0906],[23.0813,-11.1134],[23.1525,-11.0815],[23.1951,-11.1086],[23.2371,-11.0715],[23.2589,-11.0692],[23.2988,-11.0215],[23.3305,-11.0167],[23.4286,-10.9467],[23.514,-10.9407],[23.5971,-10.9863],[23.648,-10.9827],[23.6686,-11.0031],[23.7594,-10.9873],[23.8628,-11.0353],[23.8888,-11.0084],[23.895,-10.9794],[23.9217,-10.9571],[23.9451,-10.9551],[23.9732,-10.9059],[23.9999,-10.89],[24.0636,-10.8881],[24.1137,-10.9045],[24.1325,-10.9247],[24.1196,-10.9497],[24.1435,-10.9841],[24.1357,-10.9961],[24.148,-11.0406],[24.1628,-11.0435],[24.1861,-11.0206],[24.2448,-11.0507],[24.3018,-11.0414],[24.3912,-11.1013],[24.3771,-11.1736],[24.4018,-11.1999],[24.3945,-11.2257],[24.4099,-11.2378],[24.3975,-11.2507],[24.4016,-11.2646],[24.3581,-11.3532],[24.2796,-11.3883],[24.3107,-11.4094],[24.3455,-11.4139],[24.3645,-11.4006],[24.4199,-11.427],[24.4412,-11.4672],[24.5274,-11.4649],[24.5482,-11.4435],[24.5843,-11.4529],[24.5914,-11.4198],[24.6416,-11.4012],[24.694,-11.3331],[24.7388,-11.3312],[24.7286,-11.3164],[24.7505,-11.3031],[24.7945,-11.31],[24.8506,-11.2968],[24.8694,-11.2864],[24.8704,-11.2663],[24.9116,-11.2746],[24.9273,-11.2598],[24.9681,-11.2624],[25.0278,-11.245],[25.0627,-11.2597],[25.1184,-11.2547],[25.1456,-11.2373],[25.2376,-11.2263],[25.3022,-11.1917],[25.3537,-11.1969],[25.3354,-11.2494],[25.3164,-11.2599],[25.338,-11.2808],[25.292,-11.3059],[25.3156,-11.3272],[25.3135,-11.3469],[25.28,-11.3567],[25.2833,-11.397],[25.3022,-11.4135],[25.2948,-11.4277],[25.3059,-11.4333],[25.3084,-11.4877],[25.3321,-11.495],[25.3137,-11.5182],[25.3042,-11.5104],[25.2929,-11.5193],[25.3122,-11.534],[25.3063,-11.5651],[25.3306,-11.5804],[25.3392,-11.6339],[25.4365,-11.6825],[25.468,-11.6795],[25.4923,-11.7083],[25.667,-11.5391],[25.7726,-11.387],[25.7919,-11.3298],[25.7828,-11.2475],[25.8632,-11.1644],[25.8665,-11.1213],[25.8351,-11.0386],[25.8559,-11.0059],[25.9385,-10.9735],[25.9811,-10.9318],[26.0646,-10.95],[26.1061,-10.9443],[26.1894,-10.8795],[26.2492,-10.8701],[26.2765,-10.9122],[26.2496,-11.0786],[26.3145,-11.1824],[26.3567,-11.1637],[26.4171,-10.9128],[26.44,-10.8764],[26.5748,-10.8289],[26.5998,-10.7045],[26.6009,-10.6204],[26.6202,-10.5787],[26.5961,-10.496],[26.6063,-10.4745],[26.6872,-10.4536],[26.9815,-10.4882],[27.1024,-10.4529],[27.149,-10.4076],[27.15,-10.3695],[27.1049,-10.3282],[27.067,-10.3127],[27.0244,-10.2686],[26.9657,-10.2445],[26.969,-10.2035],[27.1059,-10.0352],[27.1055,-9.9939],[27.0658,-9.9228],[26.9842,-9.8905],[26.868,-9.9092],[26.8156,-9.9366],[26.7336,-9.8978],[26.5551,-9.8685],[26.3577,-9.8007],[26.3206,-9.7443],[26.3435,-9.6181],[26.3342,-9.5964]]]}},{"type":"Feature","properties":{"name":"Kinshasa","code":"28894549B68389240291046","iso":"COD"},"geometry":{"type":"Polygon","coordinates":[[[16.2618,-4.9926],[16.2536,-4.9793],[16.2662,-4.9586],[16.2693,-4.8953],[16.2588,-4.8588],[16.2403,-4.8532],[16.2606,-4.7453],[16.2956,-4.746],[16.3114,-4.7202],[16.3148,-4.6675],[16.3399,-4.6309],[16.3402,-4.5984],[16.3749,-4.5558],[16.3927,-4.4782],[16.4039,-4.4705],[16.4545,-4.497],[16.4841,-4.4951],[16.4992,-4.4802],[16.4987,-4.4332],[16.5164,-4.4102],[16.5107,-4.3913],[16.5341,-4.3562],[16.5185,-4.3343],[16.521,-4.3003],[16.4909,-4.2572],[16.4937,-4.2372],[16.4675,-4.2453],[16.4385,-4.2142],[16.4508,-4.1902],[16.4105,-4.1556],[16.266,-4.1014],[16.2436,-4.0669],[16.228,-4.0754],[16.2158,-4.0618],[16.2032,-4.0723],[16.1218,-4.0322],[16.0073,-4.0098],[15.9939,-3.9971],[15.9993,-3.9583],[15.9465,-3.9278],[15.919,-3.9531],[15.8947,-3.947],[15.8031,-3.9815],[15.6343,-4.01],[15.5512,-4.0432],[15.5169,-4.0782],[15.5001,-4.1542],[15.483,-4.1778],[15.4796,-4.229],[15.4317,-4.2749],[15.4038,-4.2854],[15.3283,-4.2691],[15.26,-4.3148],[15.1964,-4.3248],[15.1755,-4.3908],[15.1282,-4.4441],[15.1711,-4.4705],[15.1723,-4.532],[15.2205,-4.5399],[15.2649,-4.5742],[15.2729,-4.6107],[15.3152,-4.6243],[15.3323,-4.6461],[15.3784,-4.6373],[15.4084,-4.588],[15.4061,-4.5527],[15.4512,-4.525],[15.5138,-4.5625],[15.5396,-4.5598],[15.5956,-4.5887],[15.649,-4.5855],[15.6528,-4.6282],[15.637,-4.6613],[15.6627,-4.6821],[15.6874,-4.6833],[15.7031,-4.7232],[15.6964,-4.7644],[15.6776,-4.7736],[15.6673,-4.8106],[15.6381,-4.8462],[15.6418,-4.8997],[15.6558,-4.92],[15.6495,-4.9669],[15.7119,-4.9935],[15.7308,-5.0325],[15.8327,-5.0291],[15.8664,-4.9475],[15.8428,-4.8888],[15.8709,-4.8601],[15.9194,-4.9003],[15.9178,-4.9591],[15.9272,-4.9659],[15.9524,-4.9658],[15.9617,-4.9517],[16.0003,-4.9631],[16.0097,-4.984],[16.0264,-4.9887],[16.2618,-4.9926]]]}},{"type":"Feature","properties":{"name":"Kwilu","code":"28894549B48772399836497","iso":"COD"},"geometry":{"type":"Polygon","coordinates":[[[19.6848,-6.3458],[19.6935,-6.331],[19.683,-6.3089],[19.6987,-6.3021],[19.6844,-6.2831],[19.6889,-6.2564],[19.6738,-6.2423],[19.6912,-6.1647],[19.7323,-6.1388],[19.7364,-6.1205],[19.7632,-6.1212],[19.8057,-6.0903],[19.8254,-6.0591],[19.8711,-6.0437],[19.8766,-6.0191],[19.8929,-6.0326],[19.9149,-6.0128],[19.952,-6.0072],[20.015,-5.9558],[20.0492,-5.8678],[20.1108,-5.8399],[20.1177,-5.7982],[20.1499,-5.7768],[20.1654,-5.7493],[20.1637,-5.6996],[20.1781,-5.6969],[20.17,-5.668],[20.1807,-5.6318],[20.1402,-5.5802],[20.142,-5.5443],[20.1301,-5.5464],[20.1399,-5.5139],[20.1269,-5.4182],[20.1373,-5.3503],[20.1718,-5.322],[20.1699,-5.297],[20.1957,-5.2837],[20.1885,-5.2415],[20.1993,-5.2257],[20.1938,-5.1939],[20.2051,-5.1873],[20.189,-5.1721],[20.1842,-5.0934],[20.1413,-5.0391],[20.144,-5.0046],[20.1116,-4.9622],[20.1006,-4.872],[20.0738,-4.8052],[20.0535,-4.7875],[20.0613,-4.753],[20.0465,-4.745],[20.0606,-4.7245],[20.0543,-4.6871],[20.0684,-4.6728],[20.0589,-4.6592],[20.0676,-4.6371],[20.0548,-4.626],[20.0608,-4.5947],[20.1239,-4.5023],[20.0914,-4.4763],[20.0924,-4.4381],[20.0395,-4.3606],[20.0431,-4.3204],[20.0297,-4.3127],[20.0305,-4.2851],[19.9836,-4.2375],[19.9759,-4.2079],[19.9156,-4.1599],[19.7484,-4.1014],[19.7266,-4.0702],[19.5421,-4.0302],[19.4523,-3.9583],[19.2041,-3.8221],[19.1747,-3.8177],[19.1267,-3.7724],[19.0463,-3.7541],[18.9999,-3.7158],[18.9187,-3.6793],[18.8711,-3.6939],[18.7753,-3.6521],[18.7274,-3.6596],[18.7129,-3.6447],[18.7118,-3.6206],[18.6711,-3.6202],[18.6191,-3.5986],[18.5039,-3.6072],[18.4878,-3.5805],[18.4533,-3.5661],[18.3992,-3.5639],[18.3203,-3.4921],[18.2602,-3.4587],[18.2434,-3.4196],[18.1948,-3.4186],[18.1476,-3.4552],[18.1193,-3.4179],[18.0398,-3.3785],[17.9989,-3.3901],[17.9852,-3.3822],[17.9384,-3.4074],[17.8259,-3.4254],[17.8121,-3.3925],[17.7517,-3.3625],[17.718,-3.3234],[17.6837,-3.3349],[17.6274,-3.3017],[17.5754,-3.3078],[17.5112,-3.2585],[17.4363,-3.2431],[17.4241,-3.2204],[17.3769,-3.2209],[17.3791,-3.2613],[17.3627,-3.313],[17.339,-3.3352],[17.3563,-3.3859],[17.3282,-3.402],[17.3244,-3.4253],[17.2863,-3.4582],[17.2729,-3.4911],[17.2689,-3.5318],[17.296,-3.5467],[17.2931,-3.5784],[17.3266,-3.6158],[17.3279,-3.6788],[17.2736,-3.6974],[17.2594,-3.7711],[17.2323,-3.799],[17.2221,-3.8598],[17.2029,-3.892],[17.1569,-3.928],[17.1104,-3.9992],[17.0669,-3.9968],[17.0044,-3.9584],[16.9125,-3.9656],[16.8775,-4.0208],[16.8149,-4.0773],[16.7591,-4.0689],[16.695,-4.1083],[16.6752,-4.1393],[16.5907,-4.1352],[16.4972,-4.186],[16.4994,-4.2026],[16.4791,-4.2297],[16.4937,-4.2372],[16.4909,-4.2572],[16.521,-4.3003],[16.5185,-4.3343],[16.5341,-4.3562],[16.5107,-4.3913],[16.5164,-4.4102],[16.4987,-4.4332],[16.4992,-4.4802],[16.4841,-4.4951],[16.5798,-4.5308],[16.6195,-4.5757],[16.6596,-4.5965],[16.6727,-4.507],[16.6635,-4.465],[16.6799,-4.4265],[16.74,-4.3937],[16.7899,-4.3861],[16.8602,-4.3387],[16.8981,-4.3469],[16.98,-4.4126],[17.0194,-4.5006],[17.0595,-4.5398],[17.0995,-4.5405],[17.1654,-4.5059],[17.2193,-4.4315],[17.2597,-4.4332],[17.5813,-4.3155],[17.6199,-4.3115],[17.6668,-4.3474],[17.7923,-4.2921],[17.8043,-4.3236],[17.7634,-4.3477],[17.7622,-4.3668],[17.7418,-4.3829],[17.7044,-4.3908],[17.6867,-4.4408],[17.6723,-4.4554],[17.6621,-4.4463],[17.6702,-4.4679],[17.6427,-4.476],[17.6739,-4.4816],[17.692,-4.533],[17.6733,-4.5556],[17.6637,-4.5485],[17.635,-4.5712],[17.6344,-4.6292],[17.6083,-4.652],[17.6108,-4.6633],[17.5792,-4.6823],[17.5618,-4.7462],[17.5336,-4.7819],[17.5426,-4.79],[17.5328,-4.8153],[17.5427,-4.8231],[17.5272,-4.8292],[17.5271,-4.8542],[17.5158,-4.8546],[17.5213,-4.8642],[17.4905,-4.8939],[17.4961,-4.9361],[17.5132,-4.9405],[17.501,-5.0236],[17.5237,-5.0343],[17.5081,-5.08],[17.5398,-5.1201],[17.4992,-5.1929],[17.4831,-5.2006],[17.4859,-5.2209],[17.473,-5.2287],[17.4825,-5.2394],[17.4617,-5.2519],[17.4711,-5.3253],[17.4564,-5.3897],[17.4698,-5.4105],[17.4599,-5.43],[17.4794,-5.4473],[17.4626,-5.4812],[17.4799,-5.5155],[17.5096,-5.5273],[17.527,-5.5549],[17.5115,-5.5825],[17.5201,-5.6125],[17.5098,-5.6267],[17.5261,-5.6462],[17.517,-5.6738],[17.5356,-5.7128],[17.5922,-5.7092],[17.6168,-5.7355],[17.6472,-5.7289],[17.6796,-5.6956],[17.7356,-5.7205],[17.7998,-5.7177],[17.8327,-5.6386],[17.8972,-5.6386],[17.9442,-5.6786],[17.9578,-5.7205],[17.9786,-5.7226],[18.0244,-5.6985],[18.0336,-5.7328],[18.0649,-5.7299],[18.079,-5.766],[18.1213,-5.7828],[18.0906,-5.806],[18.0879,-5.8286],[18.1161,-5.8137],[18.1319,-5.8188],[18.117,-5.832],[18.12,-5.8546],[18.0843,-5.8722],[18.1078,-5.8714],[18.1484,-5.8989],[18.1809,-5.8864],[18.175,-5.8489],[18.2063,-5.7826],[18.2289,-5.813],[18.2332,-5.8578],[18.254,-5.8416],[18.2669,-5.8725],[18.2874,-5.8733],[18.3011,-5.831],[18.3379,-5.836],[18.3479,-5.8144],[18.3812,-5.8024],[18.3928,-5.7838],[18.403,-5.8093],[18.4392,-5.8223],[18.4752,-5.8636],[18.5085,-5.8616],[18.5256,-5.88],[18.5374,-5.8584],[18.5694,-5.8466],[18.5628,-5.8874],[18.5425,-5.9155],[18.5467,-5.9762],[18.5273,-5.9885],[18.5501,-5.9866],[18.5674,-6.011],[18.6497,-5.983],[18.7042,-5.9879],[18.6912,-6.0257],[18.7446,-6.1371],[18.8202,-6.0978],[18.8161,-6.1276],[18.8394,-6.1424],[18.8629,-6.1172],[18.8574,-6.1886],[18.8223,-6.1721],[18.8205,-6.1944],[18.8466,-6.2185],[18.8501,-6.2422],[18.9077,-6.2175],[18.9185,-6.2242],[18.9341,-6.255],[18.933,-6.3168],[18.9576,-6.3107],[18.9834,-6.2809],[19.0124,-6.2791],[19.0131,-6.2612],[19.0401,-6.2687],[19.0717,-6.2242],[19.1073,-6.1996],[19.1254,-6.2152],[19.1596,-6.2084],[19.179,-6.2181],[19.179,-6.1773],[19.2033,-6.1592],[19.1848,-6.1293],[19.1971,-6.0973],[19.2885,-6.1392],[19.326,-6.1209],[19.3757,-6.1326],[19.3639,-6.1736],[19.3161,-6.1962],[19.2758,-6.2595],[19.324,-6.3832],[19.3814,-6.4011],[19.4016,-6.3492],[19.395,-6.3069],[19.4239,-6.2802],[19.4653,-6.3049],[19.4819,-6.2931],[19.4999,-6.3335],[19.5914,-6.3655],[19.6848,-6.3458]]]}},{"type":"Feature","properties":{"name":"Mai-Ndombe","code":"28894549B55201873792787","iso":"COD"},"geometry":{"type":"Polygon","coordinates":[[[19.46,-1.5678],[19.3672,-1.4347],[19.3117,-1.2703],[19.2131,-1.1889],[19.0836,-0.9956],[19.0617,-0.8442],[19.0211,-0.7564],[18.9869,-0.7353],[18.9347,-0.8353],[18.8192,-0.8956],[18.795,-0.9306],[18.7972,-1.0217],[18.8806,-1.1306],[18.8711,-1.1592],[18.81,-1.23],[18.7689,-1.2389],[18.6867,-1.2325],[18.5806,-1.265],[18.51,-1.2656],[18.4264,-1.2264],[18.3606,-1.1572],[18.1481,-1.1286],[18.1111,-1.21],[18.0719,-1.2581],[17.9308,-1.375],[17.765,-1.4217],[17.68,-1.4753],[17.5347,-1.5189],[17.1703,-1.7333],[17.0772,-1.81],[17.0222,-1.8225],[16.8186,-1.7894],[16.8125,-1.8342],[16.8806,-1.8669],[16.8975,-1.8908],[16.9008,-2.0006],[16.6233,-2.0006],[16.5803,-1.9225],[16.5281,-1.8622],[16.4412,-1.96],[16.4021,-1.9848],[16.3774,-2.027],[16.2656,-2.0936],[16.1936,-2.1806],[16.1747,-2.3447],[16.2372,-2.6422],[16.2081,-2.7236],[16.1799,-2.8915],[16.1919,-3.0106],[16.1715,-3.1179],[16.1869,-3.1921],[16.1813,-3.2565],[16.2134,-3.2872],[16.2134,-3.3055],[16.1924,-3.372],[16.1244,-3.4719],[16.0915,-3.5566],[16.0546,-3.5999],[15.9996,-3.7249],[15.9677,-3.7687],[15.8947,-3.947],[15.919,-3.9531],[15.9465,-3.9278],[15.9993,-3.9583],[15.9939,-3.9971],[16.0073,-4.0098],[16.1218,-4.0322],[16.2032,-4.0723],[16.2158,-4.0618],[16.228,-4.0754],[16.2436,-4.0669],[16.266,-4.1014],[16.4105,-4.1556],[16.4508,-4.1902],[16.4385,-4.2142],[16.4675,-4.2453],[16.4824,-4.244],[16.4972,-4.186],[16.5371,-4.1733],[16.5649,-4.1444],[16.6165,-4.1293],[16.6752,-4.1393],[16.695,-4.1083],[16.7591,-4.0689],[16.8149,-4.0773],[16.8775,-4.0208],[16.9125,-3.9656],[17.0044,-3.9584],[17.0669,-3.9968],[17.1158,-3.997],[17.1569,-3.928],[17.1878,-3.9125],[17.2183,-3.8673],[17.2323,-3.799],[17.2594,-3.7711],[17.2736,-3.6974],[17.3279,-3.6788],[17.3266,-3.6158],[17.2931,-3.5784],[17.296,-3.5467],[17.2689,-3.5318],[17.2729,-3.4911],[17.2863,-3.4582],[17.3244,-3.4253],[17.3282,-3.402],[17.3563,-3.3859],[17.339,-3.3352],[17.3627,-3.313],[17.3791,-3.2613],[17.3769,-3.2209],[17.4241,-3.2204],[17.4363,-3.2431],[17.5112,-3.2585],[17.5754,-3.3078],[17.6274,-3.3017],[17.6837,-3.3349],[17.718,-3.3234],[17.7517,-3.3625],[17.8121,-3.3925],[17.8259,-3.4254],[17.9384,-3.4074],[17.9852,-3.3822],[17.9989,-3.3901],[18.0398,-3.3785],[18.1193,-3.4179],[18.1476,-3.4552],[18.1948,-3.4186],[18.2434,-3.4196],[18.2602,-3.4587],[18.3203,-3.4921],[18.3817,-3.5534],[18.4878,-3.5805],[18.5039,-3.6072],[18.6191,-3.5986],[18.6711,-3.6202],[18.7118,-3.6206],[18.7129,-3.6447],[18.7274,-3.6596],[18.7753,-3.6521],[18.8711,-3.6939],[18.9187,-3.6793],[18.9999,-3.7158],[19.0463,-3.7541],[19.1267,-3.7724],[19.1747,-3.8177],[19.2041,-3.8221],[19.4523,-3.9583],[19.4796,-3.9889],[19.5648,-4.0412],[19.7266,-4.0702],[19.7484,-4.1014],[19.9156,-4.1599],[19.9759,-4.2079],[19.9836,-4.2375],[20.0305,-4.2851],[20.1378,-4.2838],[20.1683,-4.3379],[20.2053,-4.329],[20.2409,-4.3788],[20.333,-4.3769],[20.3502,-4.3624],[20.3557,-4.3105],[20.3867,-4.2854],[20.4337,-4.2937],[20.4531,-4.2545],[20.4686,-4.269],[20.5082,-4.2627],[20.5995,-4.2204],[20.6345,-4.1582],[20.6751,-4.133],[20.6631,-3.7136],[20.6419,-3.5344],[20.6472,-3.3928],[20.7445,-2.7663],[20.8413,-2.6229],[20.8622,-2.5682],[20.922,-2.5688],[20.9727,-2.5557],[21.0053,-2.5326],[21.0009,-2.3571],[20.9756,-2.3195],[20.9273,-2.3154],[20.912,-2.2984],[20.8967,-2.149],[20.796,-2.0325],[20.6583,-2.079],[20.4399,-2.2072],[20.3799,-2.2119],[20.2884,-2.145],[20.1856,-1.9472],[20.0031,-1.9492],[19.9058,-1.9284],[19.8489,-1.8095],[19.8153,-1.7053],[19.7367,-1.6533],[19.6831,-1.6903],[19.6017,-1.7983],[19.5728,-1.8039],[19.5144,-1.7883],[19.4878,-1.6347],[19.46,-1.5678]]]}}]}