{"type":"FeatureCollection","features":[{"type":"Feature","properties":{"name":"Moheli","code":"22816118B12510721755829","iso":"COM"},"geometry":{"type":"MultiPolygon","coordinates":[[[[43.7001,-12.3941],[43.7092,-12.4195],[43.7149,-12.395],[43.7001,-12.3941]]],[[[43.6225,-12.2856],[43.6326,-12.3221],[43.652,-12.3211],[43.6672,-12.338],[43.6578,-12.3592],[43.7143,-12.3587],[43.7211,-12.3703],[43.7204,-12.3593],[43.7356,-12.361],[43.7435,-12.3715],[43.7523,-12.3582],[43.7781,-12.3811],[43.7835,-12.3685],[43.8699,-12.3896],[43.8591,-12.3468],[43.8005,-12.3209],[43.734,-12.2715],[43.6566,-12.2489],[43.6263,-12.2625],[43.6225,-12.2856]]],[[[43.6642,-12.4007],[43.6716,-12.4225],[43.6751,-12.3947],[43.6642,-12.4007]]]]}},{"type":"Feature","properties":{"name":"Anjouan","code":"22816118B92166148047088","iso":"COM"},"geometry":{"type":"Polygon","coordinates":[[[44.2048,-12.1689],[44.3198,-12.2393],[44.3842,-12.2534],[44.404,-12.2842],[44.4882,-12.348],[44.491,-12.3766],[44.5275,-12.3812],[44.5376,-12.3488],[44.5241,-12.2839],[44.5406,-12.2606],[44.5306,-12.2585],[44.5179,-12.1879],[44.4855,-12.1148],[44.4922,-12.0971],[44.4729,-12.0709],[44.4209,-12.0921],[44.4342,-12.1203],[44.4194,-12.1525],[44.3753,-12.1834],[44.3077,-12.1971],[44.2881,-12.183],[44.2048,-12.1689]]]}},{"type":"Feature","properties":{"name":"Grande Comore","code":"22816118B95538827312271","iso":"COM"},"geometry":{"type":"Polygon","coordinates":[[[43.2287,-11.7354],[43.2396,-11.7804],[43.2622,-11.7973],[43.2882,-11.8468],[43.3848,-11.8628],[43.3974,-11.8883],[43.4573,-11.9382],[43.4882,-11.9313],[43.5144,-11.8998],[43.4524,-11.7861],[43.4551,-11.7483],[43.4348,-11.6972],[43.3961,-11.6494],[43.3913,-11.6122],[43.408,-11.5152],[43.3987,-11.4883],[43.4166,-11.4359],[43.3934,-11.3749],[43.3421,-11.3656],[43.2778,-11.3988],[43.2639,-11.451],[43.2781,-11.5027],[43.2601,-11.601],[43.2665,-11.6732],[43.2287,-11.7354]]]}}]}