{"type":"FeatureCollection","features":[{"type":"Feature","properties":{"name":"Boa Vista","code":"35879248B70460974689380","iso":"CPV"},"geometry":{"type":"Polygon","coordinates":[[[-22.966,16.0425],[-22.9496,16.0133],[-22.8958,15.9947],[-22.881,15.9753],[-22.7946,15.9678],[-22.7821,15.9904],[-22.6816,16.0504],[-22.6675,16.0857],[-22.6731,16.1456],[-22.7051,16.1763],[-22.7163,16.2065],[-22.7895,16.2302],[-22.8092,16.2083],[-22.8673,16.203],[-22.9137,16.2305],[-22.9106,16.2003],[-22.9253,16.1779],[-22.9072,16.1557],[-22.907,16.1249],[-22.9564,16.0865],[-22.966,16.0425]]]}},{"type":"Feature","properties":{"name":"Brava","code":"35879248B86099575470036","iso":"CPV"},"geometry":{"type":"MultiPolygon","coordinates":[[[[-24.7461,14.854],[-24.7473,14.8337],[-24.7025,14.8034],[-24.6633,14.8416],[-24.6812,14.9006],[-24.7367,14.8827],[-24.7323,14.8701],[-24.7459,14.8667],[-24.7461,14.854]]],[[[-24.6971,14.9643],[-24.6838,14.9639],[-24.6816,14.9765],[-24.6971,14.9643]]]]}},{"type":"Feature","properties":{"name":"Maio","code":"35879248B49116351933928","iso":"CPV"},"geometry":{"type":"Polygon","coordinates":[[[-23.2343,15.1634],[-23.2057,15.1263],[-23.1661,15.1168],[-23.1007,15.1516],[-23.0892,15.1961],[-23.1151,15.3138],[-23.1425,15.3096],[-23.1602,15.3325],[-23.1751,15.3222],[-23.1798,15.3378],[-23.1837,15.3131],[-23.2008,15.3133],[-23.2007,15.2949],[-23.2304,15.2665],[-23.2157,15.231],[-23.2343,15.1634]]]}},{"type":"Feature","properties":{"name":"Sal","code":"35879248B31219630131339","iso":"CPV"},"geometry":{"type":"Polygon","coordinates":[[[-22.9943,16.794],[-22.9894,16.7587],[-22.9779,16.7524],[-22.9875,16.7315],[-22.9762,16.7119],[-22.9899,16.6997],[-22.9393,16.688],[-22.949,16.6528],[-22.9259,16.5863],[-22.9078,16.5971],[-22.8869,16.5917],[-22.9004,16.6324],[-22.8724,16.6696],[-22.8992,16.733],[-22.895,16.7611],[-22.8792,16.7713],[-22.9028,16.8055],[-22.8892,16.8339],[-22.9189,16.855],[-22.9512,16.8447],[-22.9859,16.8252],[-22.9943,16.794]]]}},{"type":"Feature","properties":{"name":"São Vicente","code":"35879248B41743840760019","iso":"CPV"},"geometry":{"type":"Polygon","coordinates":[[[-25.086,16.8269],[-24.9752,16.7778],[-24.8636,16.8148],[-24.8594,16.8595],[-24.9123,16.8797],[-24.9039,16.9084],[-24.9156,16.9212],[-24.9327,16.9213],[-24.9457,16.9051],[-24.9662,16.9139],[-24.962,16.9223],[-24.999,16.9064],[-24.9958,16.878],[-25.0526,16.8836],[-25.056,16.8661],[-25.0846,16.8456],[-25.086,16.8269]]]}},{"type":"Feature","properties":{"name":"Ribeira Brava","code":"35879248B49995424745322","iso":"CPV"},"geometry":{"type":"Polygon","coordinates":[[[-24.358,16.6692],[-24.3547,16.6205],[-24.3293,16.6191],[-24.3032,16.5781],[-24.3153,16.4792],[-24.2814,16.561],[-24.2324,16.5932],[-24.1674,16.5915],[-24.1085,16.5518],[-24.0531,16.5578],[-24.0245,16.5488],[-24.0089,16.5658],[-24.063,16.6093],[-24.1266,16.6212],[-24.1606,16.6147],[-24.2152,16.6462],[-24.2757,16.6303],[-24.3347,16.679],[-24.358,16.6692]]]}},{"type":"Feature","properties":{"name":"Tarrafal de São Nicolau","code":"35879248B27983455382142","iso":"CPV"},"geometry":{"type":"MultiPolygon","coordinates":[[[[-24.358,16.6692],[-24.4199,16.655],[-24.4258,16.6136],[-24.3632,16.5763],[-24.3314,16.5169],[-24.327,16.4818],[-24.3033,16.5388],[-24.3032,16.5781],[-24.3293,16.6191],[-24.3547,16.6205],[-24.358,16.6692]]],[[[-24.6032,16.6201],[-24.5844,16.6072],[-24.5724,16.6208],[-24.5828,16.6299],[-24.6032,16.6201]]],[[[-24.6837,16.6671],[-24.6696,16.6515],[-24.6664,16.6495],[-24.6619,16.6495],[-24.6561,16.6457],[-24.6558,16.6472],[-24.6647,16.6602],[-24.679,16.6712],[-24.6817,16.6707],[-24.6837,16.6671]]],[[[-24.7906,16.7839],[-24.7429,16.7361],[-24.6903,16.7392],[-24.6821,16.7505],[-24.7225,16.7541],[-24.7486,16.795],[-24.7751,16.8061],[-24.7906,16.7839]]]]}},{"type":"Feature","properties":{"name":"Porto Novo","code":"35879248B16121613622578","iso":"CPV"},"geometry":{"type":"Polygon","coordinates":[[[-25.2316,17.1292],[-25.3349,17.0953],[-25.3607,17.0543],[-25.3502,17.026],[-25.3217,17.0081],[-25.3106,16.9547],[-25.3185,16.9314],[-25.2975,16.9074],[-25.2639,16.922],[-25.2075,16.908],[-25.1802,16.9192],[-25.0848,17.0136],[-25.043,17.021],[-24.982,17.0668],[-25.0397,17.1044],[-25.1385,17.0936],[-25.1837,17.0729],[-25.184,17.0883],[-25.2316,17.1292]]]}},{"type":"Feature","properties":{"name":"Ribeira Grande","code":"35879248B32096079392942","iso":"CPV"},"geometry":{"type":"Polygon","coordinates":[[[-25.0638,17.1036],[-25.053,17.1337],[-25.0163,17.1704],[-25.0891,17.2045],[-25.1778,17.1601],[-25.1999,17.1618],[-25.2316,17.1292],[-25.184,17.0883],[-25.1837,17.0729],[-25.1385,17.0936],[-25.1149,17.0887],[-25.0638,17.1036]]]}},{"type":"Feature","properties":{"name":"Paul","code":"35879248B70239090782327","iso":"CPV"},"geometry":{"type":"Polygon","coordinates":[[[-24.982,17.0668],[-24.9633,17.0886],[-24.9662,17.1135],[-25.0005,17.1286],[-25.0166,17.1632],[-25.053,17.1337],[-25.0667,17.1054],[-25.0131,17.0941],[-24.982,17.0668]]]}},{"type":"Feature","properties":{"name":"Mosteiros","code":"35879248B60508126620075","iso":"CPV"},"geometry":{"type":"Polygon","coordinates":[[[-24.4023,15.0282],[-24.342,14.9506],[-24.2893,14.9529],[-24.2931,14.9949],[-24.3135,15.0327],[-24.3692,15.0516],[-24.4023,15.0282]]]}},{"type":"Feature","properties":{"name":"Santa Catarina do Fogo","code":"35879248B48710154896989","iso":"CPV"},"geometry":{"type":"Polygon","coordinates":[[[-24.3685,14.9922],[-24.3954,14.9437],[-24.3854,14.9251],[-24.3613,14.9177],[-24.3908,14.8144],[-24.3685,14.8123],[-24.3085,14.8389],[-24.2776,14.8861],[-24.2893,14.9529],[-24.342,14.9506],[-24.3685,14.9922]]]}},{"type":"Feature","properties":{"name":"São Filipe","code":"35879248B42709825939270","iso":"CPV"},"geometry":{"type":"Polygon","coordinates":[[[-24.4023,15.0282],[-24.4338,15.0221],[-24.4861,14.9791],[-24.5041,14.9208],[-24.4969,14.8821],[-24.3993,14.8138],[-24.3853,14.8263],[-24.3613,14.9177],[-24.3931,14.9373],[-24.3934,14.9584],[-24.3685,14.9922],[-24.4023,15.0282]]]}},{"type":"Feature","properties":{"name":"São Miguel","code":"35879248B58765438888265","iso":"CPV"},"geometry":{"type":"Polygon","coordinates":[[[-23.6904,15.1928],[-23.683,15.1748],[-23.6695,15.1796],[-23.6487,15.1569],[-23.6563,15.1316],[-23.5819,15.1786],[-23.6149,15.2279],[-23.6555,15.2484],[-23.6904,15.1928]]]}},{"type":"Feature","properties":{"name":"Tarrafal","code":"35879248B2594883865860","iso":"CPV"},"geometry":{"type":"Polygon","coordinates":[[[-23.6559,15.2467],[-23.6871,15.2664],[-23.6917,15.3021],[-23.6817,15.3117],[-23.6947,15.3302],[-23.7575,15.3328],[-23.7604,15.3056],[-23.7743,15.2994],[-23.7525,15.2827],[-23.7566,15.2587],[-23.7401,15.2442],[-23.7568,15.1987],[-23.7244,15.1927],[-23.7129,15.2047],[-23.6904,15.1928],[-23.6559,15.2467]]]}},{"type":"Feature","properties":{"name":"Santa Catarina","code":"35879248B65851114160010","iso":"CPV"},"geometry":{"type":"Polygon","coordinates":[[[-23.6904,15.1928],[-23.7129,15.2047],[-23.7244,15.1927],[-23.735,15.2006],[-23.7635,15.1916],[-23.7599,15.137],[-23.7816,15.0719],[-23.7496,15.0313],[-23.74,15.0355],[-23.7164,15.0143],[-23.7282,14.99],[-23.7079,14.9734],[-23.6813,15.0356],[-23.6548,15.0574],[-23.6534,15.1023],[-23.6137,15.1335],[-23.6166,15.1545],[-23.6563,15.1316],[-23.6487,15.1569],[-23.6695,15.1796],[-23.683,15.1748],[-23.6904,15.1928]]]}},{"type":"Feature","properties":{"name":"Santa Cruz","code":"35879248B13195842681213","iso":"CPV"},"geometry":{"type":"Polygon","coordinates":[[[-23.6166,15.1545],[-23.6242,15.1184],[-23.5924,15.1101],[-23.6001,15.1038],[-23.5842,15.0865],[-23.5611,15.0943],[-23.5391,15.0515],[-23.5009,15.0515],[-23.4857,15.088],[-23.5023,15.1252],[-23.5277,15.133],[-23.5316,15.1505],[-23.5715,15.1591],[-23.576,15.1776],[-23.6166,15.1545]]]}},{"type":"Feature","properties":{"name":"São Salvador do Mundo","code":"35879248B8506465148242","iso":"CPV"},"geometry":{"type":"Polygon","coordinates":[[[-23.653,15.063],[-23.6179,15.069],[-23.6111,15.0961],[-23.5924,15.1101],[-23.6242,15.1184],[-23.6534,15.1023],[-23.653,15.063]]]}},{"type":"Feature","properties":{"name":"São Lourenço dos Órgãos","code":"35879248B32254847060203","iso":"CPV"},"geometry":{"type":"Polygon","coordinates":[[[-23.6001,15.1038],[-23.6367,15.0581],[-23.6253,15.0368],[-23.5874,15.042],[-23.5547,15.0693],[-23.5611,15.0943],[-23.5842,15.0865],[-23.6001,15.1038]]]}},{"type":"Feature","properties":{"name":"São Domingos","code":"35879248B61929302069698","iso":"CPV"},"geometry":{"type":"Polygon","coordinates":[[[-23.5547,15.0693],[-23.5874,15.042],[-23.6253,15.0368],[-23.6172,14.9897],[-23.586,14.9806],[-23.5158,14.9968],[-23.4602,14.9723],[-23.4309,14.9847],[-23.4428,15.042],[-23.4538,15.0367],[-23.4474,15.0475],[-23.4734,15.062],[-23.4857,15.088],[-23.5096,15.0474],[-23.5391,15.0515],[-23.5547,15.0693]]]}},{"type":"Feature","properties":{"name":"Praia","code":"35879248B53857372811673","iso":"CPV"},"geometry":{"type":"Polygon","coordinates":[[[-23.586,14.9806],[-23.5461,14.9043],[-23.5092,14.9002],[-23.5035,14.9182],[-23.4819,14.9058],[-23.4691,14.9541],[-23.4548,14.963],[-23.5158,14.9968],[-23.586,14.9806]]]}},{"type":"Feature","properties":{"name":"Ribeira Grande de Santiago","code":"35879248B5815864302343","iso":"CPV"},"geometry":{"type":"Polygon","coordinates":[[[-23.7079,14.9734],[-23.6254,14.9106],[-23.5471,14.9048],[-23.586,14.9806],[-23.6216,14.9946],[-23.6183,15.0276],[-23.6367,15.0581],[-23.653,15.063],[-23.6813,15.0356],[-23.7079,14.9734]]]}}]}