{"type":"FeatureCollection","features":[{"type":"Feature","properties":{"name":"Anseba Region","code":"12472421B94455277260743","iso":"ERI"},"geometry":{"type":"Polygon","coordinates":[[[38.0414,17.5456],[37.9683,17.5014],[37.9172,17.4475],[37.8697,17.445],[37.8408,17.4786],[37.8189,17.4814],[37.7875,17.4653],[37.7358,17.3767],[37.5942,17.3517],[37.5021,17.3164],[37.5016,17.2927],[37.5216,17.2745],[37.4977,17.2547],[37.4927,17.2229],[37.506,17.2011],[37.4858,17.1904],[37.4586,17.139],[37.4619,17.1221],[37.4113,17.0869],[37.3958,17.0547],[37.3069,17.0611],[37.2522,17.025],[37.1903,17.0314],[37.1519,17.0156],[37.1044,17.0511],[37.0533,17.0553],[37.0261,17.0772],[36.9958,17.0739],[36.9917,17.0528],[37.0181,17.0036],[36.9869,16.9431],[37.0133,16.9136],[37.0089,16.87],[37.0228,16.8506],[36.9806,16.7061],[36.9317,16.6714],[36.9122,16.6411],[36.9203,16.5992],[36.8964,16.5178],[36.9061,16.4867],[36.9569,16.4253],[36.9503,16.3475],[36.9722,16.2942],[37.0248,16.295],[37.0738,16.2745],[37.2629,16.114],[37.2545,16.052],[37.3558,16.0074],[37.4152,15.9429],[37.4933,15.8932],[37.6055,15.8758],[37.6481,15.8932],[37.6901,15.8814],[37.9256,15.8771],[38.0166,15.8231],[38.0398,15.7604],[38.1275,15.7995],[38.1637,15.7647],[38.1714,15.7206],[38.1456,15.6939],[38.1411,15.6591],[38.1675,15.6492],[38.2921,15.6691],[38.4044,15.5976],[38.4986,15.5622],[38.6204,15.6222],[38.7169,15.6191],[38.7281,15.5411],[38.7469,15.5306],[38.8032,15.5641],[38.8395,15.5693],[38.8442,15.5898],[38.8738,15.6013],[38.8684,15.6666],[38.8451,15.7215],[38.8519,15.7553],[38.8291,15.8672],[38.7551,15.892],[38.7215,15.8778],[38.6685,15.8962],[38.5572,15.9041],[38.4906,15.9734],[38.4523,15.9866],[38.4066,16.0401],[38.4148,16.0953],[38.4641,16.1988],[38.4641,16.2592],[38.4349,16.3161],[38.3482,16.3556],[38.3199,16.4413],[38.2926,16.4571],[38.2506,16.4475],[38.2159,16.4903],[38.2223,16.5962],[38.1895,16.6443],[38.0498,16.6889],[38.0325,16.6793],[37.9577,16.6959],[37.965,16.7745],[38.006,16.9108],[37.9805,16.9457],[37.9668,17.0268],[38.0298,17.1097],[38.0525,17.2634],[38.0289,17.4309],[38.0493,17.5008],[38.0414,17.5456]]]}},{"type":"Feature","properties":{"name":"Gash-Barka Region","code":"12472421B57032757115732","iso":"ERI"},"geometry":{"type":"Polygon","coordinates":[[[36.9722,16.2942],[36.9714,16.2642],[36.9158,16.215],[36.7636,15.8081],[36.6978,15.7531],[36.6261,15.4894],[36.6478,15.4497],[36.6106,15.4372],[36.5343,15.2293],[36.5027,15.2242],[36.4334,15.1674],[36.5417,14.2781],[36.5603,14.2574],[36.5556,14.2838],[36.5899,14.2859],[36.6334,14.3135],[36.6908,14.3005],[36.7438,14.3225],[36.8276,14.3185],[36.8339,14.309],[36.8686,14.3213],[36.9715,14.2927],[37.0197,14.2521],[37.0408,14.2669],[37.0981,14.2742],[37.105,14.3466],[37.1355,14.4096],[37.1861,14.4199],[37.2224,14.444],[37.2464,14.4351],[37.3091,14.4479],[37.3502,14.4153],[37.3721,14.3735],[37.3927,14.3655],[37.3803,14.3454],[37.4036,14.3358],[37.3946,14.3011],[37.4476,14.2526],[37.469,14.2543],[37.4663,14.2173],[37.4958,14.1971],[37.4963,14.184],[37.523,14.1821],[37.9129,14.8945],[37.9447,14.8614],[37.9496,14.8391],[37.9665,14.8326],[37.9689,14.8017],[37.9848,14.8101],[37.9898,14.7776],[38.0167,14.767],[38.0169,14.7422],[38.0446,14.7202],[38.0918,14.7167],[38.1433,14.6755],[38.1874,14.6786],[38.1922,14.6949],[38.2357,14.6912],[38.2615,14.6741],[38.295,14.7036],[38.317,14.6906],[38.3439,14.6952],[38.4003,14.7884],[38.4007,14.8186],[38.3002,14.8805],[38.3018,14.9191],[38.373,14.9826],[38.4513,15.0162],[38.4561,15.0892],[38.3928,15.1774],[38.4019,15.1977],[38.5265,15.1816],[38.5514,15.2114],[38.5874,15.192],[38.6238,15.1904],[38.6961,15.2164],[38.6813,15.2589],[38.7402,15.3183],[38.7415,15.4115],[38.7623,15.4617],[38.7469,15.5306],[38.7281,15.5411],[38.7169,15.6191],[38.6204,15.6222],[38.4986,15.5622],[38.4044,15.5976],[38.2921,15.6691],[38.1675,15.6492],[38.1411,15.6591],[38.1456,15.6939],[38.1714,15.7206],[38.1637,15.7647],[38.1275,15.7995],[38.0398,15.7604],[38.0166,15.8231],[37.9256,15.8771],[37.6901,15.8814],[37.6481,15.8932],[37.6055,15.8758],[37.4933,15.8932],[37.4152,15.9429],[37.3558,16.0074],[37.2545,16.052],[37.2629,16.114],[37.0738,16.2745],[37.0248,16.295],[36.9722,16.2942]]]}},{"type":"Feature","properties":{"name":"Debub Region","code":"12472421B98039697407970","iso":"ERI"},"geometry":{"type":"Polygon","coordinates":[[[38.2615,14.6741],[38.2694,14.6183],[38.2899,14.615],[38.3128,14.5897],[38.3203,14.5537],[38.3672,14.4904],[38.3981,14.488],[38.4017,14.4699],[38.4245,14.4695],[38.4314,14.4347],[38.451,14.4145],[38.4852,14.4246],[38.5209,14.4073],[38.5727,14.4363],[38.6471,14.4427],[38.7049,14.4709],[38.7975,14.4669],[38.8507,14.4999],[38.9007,14.5049],[38.9292,14.5371],[38.9809,14.5475],[39.0172,14.5962],[39.0216,14.6329],[39.098,14.6352],[39.1537,14.6532],[39.1685,14.6492],[39.1574,14.6083],[39.2053,14.5653],[39.241,14.5632],[39.2616,14.5155],[39.2668,14.485],[39.2278,14.4502],[39.2545,14.4101],[39.3013,14.4699],[39.3464,14.4663],[39.3286,14.4939],[39.36,14.4833],[39.3579,14.5275],[39.3731,14.5395],[39.3977,14.5434],[39.4192,14.5136],[39.4894,14.5052],[39.4959,14.4841],[39.538,14.4914],[39.5067,14.5222],[39.5094,14.552],[39.5323,14.5842],[39.5868,14.609],[39.6145,14.597],[39.6392,14.6043],[39.6277,14.6149],[39.6175,14.7029],[39.6415,14.7337],[39.6445,14.775],[39.6628,14.8087],[39.6527,14.8515],[39.6321,14.8598],[39.6179,14.8874],[39.5927,14.8779],[39.5564,14.925],[39.5399,14.9221],[39.5388,14.9595],[39.4971,14.9721],[39.4623,15.0156],[39.4128,15.0326],[39.3202,15.1289],[39.2628,15.1437],[39.2565,15.1712],[39.2242,15.1853],[39.1923,15.2403],[39.1474,15.2689],[39.1129,15.2696],[39.0859,15.2863],[38.9539,15.13],[38.8287,15.1683],[38.744,15.211],[38.6961,15.2164],[38.6238,15.1904],[38.5874,15.192],[38.5514,15.2114],[38.5265,15.1816],[38.4019,15.1977],[38.3928,15.1774],[38.4561,15.0892],[38.4513,15.0162],[38.373,14.9826],[38.3018,14.9191],[38.3002,14.8805],[38.4007,14.8186],[38.4003,14.7884],[38.3439,14.6952],[38.317,14.6906],[38.295,14.7036],[38.2615,14.6741]]]}},{"type":"Feature","properties":{"name":"Maekel Region","code":"12472421B35314914583003","iso":"ERI"},"geometry":{"type":"Polygon","coordinates":[[[38.7469,15.5306],[38.7623,15.4617],[38.7415,15.4115],[38.7402,15.3183],[38.6813,15.2589],[38.6961,15.2164],[38.744,15.211],[38.8287,15.1683],[38.9539,15.13],[39.0371,15.2385],[39.0265,15.3276],[39.007,15.3709],[38.9813,15.3891],[38.9811,15.4699],[38.9167,15.5089],[38.9095,15.5757],[38.8738,15.6013],[38.8442,15.5898],[38.8395,15.5693],[38.8032,15.5641],[38.7469,15.5306]]]}},{"type":"Feature","properties":{"name":"Northen Red Sea Region","code":"12472421B21855399297122","iso":"ERI"},"geometry":{"type":"MultiPolygon","coordinates":[[[[40.8727,15.498],[40.8628,15.5156],[40.8515,15.507],[40.8727,15.498]]],[[[40.7814,15.4939],[40.7927,15.4897],[40.8349,15.5174],[40.8017,15.5236],[40.7814,15.4939]]],[[[40.7458,15.4729],[40.7641,15.4868],[40.7391,15.5013],[40.7458,15.4729]]],[[[40.6934,15.7914],[40.6934,15.8241],[40.6849,15.8073],[40.6934,15.7914]]],[[[40.7812,15.6877],[40.7863,15.7022],[40.7693,15.7006],[40.7812,15.6877]]],[[[40.6461,15.6983],[40.6512,15.7015],[40.6496,15.7025],[40.6497,15.7072],[40.6486,15.7066],[40.6491,15.7041],[40.648,15.7043],[40.6477,15.71],[40.6524,15.7169],[40.6567,15.72],[40.6568,15.7215],[40.6533,15.725],[40.6487,15.7231],[40.644,15.7111],[40.6424,15.7015],[40.6435,15.6991],[40.6461,15.6983]]],[[[40.7683,15.7418],[40.7524,15.7517],[40.7231,15.7468],[40.7483,15.7342],[40.7683,15.7418]]],[[[40.7814,15.5644],[40.8066,15.5612],[40.8132,15.573],[40.79,15.5836],[40.7814,15.5644]]],[[[40.7,15.5603],[40.7053,15.564],[40.704,15.5651],[40.704,15.5682],[40.7057,15.5782],[40.704,15.5844],[40.7026,15.5853],[40.7006,15.5764],[40.6978,15.5721],[40.7,15.5603]]],[[[40.7814,15.6287],[40.7995,15.6331],[40.7852,15.6423],[40.7814,15.6287]]],[[[40.7185,15.6395],[40.732,15.6648],[40.7138,15.6567],[40.7185,15.6395]]],[[[40.0032,16.1977],[40.0075,16.2027],[40.0163,16.2073],[40.0249,16.2193],[40.0264,16.2226],[40.0234,16.2275],[40.0167,16.2275],[40.0159,16.2201],[40.0132,16.2144],[40.007,16.2085],[40.0017,16.207],[40.0032,16.1977]]],[[[40.2056,16.2481],[40.241,16.2348],[40.2427,16.2441],[40.226,16.2463],[40.2359,16.2794],[40.2178,16.2839],[40.2056,16.2481]]],[[[39.4761,16.088],[39.4639,16.0973],[39.4743,16.0563],[39.455,16.0383],[39.4736,16.0403],[39.4848,16.0792],[39.4549,16.147],[39.4304,16.1562],[39.4465,16.1156],[39.4551,16.1081],[39.4573,16.1169],[39.4761,16.088]]],[[[39.9699,16.1354],[39.972,16.1363],[39.975,16.1414],[39.975,16.1489],[39.9689,16.1537],[39.963,16.1492],[39.9618,16.1423],[39.9632,16.1385],[39.9699,16.1354]]],[[[39.9685,16.1718],[39.9743,16.1613],[39.9789,16.1847],[39.9685,16.1718]]],[[[40.0647,16.172],[40.0609,16.1647],[40.0796,16.176],[40.0846,16.202],[40.0647,16.172]]],[[[40.1678,15.9343],[40.1597,15.9561],[40.1424,15.9631],[40.1678,15.9343]]],[[[40.0302,15.9402],[40.0541,15.9381],[40.0623,15.9517],[40.0558,15.9625],[40.0345,15.959],[40.0208,15.9413],[40.0302,15.9402]]],[[[39.6121,15.9369],[39.6091,15.9424],[39.6104,15.9519],[39.606,15.9565],[39.6052,15.9601],[39.5954,15.9607],[39.5955,15.9524],[39.598,15.9491],[39.5999,15.9491],[39.6001,15.9442],[39.6017,15.9438],[39.6031,15.9469],[39.606,15.9461],[39.6077,15.9408],[39.6121,15.9369]]],[[[39.948,15.9624],[39.9521,15.9692],[39.953,15.9772],[39.9485,15.9862],[39.9468,15.9871],[39.9422,15.9824],[39.9419,15.9759],[39.9398,15.9752],[39.9398,15.9677],[39.9432,15.9695],[39.9435,15.9718],[39.9464,15.9739],[39.9466,15.9705],[39.9451,15.971],[39.945,15.97],[39.947,15.9687],[39.9461,15.9661],[39.948,15.9624]]],[[[40.283,16.0015],[40.2767,15.9801],[40.3,15.9826],[40.2965,16.0019],[40.283,16.0015]]],[[[40.1672,16.0195],[40.1929,16.0455],[40.1661,16.061],[40.1379,16.0572],[40.133,16.043],[40.1672,16.0195]]],[[[40.0782,15.9842],[40.1103,15.9787],[40.1137,15.9921],[40.0796,16.021],[40.0774,16.0119],[40.0739,16.0325],[40.1238,16.0673],[40.0812,16.0799],[40.0484,16.1175],[40.0394,16.0994],[40.0523,16.055],[39.9935,16.0566],[39.9894,16.0095],[40.0462,16.0116],[40.056,15.9894],[40.0782,15.9842]]],[[[40.1584,16.1719],[40.157,16.1416],[40.125,16.1232],[40.1287,16.0925],[40.141,16.0874],[40.1661,16.0982],[40.1636,16.1531],[40.2021,16.1578],[40.173,16.1935],[40.1584,16.1719]]],[[[39.7583,16.2919],[39.756,16.3082],[39.747,16.2982],[39.7583,16.2919]]],[[[39.9188,16.3207],[39.934,16.3274],[39.8945,16.3224],[39.9119,16.3339],[39.8941,16.3496],[39.8528,16.3414],[39.8769,16.3364],[39.8545,16.3339],[39.8676,16.3361],[39.8601,16.3284],[39.8827,16.3111],[39.8995,16.3121],[39.9106,16.2861],[39.9066,16.3131],[39.9188,16.3207]]],[[[39.5349,16.3414],[39.58,16.3454],[39.5712,16.3579],[39.5349,16.3414]]],[[[39.8045,16.312],[39.8233,16.3304],[39.814,16.3328],[39.8045,16.312]]],[[[40.1749,16.5488],[40.1537,16.5309],[40.1535,16.5509],[40.132,16.5229],[40.1357,16.4763],[40.1401,16.4992],[40.1877,16.511],[40.1749,16.5488]]],[[[39.3267,16.607],[39.3324,16.6172],[39.3194,16.6209],[39.3267,16.607]]],[[[40.0917,16.4707],[40.0971,16.4744],[40.0972,16.4757],[40.0952,16.4775],[40.0952,16.4809],[40.0914,16.4819],[40.0866,16.4802],[40.0854,16.4742],[40.0861,16.4724],[40.0917,16.4707]]],[[[39.6117,15.9012],[39.6659,15.9007],[39.6416,15.928],[39.6117,15.9012]]],[[[40.2476,15.9189],[40.259,15.9238],[40.2609,15.9264],[40.2588,15.9297],[40.253,15.9312],[40.2398,15.9203],[40.2476,15.9189]]],[[[39.9378,15.8944],[39.939,15.9121],[39.927,15.8961],[39.9378,15.8944]]],[[[40.17,15.8999],[40.1902,15.9017],[40.1946,15.9162],[40.17,15.8999]]],[[[40.3269,15.0528],[40.2928,15.057],[40.2645,14.9884],[40.2703,14.9724],[40.3074,14.9772],[40.3513,15.0103],[40.3269,15.0528]]],[[[40.3983,15.0193],[40.4243,15.0247],[40.425,15.0426],[40.4016,15.0366],[40.3983,15.0193]]],[[[40.4951,15.0634],[40.5069,15.0792],[40.4841,15.0789],[40.4715,15.065],[40.4951,15.0634]]],[[[40.3472,15.1488],[40.348,15.158],[40.3462,15.1626],[40.342,15.1634],[40.3416,15.1564],[40.339,15.1508],[40.3472,15.1488]]],[[[40.325,15.1167],[40.3381,15.1449],[40.2995,15.118],[40.325,15.1167]]],[[[40.3175,15.0769],[40.3367,15.0806],[40.3423,15.0848],[40.3424,15.0902],[40.3402,15.0906],[40.3351,15.0878],[40.3248,15.0854],[40.3232,15.0829],[40.3165,15.0788],[40.3175,15.0769]]],[[[40.2616,15.0797],[40.2691,15.0813],[40.2736,15.0848],[40.2762,15.0849],[40.2747,15.0906],[40.2665,15.0938],[40.2555,15.0807],[40.2616,15.0797]]],[[[40.1668,15.1656],[40.1706,15.1684],[40.1746,15.1685],[40.1772,15.1723],[40.1769,15.1805],[40.1747,15.1824],[40.1801,15.1919],[40.1727,15.1812],[40.1679,15.1774],[40.1668,15.1656]]],[[[40.2732,15.2403],[40.2533,15.2509],[40.2334,15.2421],[40.2359,15.2124],[40.2688,15.2241],[40.2732,15.2403]]],[[[40.0782,15.1796],[40.0917,15.1841],[40.0939,15.2018],[40.0782,15.1796]]],[[[40.078,15.198],[40.086,15.2091],[40.0503,15.1971],[40.078,15.198]]],[[[40.1624,15.2651],[40.1696,15.2686],[40.1741,15.2678],[40.176,15.2689],[40.1773,15.2759],[40.1755,15.2797],[40.172,15.2801],[40.1689,15.2787],[40.1651,15.2731],[40.1624,15.2651]]],[[[40.0782,15.2357],[40.0826,15.2362],[40.0832,15.2338],[40.0842,15.2341],[40.0862,15.2395],[40.0898,15.241],[40.0901,15.248],[40.0816,15.2471],[40.0758,15.2421],[40.0747,15.237],[40.072,15.2349],[40.0747,15.2332],[40.0782,15.2357]]],[[[40.1261,15.2312],[40.1323,15.2411],[40.1326,15.2447],[40.1286,15.2502],[40.1256,15.2457],[40.1263,15.2372],[40.1224,15.2334],[40.1261,15.2312]]],[[[40.2814,15.1228],[40.2622,15.1615],[40.2795,15.1591],[40.296,15.2001],[40.2618,15.1931],[40.2306,15.1666],[40.2322,15.1201],[40.2541,15.1053],[40.2814,15.1228]]],[[[39.7461,15.4688],[39.7556,15.4343],[39.766,15.4322],[39.7522,15.4995],[39.7376,15.4769],[39.7461,15.4688]]],[[[39.8167,15.4832],[39.8172,15.489],[39.822,15.5026],[39.8194,15.5056],[39.8162,15.505],[39.8147,15.5001],[39.8142,15.4924],[39.8167,15.4832]]],[[[40.0055,15.5238],[40.0117,15.5384],[39.982,15.5551],[40.0055,15.5238]]],[[[40.3567,15.4778],[40.3843,15.479],[40.3388,15.496],[40.3345,15.4888],[40.3577,15.4897],[40.3477,15.4856],[40.3567,15.4778]]],[[[39.9006,15.4873],[39.8994,15.5104],[39.8878,15.5024],[39.9006,15.4873]]],[[[39.9039,15.7083],[39.8998,15.709],[39.9081,15.6986],[39.9126,15.6969],[39.9171,15.7023],[39.9163,15.7051],[39.9134,15.707],[39.9039,15.7083]]],[[[39.9072,15.7101],[39.9168,15.7236],[39.8993,15.7208],[39.9072,15.7101]]],[[[40.4936,15.7477],[40.5022,15.76],[40.4806,15.7581],[40.4936,15.7477]]],[[[40.4436,15.7824],[40.454,15.787],[40.4565,15.7861],[40.4542,15.784],[40.4532,15.7845],[40.455,15.7825],[40.4548,15.7843],[40.4576,15.7861],[40.4576,15.7879],[40.4551,15.7935],[40.4519,15.7956],[40.4493,15.7951],[40.4377,15.7846],[40.4412,15.7854],[40.4436,15.7824]]],[[[40.1347,15.7769],[40.1473,15.8049],[40.1162,15.8053],[40.1138,15.7943],[40.1347,15.7769]]],[[[40.2764,15.811],[40.2874,15.825],[40.2528,15.8185],[40.2764,15.811]]],[[[40.3584,15.8114],[40.3774,15.8162],[40.3638,15.8271],[40.3584,15.8114]]],[[[39.9449,15.7271],[39.9242,15.7055],[39.931,15.6934],[39.954,15.7049],[39.9449,15.7271]]],[[[40.1834,15.7368],[40.1762,15.7301],[40.1896,15.7063],[40.1546,15.6761],[40.1635,15.6599],[40.2098,15.6747],[40.2138,15.7265],[40.2055,15.7399],[40.1834,15.7368]]],[[[40.6168,15.5915],[40.6283,15.6045],[40.6487,15.5982],[40.6078,15.5993],[40.6168,15.5915]]],[[[40.0782,15.6669],[40.0738,15.6399],[40.0371,15.6375],[40.0456,15.6251],[40.0178,15.6425],[39.998,15.63],[40.0104,15.642],[40.0029,15.6552],[39.9862,15.6627],[39.9843,15.6413],[39.9727,15.6746],[39.9554,15.6795],[39.9683,15.6888],[39.939,15.6962],[39.9684,15.6435],[39.9627,15.6193],[39.9955,15.6015],[40.0189,15.6083],[40.0557,15.5779],[40.0961,15.581],[40.1239,15.6024],[40.1602,15.5834],[40.2248,15.5927],[40.3118,15.562],[40.3611,15.5751],[40.4249,15.5629],[40.4133,15.6315],[40.3563,15.6128],[40.3854,15.632],[40.3507,15.6505],[40.329,15.6341],[40.3429,15.642],[40.3409,15.6554],[40.3327,15.6524],[40.3296,15.6849],[40.3142,15.6911],[40.2576,15.6996],[40.2201,15.685],[40.2117,15.6724],[40.3023,15.659],[40.2919,15.6468],[40.2592,15.6505],[40.2484,15.6186],[40.1674,15.6312],[40.1331,15.729],[40.1392,15.7764],[40.0978,15.7752],[40.0835,15.7897],[40.1034,15.8022],[40.0947,15.8362],[40.0167,15.8803],[39.9535,15.8878],[39.9821,15.862],[40.022,15.862],[40.0454,15.8224],[40.0274,15.8163],[40.0107,15.8321],[39.9874,15.8034],[39.9921,15.7755],[40.0245,15.7682],[39.9976,15.7633],[39.9333,15.7883],[39.9381,15.7626],[39.9236,15.763],[39.9233,15.7251],[39.9414,15.7387],[39.957,15.7182],[39.9762,15.7402],[40.0015,15.7374],[40.0254,15.7271],[40.0782,15.6669]]],[[[40.5919,15.8709],[40.6152,15.8869],[40.5926,15.8951],[40.5919,15.8709]]],[[[39.913,15.8172],[39.9173,15.8279],[39.904,15.8274],[39.913,15.8172]]],[[[40.5623,15.8211],[40.5665,15.8216],[40.5681,15.8319],[40.5666,15.8345],[40.5637,15.8358],[40.5656,15.8456],[40.5651,15.8474],[40.5622,15.8475],[40.5577,15.8392],[40.5574,15.8279],[40.5589,15.8219],[40.5623,15.8211]]],[[[40.3508,15.8792],[40.3779,15.8868],[40.3726,15.9015],[40.3508,15.8792]]],[[[40.088,15.874],[40.0895,15.8982],[40.0863,15.8991],[40.0824,15.889],[40.0837,15.8823],[40.0879,15.8789],[40.088,15.874]]],[[[40.4978,15.8428],[40.5119,15.8537],[40.5048,15.8647],[40.4978,15.8428]]],[[[40.1367,15.8491],[40.1376,15.8652],[40.1041,15.8724],[40.1024,15.859],[40.1367,15.8491]]],[[[38.8738,15.6013],[38.9095,15.5757],[38.9167,15.5089],[38.9811,15.4699],[38.9813,15.3891],[39.007,15.3709],[39.0265,15.3276],[39.0371,15.2385],[39.0548,15.2389],[39.0859,15.2863],[39.1129,15.2696],[39.1474,15.2689],[39.1923,15.2403],[39.2242,15.1853],[39.2565,15.1712],[39.2628,15.1437],[39.3202,15.1289],[39.4128,15.0326],[39.4623,15.0156],[39.4971,14.9721],[39.5388,14.9595],[39.5399,14.9221],[39.5564,14.925],[39.5759,14.8877],[39.5927,14.8779],[39.6179,14.8874],[39.6321,14.8598],[39.6527,14.8515],[39.6628,14.8087],[39.6445,14.775],[39.6415,14.7337],[39.6175,14.7029],[39.6277,14.6149],[39.6581,14.5916],[39.6868,14.592],[39.7132,14.5554],[39.7701,14.5462],[39.7941,14.5032],[39.8205,14.4839],[39.8384,14.4904],[39.9189,14.4216],[39.9469,14.4145],[39.9887,14.4548],[40.0086,14.4483],[40.0693,14.5404],[40.1328,14.5466],[40.1475,14.5392],[40.2132,14.3871],[40.2595,14.4111],[40.365,14.3663],[40.4957,14.5892],[40.5319,14.6013],[40.5529,14.6267],[40.5582,14.6909],[40.5378,14.7182],[40.5365,14.8072],[40.5111,14.9524],[40.488,14.9567],[40.478,14.9753],[40.4608,14.9677],[40.4431,14.9773],[40.4656,14.998],[40.4494,15.0065],[40.4094,14.9775],[40.434,14.9704],[40.3899,14.9502],[40.3792,14.9702],[40.3932,14.9828],[40.379,14.987],[40.3828,14.9951],[40.3572,14.9379],[40.3488,14.9416],[40.3452,14.9277],[40.3321,14.936],[40.3143,14.9046],[40.2966,14.9024],[40.271,14.9318],[40.2126,14.9472],[40.159,14.9866],[40.1649,15.0229],[40.1439,15.0383],[40.1454,15.0547],[40.1242,15.0564],[40.1147,15.0752],[40.1123,15.0634],[40.0956,15.0666],[40.0883,15.0944],[40.111,15.0822],[40.099,15.0954],[40.1011,15.1193],[40.0385,15.2075],[40.0569,15.2273],[40.0216,15.2413],[40.0815,15.3026],[40.0869,15.3327],[40.0496,15.3662],[39.9841,15.393],[39.9721,15.4219],[39.959,15.4178],[39.8868,15.4777],[39.8789,15.505],[39.8672,15.5032],[39.8711,15.4854],[39.8555,15.4847],[39.8474,15.4536],[39.8336,15.4766],[39.8308,15.4343],[39.8168,15.4578],[39.8365,15.3987],[39.8123,15.4544],[39.8044,15.4148],[39.7762,15.3979],[39.7917,15.352],[39.7795,15.343],[39.7764,15.3137],[39.7857,15.2634],[39.8025,15.2509],[39.8015,15.2708],[39.8196,15.2742],[39.8516,15.1962],[39.8533,15.1695],[39.8251,15.1259],[39.8259,15.0996],[39.8143,15.0711],[39.7824,15.0619],[39.7647,15.0633],[39.7549,15.0857],[39.7125,15.0931],[39.6939,15.1269],[39.7135,15.2583],[39.6874,15.3097],[39.6584,15.3373],[39.6218,15.4789],[39.6003,15.5191],[39.5665,15.5368],[39.5365,15.5361],[39.4868,15.5111],[39.4639,15.5248],[39.4526,15.5887],[39.4419,15.596],[39.4811,15.6095],[39.4552,15.6075],[39.4737,15.615],[39.4628,15.6227],[39.4815,15.6173],[39.4777,15.632],[39.4647,15.6252],[39.4615,15.6346],[39.4801,15.6435],[39.4528,15.6725],[39.4485,15.7183],[39.4259,15.7473],[39.4419,15.7961],[39.3751,15.8392],[39.3302,15.8916],[39.3052,15.9003],[39.2413,16.0741],[39.1973,16.2923],[39.193,16.4378],[39.1696,16.4953],[39.1759,16.5152],[39.1593,16.5037],[39.1461,16.5357],[39.15,16.5614],[39.1516,16.5369],[39.1659,16.5571],[39.1347,16.6172],[39.1447,16.6184],[39.1456,16.6559],[39.1525,16.6303],[39.1492,16.6823],[39.0641,16.8952],[38.9987,17.1387],[38.9966,17.1925],[38.9703,17.2198],[38.966,17.2742],[38.9421,17.3241],[38.9233,17.4122],[38.8225,17.6126],[38.8016,17.6275],[38.7908,17.6612],[38.6734,17.8187],[38.6465,17.8684],[38.6423,17.9047],[38.6059,17.9253],[38.5951,17.9618],[38.568,17.9883],[38.5816,18.0196],[38.4521,17.8993],[38.3444,17.6444],[38.2736,17.6031],[38.2744,17.5586],[38.2619,17.5353],[38.2225,17.5289],[38.1858,17.5622],[38.1336,17.5486],[38.1356,17.4989],[38.1114,17.4811],[38.0919,17.4967],[38.0922,17.5472],[38.0414,17.5456],[38.0493,17.5008],[38.0289,17.4309],[38.0525,17.2634],[38.0298,17.1097],[37.9668,17.0268],[37.9805,16.9457],[38.006,16.9108],[37.965,16.7745],[37.9577,16.6959],[38.0325,16.6793],[38.0498,16.6889],[38.1301,16.6574],[38.1676,16.6565],[38.2041,16.6277],[38.2223,16.5962],[38.2159,16.4903],[38.2506,16.4475],[38.2926,16.4571],[38.3199,16.4413],[38.3482,16.3556],[38.4349,16.3161],[38.4641,16.2592],[38.4641,16.1988],[38.4148,16.0953],[38.4066,16.0401],[38.4523,15.9866],[38.4906,15.9734],[38.5572,15.9041],[38.6685,15.8962],[38.7215,15.8778],[38.7551,15.892],[38.8291,15.8672],[38.8519,15.7553],[38.8451,15.7215],[38.8684,15.6666],[38.8738,15.6013]]]]}},{"type":"Feature","properties":{"name":"Southern Red Sea Region","code":"12472421B84439525883962","iso":"ERI"},"geometry":{"type":"MultiPolygon","coordinates":[[[[41.9381,13.884],[41.9369,13.8722],[41.9473,13.8828],[41.9381,13.884]]],[[[41.9759,13.8763],[41.9801,13.8778],[41.9852,13.8833],[41.9882,13.8839],[41.9901,13.8885],[41.995,13.8936],[41.9941,13.8951],[41.9906,13.8949],[41.9898,13.8923],[41.9877,13.8922],[41.9842,13.8883],[41.9821,13.8884],[41.9781,13.8858],[41.9765,13.8825],[41.9736,13.8812],[41.9759,13.8763]]],[[[40.892,14.7466],[40.9001,14.7553],[40.882,14.7516],[40.892,14.7466]]],[[[40.8093,14.7564],[40.807,14.7659],[40.8003,14.7571],[40.8093,14.7564]]],[[[40.787,14.783],[40.8161,14.792],[40.8057,14.7974],[40.787,14.783]]],[[[40.7611,14.8671],[40.7411,14.8645],[40.7667,14.8524],[40.7591,14.8392],[40.7719,14.8498],[40.7611,14.8671]]],[[[40.6821,14.9122],[40.6739,14.9057],[40.686,14.8955],[40.7153,14.8932],[40.7078,14.8809],[40.7204,14.8924],[40.7004,14.9151],[40.675,14.916],[40.6821,14.9122]]],[[[42.9539,12.822],[42.9317,12.8459],[42.9369,12.8279],[42.9539,12.822]]],[[[42.8501,12.9559],[42.8416,12.9523],[42.851,12.9421],[42.8596,12.9517],[42.8501,12.9559]]],[[[42.8193,12.9651],[42.8005,12.9576],[42.8207,12.9534],[42.8193,12.9651]]],[[[42.8907,12.9801],[42.8872,12.9827],[42.8817,12.9811],[42.877,12.978],[42.8761,12.9748],[42.8815,12.9709],[42.8836,12.9746],[42.8885,12.9781],[42.893,12.9772],[42.8907,12.9801]]],[[[42.8449,12.9839],[42.8499,12.9838],[42.8497,12.9854],[42.843,12.9901],[42.8364,12.989],[42.8297,12.9847],[42.8323,12.979],[42.8336,12.9793],[42.8347,12.9825],[42.8365,12.9827],[42.8365,12.9809],[42.8389,12.9805],[42.8449,12.9839]]],[[[42.8757,13.0045],[42.8471,13.0325],[42.8741,13.0417],[42.8444,13.0391],[42.8404,13.0188],[42.8757,13.0045]]],[[[42.1874,13.6527],[42.2069,13.647],[42.1913,13.6739],[42.1622,13.6607],[42.1874,13.6527]]],[[[42.8905,12.8599],[42.8917,12.8667],[42.8905,12.8716],[42.885,12.8722],[42.8797,12.8754],[42.8779,12.8748],[42.8755,12.8689],[42.8775,12.8653],[42.8824,12.8646],[42.885,12.8628],[42.8829,12.863],[42.884,12.8615],[42.8872,12.8596],[42.8905,12.8599]]],[[[42.8108,12.863],[42.8193,12.8723],[42.7904,12.8762],[42.7924,12.8654],[42.8108,12.863]]],[[[42.8665,12.8791],[42.8494,12.8746],[42.8632,12.8676],[42.8665,12.8791]]],[[[42.951,12.9017],[42.9276,12.9028],[42.9627,12.8669],[42.9461,12.8893],[42.951,12.9017]]],[[[40.365,14.3663],[40.4517,14.3068],[40.8103,14.172],[40.9433,14.0803],[40.9952,14.0167],[41.2507,13.6104],[41.309,13.5793],[41.4028,13.5009],[41.4489,13.4884],[41.5029,13.4456],[41.6423,13.385],[41.6685,13.3236],[41.8906,13.0745],[41.9664,12.9233],[42.0302,12.8681],[42.0573,12.801],[42.2193,12.7623],[42.2786,12.6355],[42.4042,12.4686],[42.464,12.5239],[42.4832,12.5229],[42.5671,12.476],[42.701,12.3548],[42.7167,12.384],[42.7485,12.3829],[42.7628,12.4106],[42.8038,12.4147],[42.8249,12.4341],[42.8205,12.4625],[42.797,12.4774],[42.8019,12.5096],[42.8276,12.5434],[42.8594,12.5493],[42.8591,12.5772],[42.8894,12.6169],[42.9159,12.6109],[42.9632,12.6438],[43.1371,12.7136],[43.1235,12.7115],[43.0978,12.7395],[43.0796,12.8244],[43.0443,12.8372],[42.9796,12.9282],[42.9097,12.9665],[42.9215,12.952],[42.8867,12.9543],[42.9069,12.9191],[42.9333,12.9291],[42.9514,12.909],[42.9565,12.9329],[42.9671,12.9309],[42.9676,12.9146],[42.9759,12.9207],[42.9954,12.9068],[43.0053,12.8871],[42.9857,12.8862],[42.9928,12.8608],[42.9811,12.8462],[42.9954,12.8314],[42.9859,12.8197],[42.9436,12.8104],[42.9201,12.784],[42.9072,12.7946],[42.928,12.7995],[42.9275,12.8106],[42.8921,12.8039],[42.844,12.8421],[42.8394,12.8616],[42.8007,12.8407],[42.7723,12.8526],[42.7576,12.8782],[42.7709,12.8922],[42.7687,12.9177],[42.73,12.9679],[42.751,13.0022],[42.7447,13.0352],[42.7122,13.0527],[42.673,13.0541],[42.6332,13.1207],[42.5845,13.1586],[42.5615,13.2004],[42.5469,13.1946],[42.5505,13.2294],[42.5303,13.2248],[42.5198,13.1941],[42.4931,13.1834],[42.3861,13.2097],[42.3538,13.4115],[42.3078,13.4764],[42.2914,13.5625],[42.2487,13.6037],[42.2355,13.6358],[42.2071,13.6473],[42.2309,13.637],[42.2338,13.617],[42.2222,13.5974],[42.1999,13.6094],[42.2391,13.5642],[42.2295,13.5549],[42.2412,13.5421],[42.1985,13.5779],[42.1468,13.6512],[42.1162,13.6345],[42.1024,13.6445],[42.0806,13.7161],[42.0524,13.7297],[42.0329,13.7722],[42.0136,13.7727],[42.0006,13.8222],[41.9771,13.8266],[41.9706,13.8524],[41.9392,13.8459],[41.9174,13.8739],[41.9075,13.863],[41.8609,13.8635],[41.8073,13.9246],[41.7374,13.9137],[41.725,13.9181],[41.7226,13.9387],[41.6886,13.935],[41.6523,14.0306],[41.6441,14.0328],[41.6482,14.0186],[41.6224,14.0688],[41.5487,14.1324],[41.4908,14.2414],[41.4212,14.2998],[41.3957,14.3632],[41.3389,14.4119],[41.3112,14.4948],[41.222,14.5616],[41.1893,14.6237],[41.0463,14.6692],[40.985,14.6647],[40.9612,14.6961],[40.9476,14.6893],[40.9166,14.7013],[40.8993,14.7273],[40.827,14.7256],[40.8314,14.7146],[40.8187,14.7076],[40.7994,14.7186],[40.7779,14.7055],[40.7717,14.7218],[40.7852,14.7268],[40.7681,14.7401],[40.7461,14.7325],[40.7273,14.7682],[40.7488,14.8077],[40.7452,14.8464],[40.7411,14.8343],[40.7321,14.8385],[40.6822,14.8928],[40.6562,14.8787],[40.615,14.8929],[40.6416,14.9293],[40.6364,14.9587],[40.6211,14.9344],[40.6082,14.9521],[40.5827,14.9421],[40.5568,14.9714],[40.5569,14.9919],[40.5741,14.9932],[40.5322,15.0192],[40.5303,15.0022],[40.5443,14.9887],[40.5194,14.9729],[40.5147,14.9436],[40.5378,14.7182],[40.5582,14.6909],[40.5615,14.6559],[40.5319,14.6013],[40.4957,14.5892],[40.365,14.3663]]]]}}]}