{"type":"FeatureCollection","features":[{"type":"Feature","properties":{"name":"Addis Ababa","code":"75662566B5378229891244","iso":"ETH"},"geometry":{"type":"Polygon","coordinates":[[[38.8134,8.8411],[38.8252,8.8424],[38.8268,8.8812],[38.8646,8.8839],[38.8696,8.8741],[38.8803,8.9194],[38.8564,8.9393],[38.8976,8.9381],[38.902,9.0206],[38.8691,9.0859],[38.7922,9.0787],[38.7721,9.0992],[38.7175,9.0888],[38.6862,9.0741],[38.6679,9.0111],[38.6528,9.0113],[38.6602,8.9864],[38.6402,8.9751],[38.7444,8.9036],[38.7464,8.8645],[38.7573,8.8543],[38.7738,8.8585],[38.7814,8.837],[38.8134,8.8411]]]}},{"type":"Feature","properties":{"name":"Afar","code":"75662566B25357223982520","iso":"ETH"},"geometry":{"type":"Polygon","coordinates":[[[41.7614,10.9828],[41.7778,11.2865],[41.7759,11.5397],[41.8043,11.6678],[41.8673,11.7635],[41.9811,11.8709],[42.0906,12.0652],[42.2671,12.29],[42.3557,12.4456],[42.3363,12.4802],[42.2433,12.6163],[42.0512,12.8438],[41.9735,12.9839],[41.8796,13.0903],[41.4825,13.4814],[41.3146,13.6309],[41.2513,13.7133],[41.0782,13.8792],[40.6514,14.23],[40.3318,14.4246],[40.2235,14.4792],[40.1408,14.4986],[40.0561,14.4875],[40.0111,14.4402],[39.9851,14.4329],[39.9917,14.3825],[39.9512,14.361],[39.854,14.3677],[39.8018,14.3878],[39.7729,14.3744],[39.7801,14.3311],[39.7271,14.3035],[39.7585,14.2778],[39.7582,14.2404],[39.695,14.2419],[39.6866,14.2168],[39.6508,14.1892],[39.6829,14.1653],[39.768,14.1406],[39.8385,14.1548],[39.8449,14.0509],[39.8868,14.0128],[39.86,13.9664],[39.8301,13.9749],[39.8025,13.9462],[39.8185,13.9432],[39.8342,13.919],[39.8299,13.8691],[39.8431,13.839],[39.8346,13.822],[39.8532,13.7955],[39.8541,13.7671],[39.8849,13.7489],[39.8648,13.5488],[39.7947,13.5564],[39.7639,13.5719],[39.7403,13.5638],[39.7204,13.4763],[39.7466,13.3748],[39.7304,13.3795],[39.7426,13.352],[39.7206,13.2952],[39.7682,13.2859],[39.7866,13.2634],[39.8639,13.0204],[39.8632,12.9627],[39.9261,12.8945],[39.9789,12.7929],[39.8895,12.7565],[39.827,12.6945],[39.821,12.6596],[39.8334,12.6351],[39.8076,12.597],[39.8336,12.5506],[39.8532,12.5482],[39.8641,12.5322],[39.8643,12.507],[39.8819,12.4852],[39.8672,12.4734],[39.8834,12.4584],[39.864,12.4641],[39.8158,12.4078],[39.8317,12.3582],[39.8184,12.3426],[39.8285,12.2412],[39.8084,12.2396],[39.8007,12.1957],[39.8295,12.1006],[39.8626,12.0891],[39.8421,12.0543],[39.8774,11.9751],[39.888,11.9065],[39.8757,11.7796],[39.9248,11.7016],[39.9705,11.6653],[39.995,11.682],[40.0162,11.6464],[39.9942,11.5846],[40.0618,11.475],[40.0658,11.3386],[40.1035,11.3178],[40.1465,11.2565],[40.1738,11.2408],[40.2133,11.1098],[40.1947,11.0972],[40.1878,11.0262],[40.145,10.953],[40.1246,10.9385],[40.1502,10.8967],[40.1814,10.8977],[40.1676,10.8059],[40.1035,10.7559],[40.1645,10.4133],[40.1613,10.3017],[40.1475,10.2781],[40.1565,10.2583],[40.1299,10.1745],[40.159,10.0912],[40.1335,10.072],[39.9281,10.0909],[39.9443,10.0601],[39.9236,10.0117],[39.9482,9.9943],[40.044,9.992],[40.0897,9.9358],[40.0787,9.9064],[40.0644,9.9034],[40.0593,9.8653],[40.0716,9.8584],[40.0119,9.8195],[40.0089,9.7827],[39.992,9.7577],[40.0102,9.7338],[39.8506,9.7493],[39.84,9.7245],[39.8847,9.6116],[39.878,9.5776],[39.8484,9.5653],[39.8582,9.5481],[39.8384,9.5029],[39.8734,9.4603],[39.8795,9.4014],[39.8223,9.4184],[39.7861,9.3966],[39.7923,9.3708],[39.7507,9.3702],[39.79,9.3052],[39.845,9.3152],[39.8869,9.2704],[39.8579,9.2711],[39.8739,9.2283],[39.8139,9.1721],[39.8183,9.1373],[39.8785,9.1458],[39.9099,9.1328],[39.9196,9.0694],[39.9527,9.031],[39.9485,9.0046],[40.0228,9.0033],[40.0483,8.9789],[40.0375,8.9076],[40.0113,8.8571],[40.0412,8.8422],[40.0818,8.8524],[40.1708,8.9655],[40.2387,8.9984],[40.2464,9.0759],[40.3279,9.1557],[40.409,9.2822],[40.4719,9.3558],[40.5293,9.3865],[40.6369,9.397],[40.6764,9.4185],[40.6944,9.4454],[40.6999,9.5338],[40.7496,9.6523],[40.8482,9.7913],[41.0148,9.9402],[41.0142,9.9609],[40.9667,9.9726],[40.9374,10.0362],[41.0879,10.6015],[41.0782,10.682],[41.221,10.8353],[41.2416,10.9222],[41.2691,10.9587],[41.7185,10.9656],[41.7614,10.9828]]]}},{"type":"Feature","properties":{"name":"Amhara","code":"75662566B52684709481520","iso":"ETH"},"geometry":{"type":"Polygon","coordinates":[[[39.8185,12.3248],[39.7624,12.304],[39.7594,12.3207],[39.7071,12.307],[39.6331,12.3084],[39.6151,12.2765],[39.5734,12.2567],[39.5441,12.2658],[39.5235,12.3272],[39.5083,12.3336],[39.4564,12.3258],[39.4204,12.2974],[39.2856,12.3004],[39.2464,12.3537],[39.2306,12.5018],[39.1753,12.6442],[39.2813,12.6887],[39.2864,12.7051],[39.2704,12.7239],[39.2797,12.7593],[39.2685,12.7721],[39.2766,12.7886],[39.3045,12.794],[39.3081,12.8124],[39.2785,12.8267],[39.311,12.8529],[39.3077,12.867],[39.2958,12.8716],[39.2799,12.857],[39.2596,12.9154],[39.1937,12.9288],[39.1427,12.9565],[39.0837,12.96],[39.0545,12.9914],[39.0011,13.0041],[39.0052,13.0241],[38.9795,13.0997],[39.0378,13.1349],[39.0425,13.1622],[38.9982,13.2041],[38.9567,13.2127],[38.9526,13.2382],[38.864,13.2102],[38.8015,13.248],[38.7324,13.263],[38.7427,13.3405],[38.734,13.3995],[38.7227,13.4087],[38.7065,13.39],[38.6495,13.3972],[38.6232,13.4119],[38.6187,13.429],[38.6166,13.4521],[38.6341,13.4734],[38.6773,13.4841],[38.663,13.5318],[38.6149,13.4913],[38.591,13.5068],[38.5629,13.484],[38.4618,13.4602],[38.4682,13.4856],[38.4991,13.4851],[38.4977,13.5074],[38.5433,13.5265],[38.5548,13.551],[38.4785,13.553],[38.4661,13.5683],[38.4545,13.5576],[38.4436,13.5612],[38.4519,13.5852],[38.4417,13.5851],[38.4074,13.5401],[38.3921,13.554],[38.3807,13.5451],[38.3608,13.5537],[38.342,13.5383],[38.3287,13.551],[38.3207,13.5028],[38.2798,13.4862],[38.26,13.4869],[38.2488,13.5023],[38.2017,13.4808],[38.1746,13.4941],[38.146,13.4723],[38.1218,13.507],[38.0603,13.4679],[38.002,13.5018],[37.9692,13.4944],[37.9473,13.4671],[37.9049,13.4477],[37.8672,13.4758],[37.8177,13.4638],[37.8098,13.5198],[37.7935,13.5213],[37.7699,13.5633],[37.785,13.5884],[37.7769,13.6342],[37.7608,13.5916],[37.7153,13.5427],[37.695,13.4731],[37.6379,13.4146],[37.5186,13.3671],[37.4413,13.3548],[37.4166,13.3746],[37.3966,13.3584],[37.3661,13.3605],[37.3226,13.2979],[37.2815,13.2856],[37.2513,13.2957],[37.2055,13.2564],[37.1586,13.2985],[37.0996,13.317],[37.0792,13.3125],[37.0358,13.3539],[36.92,13.3775],[36.8963,13.4076],[36.8256,13.4489],[36.7678,13.3788],[36.7355,13.3637],[36.6859,13.3755],[36.6654,13.3672],[36.6366,13.3831],[36.6056,13.3783],[36.5672,13.4469],[36.5751,13.4785],[36.6019,13.4991],[36.5655,13.5337],[36.5555,13.5719],[36.5204,13.5862],[36.5269,13.6071],[36.5052,13.6658],[36.4766,13.7011],[36.4846,13.7277],[36.452,13.7693],[36.4032,13.644],[36.3821,13.5459],[36.2788,13.3667],[36.1995,13.0704],[36.1579,12.9637],[36.1538,12.9341],[36.1818,12.8741],[36.1581,12.6874],[36.1087,12.6866],[36.0973,12.7089],[36.0519,12.7228],[35.7732,12.6613],[35.6996,12.6685],[35.686,12.6494],[35.6845,12.6105],[35.6483,12.6059],[35.4305,12.2372],[35.442,12.2213],[35.4384,12.198],[35.4014,12.1865],[35.3326,12.0675],[35.3405,12.0242],[35.3032,12.0163],[35.2761,11.9408],[35.2579,11.935],[35.2851,11.8853],[35.2967,11.8],[35.3265,11.7953],[35.3645,11.7538],[35.4226,11.7302],[35.4741,11.737],[35.5177,11.7188],[35.5774,11.7682],[35.6625,11.7942],[35.6674,11.8267],[35.8044,11.8388],[35.8238,11.8277],[35.8609,11.8507],[35.8752,11.8867],[35.9372,11.9216],[35.9361,11.9669],[35.9666,11.9854],[35.9698,11.9592],[36.0572,11.8751],[36.0553,11.8501],[36.0671,11.8524],[36.0822,11.8252],[36.106,11.8167],[36.1263,11.72],[36.1191,11.7066],[36.1456,11.6864],[36.177,11.6851],[36.2079,11.7222],[36.2324,11.7229],[36.3096,11.804],[36.3299,11.7975],[36.3421,11.7816],[36.3329,11.7049],[36.3483,11.6974],[36.3332,11.6669],[36.3492,11.6062],[36.3759,11.6085],[36.4451,11.4936],[36.4103,11.4591],[36.4107,11.4148],[36.4679,11.4295],[36.513,11.4591],[36.5307,11.4354],[36.5339,11.3949],[36.5647,11.3722],[36.5644,11.3589],[36.5353,11.3361],[36.5572,11.3303],[36.5577,11.303],[36.4958,11.2898],[36.4679,11.2658],[36.4766,11.2455],[36.461,11.2273],[36.4684,11.1563],[36.5037,11.1384],[36.5501,11.1387],[36.561,11.1141],[36.5788,11.1114],[36.5557,11.0941],[36.5259,11.1136],[36.4905,11.0696],[36.4234,11.0322],[36.4185,11.0016],[36.3548,10.9379],[36.3099,10.8634],[36.3109,10.828],[36.283,10.8048],[36.286,10.7455],[36.3116,10.7482],[36.3424,10.7897],[36.378,10.7867],[36.3747,10.7593],[36.3184,10.7045],[36.3225,10.6862],[36.3121,10.6797],[36.325,10.6626],[36.3038,10.6388],[36.3084,10.6251],[36.2824,10.6055],[36.3067,10.5789],[36.3028,10.5549],[36.319,10.5289],[36.3444,10.5218],[36.3599,10.5312],[36.3655,10.5071],[36.4098,10.4562],[36.4464,10.4566],[36.4635,10.4801],[36.5276,10.4838],[36.547,10.4578],[36.5212,10.4069],[36.54,10.3659],[36.6063,10.3657],[36.6691,10.3148],[36.6862,10.3185],[36.6924,10.3583],[36.7626,10.3682],[36.7774,10.3469],[36.8074,10.3363],[36.87,10.3416],[36.8988,10.3138],[36.9807,10.315],[37.0141,10.2859],[37.0467,10.2893],[37.0879,10.2604],[37.1826,10.2422],[37.2007,10.2242],[37.1685,10.1642],[37.2141,10.0889],[37.2885,10.0638],[37.3303,10.0068],[37.3456,10.0068],[37.3578,10.0412],[37.3991,10.0471],[37.4453,10.0155],[37.5301,9.9971],[37.619,9.8949],[37.6627,9.8615],[37.6812,9.8633],[37.7015,9.8377],[37.8168,9.8681],[37.8435,9.8977],[37.8568,9.8969],[37.8612,9.9138],[37.8708,9.9085],[37.8939,9.9282],[37.9101,9.9314],[37.9309,9.9156],[37.9337,9.9422],[37.9579,9.9396],[38.0444,9.9707],[38.0884,10.0212],[38.1191,10.0187],[38.1318,10.0484],[38.1514,10.0361],[38.2413,10.1036],[38.2532,10.0894],[38.2961,10.0902],[38.3094,10.1089],[38.3226,10.1081],[38.3409,10.1572],[38.3671,10.1414],[38.3983,10.1452],[38.4266,10.1727],[38.4202,10.2208],[38.455,10.2476],[38.4609,10.2909],[38.4734,10.2927],[38.4775,10.3642],[38.6311,10.3831],[38.665,10.3737],[38.7135,10.3878],[38.747,10.3847],[38.773,10.3671],[38.8466,10.3619],[38.8617,10.2789],[38.8361,10.2267],[38.8346,10.1628],[38.8534,10.119],[38.7222,10.0524],[38.6635,10.0583],[38.6617,10.0348],[38.6873,10.009],[38.7977,9.9687],[38.8033,9.9104],[38.7917,9.8836],[38.8223,9.7855],[38.8976,9.7153],[38.9186,9.7125],[38.9356,9.7289],[38.9611,9.7117],[38.9529,9.7396],[38.9753,9.7621],[38.9909,9.7469],[39.0931,9.7641],[39.1054,9.7496],[39.0985,9.7364],[39.1402,9.7416],[39.1462,9.6943],[39.1565,9.6897],[39.1751,9.6958],[39.1849,9.6867],[39.185,9.721],[39.2289,9.6947],[39.2508,9.7059],[39.269,9.7407],[39.2884,9.7349],[39.2987,9.749],[39.3213,9.7251],[39.3476,9.7261],[39.3453,9.7],[39.371,9.7004],[39.3529,9.623],[39.3867,9.6318],[39.3773,9.5683],[39.3305,9.5276],[39.3138,9.5366],[39.2949,9.4927],[39.3105,9.4687],[39.3639,9.4749],[39.3778,9.4643],[39.3736,9.4478],[39.3948,9.4561],[39.4486,9.4335],[39.4531,9.3949],[39.4213,9.3725],[39.3957,9.3929],[39.3576,9.37],[39.326,9.3815],[39.3204,9.3666],[39.3074,9.3671],[39.2863,9.3168],[39.2653,9.3252],[39.2671,9.2895],[39.2856,9.2786],[39.267,9.2455],[39.2345,9.2946],[39.208,9.293],[39.1786,9.2721],[39.2145,9.2291],[39.1894,9.2103],[39.2155,9.1744],[39.2504,9.1366],[39.324,9.1498],[39.3579,9.0631],[39.2976,9.0543],[39.289,9],[39.2594,8.9637],[39.2662,8.9234],[39.2419,8.89],[39.2383,8.8631],[39.2664,8.8441],[39.2447,8.8287],[39.2728,8.7841],[39.2628,8.748],[39.2713,8.7256],[39.2998,8.7196],[39.3254,8.748],[39.3619,8.722],[39.378,8.732],[39.379,8.7922],[39.4186,8.8156],[39.4501,8.7533],[39.5016,8.7159],[39.5526,8.7698],[39.5628,8.8189],[39.6179,8.7879],[39.663,8.8143],[39.7341,8.8273],[39.7489,8.9113],[39.7433,9.0923],[39.7811,9.1054],[39.8183,9.1373],[39.8139,9.1721],[39.8739,9.2283],[39.8579,9.2711],[39.8869,9.2704],[39.845,9.3152],[39.79,9.3052],[39.7507,9.3702],[39.7923,9.3708],[39.7861,9.3966],[39.8223,9.4184],[39.8795,9.4014],[39.8734,9.4603],[39.8384,9.5029],[39.8582,9.5481],[39.8484,9.5653],[39.878,9.5776],[39.8847,9.6116],[39.84,9.7245],[39.863,9.7549],[39.9556,9.7312],[40.0102,9.7338],[39.992,9.7577],[40.0089,9.7827],[40.0119,9.8195],[40.0716,9.8584],[40.0593,9.8653],[40.0644,9.9034],[40.0787,9.9064],[40.0897,9.9358],[40.044,9.992],[39.9482,9.9943],[39.9236,10.0117],[39.9443,10.0601],[39.9281,10.0909],[40.1335,10.072],[40.159,10.0912],[40.1299,10.1745],[40.1565,10.2583],[40.1475,10.2781],[40.1613,10.3017],[40.1645,10.4133],[40.1035,10.7559],[40.1676,10.8059],[40.1814,10.8977],[40.1502,10.8967],[40.1246,10.9385],[40.145,10.953],[40.1878,11.0262],[40.1947,11.0972],[40.2133,11.1098],[40.1738,11.2408],[40.1465,11.2565],[40.1035,11.3178],[40.0658,11.3386],[40.0618,11.475],[39.9942,11.5846],[40.0162,11.6464],[39.995,11.682],[39.9705,11.6653],[39.9248,11.7016],[39.8757,11.7796],[39.888,11.9065],[39.8774,11.9751],[39.8421,12.0543],[39.8626,12.0891],[39.8295,12.1006],[39.8007,12.1957],[39.8084,12.2396],[39.8285,12.2412],[39.8185,12.3248]],[[37.4396,12.282],[37.4916,12.2952],[37.527,12.2447],[37.5589,12.2245],[37.5763,12.1595],[37.6181,12.1006],[37.5486,11.9223],[37.5228,11.8965],[37.5133,11.9039],[37.499,11.8939],[37.5146,11.8375],[37.4786,11.8201],[37.4734,11.8298],[37.4496,11.7946],[37.4574,11.7746],[37.4261,11.7309],[37.4341,11.707],[37.4177,11.6804],[37.4044,11.5712],[37.3799,11.5777],[37.374,11.6126],[37.3464,11.6143],[37.3098,11.6531],[37.2934,11.6515],[37.314,11.6869],[37.3242,11.6795],[37.3566,11.6937],[37.3425,11.7132],[37.3199,11.7111],[37.3022,11.7364],[37.3115,11.7755],[37.2929,11.798],[37.2343,11.8283],[37.1793,11.8033],[37.1361,11.8007],[37.1173,11.8248],[37.1263,11.8469],[37.1027,11.831],[37.1119,11.8079],[37.0992,11.7958],[37.0742,11.8272],[37.0477,11.8361],[37.0302,11.8809],[37.0048,11.8827],[36.9934,11.8977],[37.021,11.9299],[37.013,12.0162],[37.0334,12.0875],[37.0338,12.1493],[37.0708,12.217],[37.1555,12.2681],[37.1819,12.194],[37.2079,12.1918],[37.2048,12.2033],[37.2304,12.2107],[37.2625,12.1969],[37.2873,12.2055],[37.3015,12.2311],[37.2955,12.2467],[37.3147,12.2698],[37.3412,12.2779],[37.3745,12.2579],[37.3849,12.2784],[37.4396,12.282]]]}},{"type":"Feature","properties":{"name":"Beneshangul Gumu","code":"75662566B16746670119676","iso":"ETH"},"geometry":{"type":"MultiPolygon","coordinates":[[[[36.2487,8.9746],[36.2218,8.9896],[36.1751,8.9805],[36.2229,8.9512],[36.2487,8.9746]]],[[[35.2579,11.935],[35.0982,11.8153],[35.0474,11.736],[35.0773,11.6464],[35.0788,11.5223],[35.0249,11.3863],[34.9265,11.2441],[34.9621,11.2368],[35.001,11.1815],[34.9573,10.9579],[34.9831,10.8994],[34.868,10.8093],[34.8583,10.7573],[34.786,10.7108],[34.7911,10.7564],[34.7662,10.756],[34.6105,10.8981],[34.5551,10.884],[34.5325,10.8533],[34.4658,10.822],[34.3835,10.6785],[34.2983,10.5866],[34.2805,10.5157],[34.3075,10.5085],[34.3271,10.4766],[34.2938,10.4072],[34.3521,10.2219],[34.347,10.1696],[34.3344,10.1144],[34.2339,10.0485],[34.2176,9.9035],[34.1468,9.7191],[34.1015,9.5516],[34.1454,8.9633],[34.4314,8.9685],[34.5045,9.0052],[34.4591,9.0742],[34.4276,9.0728],[34.3416,9.1698],[34.4025,9.1877],[34.4403,9.2166],[34.467,9.3668],[34.4525,9.4501],[34.5137,9.449],[34.4995,9.5152],[34.524,9.5421],[34.5492,9.6307],[34.5861,9.6314],[34.6328,9.589],[34.7359,9.5463],[34.7837,9.5543],[34.7928,9.6043],[34.8116,9.6311],[34.8107,9.7032],[34.7969,9.7372],[34.8324,9.8041],[34.8705,9.8216],[34.8984,9.8827],[34.8675,9.9032],[34.8885,9.9092],[34.9052,9.9568],[34.9438,9.9345],[34.9889,9.9977],[35.0158,9.9962],[35.0204,9.9298],[35.0493,9.9187],[35.0818,9.9229],[35.0891,9.9515],[35.1603,9.9494],[35.2216,9.9264],[35.2315,9.8942],[35.2982,9.9235],[35.3506,9.8671],[35.3646,9.814],[35.4204,9.7861],[35.3796,9.7664],[35.3692,9.7203],[35.4115,9.7147],[35.4692,9.6714],[35.5545,9.6971],[35.5793,9.6665],[35.6355,9.6525],[35.6542,9.6359],[35.6483,9.5543],[35.7115,9.4878],[35.7658,9.4744],[35.7781,9.4412],[35.7509,9.4041],[35.7575,9.3247],[35.798,9.3096],[35.8606,9.326],[35.9119,9.317],[35.9186,9.2867],[35.9501,9.2502],[36.0324,9.2345],[36.0544,9.1205],[36.0348,9.1085],[36.0289,9.057],[36.0429,9.0161],[36.0873,9.0137],[36.0978,9.0335],[36.0763,9.0637],[36.1093,9.0811],[36.1295,9.0522],[36.1322,9.0218],[36.1604,9.0217],[36.1776,9.0456],[36.2267,9.032],[36.2473,9.042],[36.1854,9.073],[36.1623,9.1064],[36.2047,9.1584],[36.2297,9.2301],[36.2271,9.2728],[36.1957,9.29],[36.2067,9.3558],[36.2351,9.348],[36.2154,9.3334],[36.2192,9.2981],[36.254,9.3028],[36.2759,9.3449],[36.2963,9.3027],[36.3198,9.3069],[36.3346,9.3408],[36.3755,9.359],[36.4622,9.3582],[36.4849,9.3689],[36.476,9.3957],[36.5081,9.4204],[36.5157,9.4451],[36.4952,9.5104],[36.462,9.5291],[36.4014,9.512],[36.3811,9.4815],[36.3018,9.5565],[36.2326,9.5713],[36.2016,9.6159],[36.1926,9.6889],[36.1598,9.7479],[36.1061,9.7743],[36.1373,9.8084],[36.129,9.8532],[36.1531,9.8499],[36.1214,9.9725],[36.1407,10.0107],[36.1854,10.0506],[36.2197,10.0542],[36.2597,10.0794],[36.2727,10.114],[36.3702,10.1626],[36.4461,10.2468],[36.4917,10.2352],[36.5163,10.2409],[36.5553,10.286],[36.5766,10.2802],[36.5755,10.2651],[36.6114,10.2602],[36.693,10.2972],[36.6862,10.3185],[36.6626,10.3175],[36.6063,10.3657],[36.54,10.3659],[36.5212,10.4069],[36.547,10.4578],[36.5276,10.4838],[36.4635,10.4801],[36.4464,10.4566],[36.4098,10.4562],[36.3655,10.5071],[36.3599,10.5312],[36.3444,10.5218],[36.319,10.5289],[36.3028,10.5549],[36.3067,10.5789],[36.2824,10.6055],[36.3084,10.6251],[36.3038,10.6388],[36.325,10.6626],[36.3121,10.6797],[36.3225,10.6862],[36.3184,10.7045],[36.3768,10.7662],[36.378,10.7867],[36.3424,10.7897],[36.3116,10.7482],[36.286,10.7455],[36.283,10.8048],[36.3109,10.828],[36.3099,10.8634],[36.3548,10.9379],[36.4185,11.0016],[36.4234,11.0322],[36.4905,11.0696],[36.5259,11.1136],[36.5348,11.0988],[36.5758,11.1016],[36.5788,11.1114],[36.561,11.1141],[36.5501,11.1387],[36.5037,11.1384],[36.4684,11.1563],[36.461,11.2273],[36.4766,11.2455],[36.4679,11.2658],[36.4958,11.2898],[36.5577,11.303],[36.5572,11.3303],[36.5353,11.3361],[36.5644,11.3589],[36.5647,11.3722],[36.5339,11.3949],[36.5307,11.4354],[36.513,11.4591],[36.4679,11.4295],[36.4107,11.4148],[36.4103,11.4591],[36.4451,11.4936],[36.3759,11.6085],[36.3492,11.6062],[36.3332,11.6669],[36.3483,11.6974],[36.3329,11.7049],[36.3421,11.7816],[36.3299,11.7975],[36.3096,11.804],[36.2324,11.7229],[36.2079,11.7222],[36.177,11.6851],[36.1456,11.6864],[36.1191,11.7066],[36.1263,11.72],[36.106,11.8167],[36.0822,11.8252],[36.0671,11.8524],[36.0553,11.8501],[36.0572,11.8751],[35.9698,11.9592],[35.9666,11.9854],[35.9361,11.9669],[35.9372,11.9216],[35.8752,11.8867],[35.849,11.8411],[35.8238,11.8277],[35.8044,11.8388],[35.6674,11.8267],[35.6625,11.7942],[35.5774,11.7682],[35.5177,11.7188],[35.4741,11.737],[35.4226,11.7302],[35.3645,11.7538],[35.3265,11.7953],[35.2967,11.8],[35.2851,11.8853],[35.2579,11.935]]]]}},{"type":"Feature","properties":{"name":"Dire Dawa","code":"75662566B22109266514860","iso":"ETH"},"geometry":{"type":"Polygon","coordinates":[[[42.1432,9.6213],[42.2014,9.6541],[42.2596,9.6526],[42.3407,9.7206],[42.2519,9.7845],[42.2143,9.7847],[42.1867,9.7745],[42.0317,9.6195],[41.907,9.6803],[41.8741,9.6849],[41.8096,9.6415],[41.7747,9.6547],[41.7495,9.6373],[41.7289,9.49],[41.7355,9.4725],[41.7739,9.492],[41.8161,9.4777],[41.8606,9.489],[41.9143,9.4735],[41.9834,9.5095],[42.02,9.5092],[42.0757,9.4747],[42.1535,9.5574],[42.1258,9.6155],[42.1432,9.6213]]]}},{"type":"Feature","properties":{"name":"Gambela","code":"75662566B92391245038365","iso":"ETH"},"geometry":{"type":"Polygon","coordinates":[[[35.1168,7.6463],[35.0778,7.7322],[34.9962,7.7491],[34.9327,7.7293],[34.933,7.8291],[34.9514,7.8914],[35.0014,7.8635],[35.0139,7.8836],[35.0092,7.9246],[35.0491,7.9556],[35.1093,7.9583],[35.1418,7.9902],[35.1187,8.0837],[35.0898,8.1151],[35.144,8.144],[35.1584,8.1378],[35.1389,8.183],[35.074,8.2213],[35.019,8.2208],[34.9655,8.2485],[34.8558,8.2518],[34.8272,8.2631],[34.7866,8.3048],[34.7958,8.328],[34.786,8.3564],[34.7295,8.3911],[34.575,8.4046],[34.5573,8.4562],[34.5234,8.4766],[34.348,8.3778],[34.314,8.391],[34.359,8.5231],[34.3462,8.6012],[34.3132,8.6832],[34.2801,8.7099],[34.1904,8.6527],[34.1423,8.653],[34.1428,8.612],[34.1219,8.5761],[34.0338,8.5115],[34.0212,8.4898],[33.9468,8.4988],[33.899,8.4817],[33.878,8.4375],[33.841,8.4319],[33.7732,8.3707],[33.7013,8.3735],[33.6809,8.4417],[33.6208,8.4697],[33.5981,8.4475],[33.5766,8.4484],[33.5627,8.4694],[33.4989,8.472],[33.4486,8.4387],[33.4245,8.4476],[33.3961,8.4247],[33.3146,8.4606],[33.2964,8.4378],[33.2752,8.4537],[33.2493,8.4451],[33.2348,8.4239],[33.2179,8.4335],[33.2172,8.4091],[33.1934,8.408],[33.1898,8.381],[33.1941,8.3523],[33.2172,8.3564],[33.2155,8.3431],[33.1927,8.334],[33.1958,8.299],[33.1707,8.2971],[33.1763,8.2556],[33.1989,8.2487],[33.2033,8.235],[33.1665,8.1957],[33.1849,8.1614],[33.1869,8.1247],[33.1207,8.1079],[33.1193,8.064],[33.0865,8.0762],[33.0782,8.0258],[33.0371,8.0061],[33.037,7.9754],[33.0028,7.9413],[33.0144,7.8898],[33.0022,7.8805],[33.0508,7.7884],[33.0891,7.8012],[33.1095,7.7801],[33.1661,7.7966],[33.2176,7.7723],[33.239,7.7746],[33.282,7.7427],[33.2957,7.7468],[33.293,7.7359],[33.3002,7.7409],[33.3209,7.7074],[33.4323,7.7526],[33.5156,7.7329],[33.5412,7.7048],[33.5809,7.6878],[33.5999,7.7067],[33.6235,7.7089],[33.637,7.6929],[33.6731,7.6934],[33.7377,7.6288],[33.7938,7.6058],[33.872,7.5191],[33.9484,7.5035],[33.9459,7.4692],[33.9585,7.4485],[33.9855,7.4374],[34.0339,7.3552],[34.0336,7.2765],[34.011,7.2709],[34.0125,7.2609],[34.0998,7.1807],[34.1292,7.1765],[34.1456,7.1575],[34.1931,7.1388],[34.194,7.0561],[34.2162,7.0475],[34.2328,7.0167],[34.2564,7.0228],[34.3233,6.9748],[34.384,6.9651],[34.485,6.9055],[34.5314,6.844],[34.5367,6.7539],[34.6137,6.734],[34.6298,6.7504],[34.6819,6.7036],[34.7085,6.6979],[34.7162,6.6655],[34.7892,6.5849],[34.8068,6.6013],[34.857,6.6091],[34.8896,6.5975],[34.8853,6.5783],[34.9402,6.5477],[34.9568,6.505],[34.985,6.4905],[35.0145,6.4462],[35.0037,6.4036],[34.9873,6.3877],[34.9857,6.3001],[35.012,6.2816],[35.039,6.3059],[35.1069,6.3202],[35.1323,6.3968],[35.1793,6.3806],[35.2002,6.4122],[35.1746,6.4678],[35.1863,6.491],[35.1961,6.5987],[35.1883,6.6578],[35.1984,6.6815],[35.1803,6.7286],[35.0806,6.812],[34.9344,6.7975],[34.9697,6.8605],[34.9931,6.8653],[34.9986,6.8941],[34.9121,6.9894],[34.9028,7.0321],[34.8851,7.032],[34.8778,7.071],[34.8934,7.0927],[34.8988,7.186],[34.9432,7.1941],[34.9709,7.2352],[34.9786,7.2145],[35.0216,7.187],[35.0547,7.1855],[35.0845,7.1261],[35.115,7.1034],[35.2053,7.1008],[35.2352,7.1391],[35.2654,7.1374],[35.3006,7.117],[35.3315,7.1283],[35.3811,7.124],[35.3347,7.1811],[35.3736,7.2322],[35.3466,7.2402],[35.3757,7.2912],[35.3931,7.3974],[35.3686,7.4158],[35.3744,7.4292],[35.3103,7.4804],[35.2103,7.4731],[35.19,7.4568],[35.1232,7.4798],[35.1388,7.5133],[35.1727,7.5339],[35.1671,7.616],[35.1464,7.6314],[35.1164,7.632],[35.1168,7.6463]]]}},{"type":"Feature","properties":{"name":"Hareri","code":"75662566B51121866066295","iso":"ETH"},"geometry":{"type":"Polygon","coordinates":[[[42.2538,9.1907],[42.273,9.2167],[42.2503,9.271],[42.2712,9.3627],[42.2539,9.3848],[42.1884,9.3627],[42.1301,9.3897],[42.0714,9.305],[42.0622,9.2275],[42.1133,9.2318],[42.1495,9.2073],[42.1984,9.2209],[42.2346,9.1869],[42.2538,9.1907]]]}},{"type":"Feature","properties":{"name":"Oromia","code":"75662566B9273833721501","iso":"ETH"},"geometry":{"type":"Polygon","coordinates":[[[39.8183,9.1373],[39.7811,9.1054],[39.7433,9.0923],[39.7489,8.9113],[39.7341,8.8273],[39.663,8.8143],[39.6179,8.7879],[39.5628,8.8189],[39.5526,8.7698],[39.5016,8.7159],[39.4501,8.7533],[39.4186,8.8156],[39.379,8.7922],[39.378,8.732],[39.3619,8.722],[39.3254,8.748],[39.2998,8.7196],[39.2713,8.7256],[39.2628,8.748],[39.2728,8.7841],[39.2447,8.8287],[39.2664,8.8441],[39.2383,8.8631],[39.2419,8.89],[39.2662,8.9234],[39.2594,8.9637],[39.289,9],[39.2976,9.0543],[39.3579,9.0631],[39.324,9.1498],[39.2504,9.1366],[39.2155,9.1744],[39.1894,9.2103],[39.2145,9.2291],[39.1786,9.2721],[39.208,9.293],[39.2345,9.2946],[39.267,9.2455],[39.2856,9.2786],[39.2671,9.2895],[39.2653,9.3252],[39.2863,9.3168],[39.2938,9.3502],[39.326,9.3815],[39.3576,9.37],[39.3957,9.3929],[39.4213,9.3725],[39.4465,9.3849],[39.4486,9.4335],[39.3948,9.4561],[39.3736,9.4478],[39.3778,9.4643],[39.3639,9.4749],[39.3105,9.4687],[39.2949,9.4927],[39.3138,9.5366],[39.3305,9.5276],[39.3423,9.5464],[39.3615,9.5471],[39.3897,9.6167],[39.3867,9.6318],[39.3529,9.623],[39.371,9.7004],[39.3402,9.7049],[39.3476,9.7261],[39.3213,9.7251],[39.2987,9.749],[39.2884,9.7349],[39.269,9.7407],[39.2508,9.7059],[39.2289,9.6947],[39.185,9.721],[39.1849,9.6867],[39.1462,9.6943],[39.1402,9.7416],[39.0985,9.7364],[39.1054,9.7496],[39.0931,9.7641],[38.9909,9.7469],[38.9753,9.7621],[38.9529,9.7396],[38.9611,9.7117],[38.9356,9.7289],[38.9102,9.7097],[38.8297,9.7701],[38.7917,9.8836],[38.8033,9.9104],[38.8014,9.9632],[38.7802,9.9833],[38.6747,10.0161],[38.6581,10.0524],[38.7222,10.0524],[38.8534,10.119],[38.8346,10.1628],[38.8361,10.2267],[38.8617,10.2789],[38.8466,10.3619],[38.773,10.3671],[38.747,10.3847],[38.7135,10.3878],[38.665,10.3737],[38.6311,10.3831],[38.4775,10.3642],[38.4734,10.2927],[38.4609,10.2909],[38.455,10.2476],[38.4202,10.2208],[38.4266,10.1727],[38.3983,10.1452],[38.3671,10.1414],[38.3409,10.1572],[38.3226,10.1081],[38.3094,10.1089],[38.2961,10.0902],[38.2532,10.0894],[38.2413,10.1036],[38.1514,10.0361],[38.1318,10.0484],[38.1191,10.0187],[38.0884,10.0212],[38.0444,9.9707],[37.9579,9.9396],[37.9337,9.9422],[37.9309,9.9156],[37.9101,9.9314],[37.8939,9.9282],[37.8708,9.9085],[37.8612,9.9138],[37.8568,9.8969],[37.8435,9.8977],[37.8168,9.8681],[37.7015,9.8377],[37.6812,9.8633],[37.6627,9.8615],[37.619,9.8949],[37.5301,9.9971],[37.4453,10.0155],[37.3991,10.0471],[37.3578,10.0412],[37.3456,10.0068],[37.3303,10.0068],[37.2885,10.0638],[37.2141,10.0889],[37.1685,10.1642],[37.2007,10.2242],[37.1826,10.2422],[37.0879,10.2604],[37.0467,10.2893],[37.0141,10.2859],[36.9807,10.315],[36.8988,10.3138],[36.87,10.3416],[36.8074,10.3363],[36.7774,10.3469],[36.7626,10.3682],[36.6924,10.3583],[36.6817,10.3355],[36.693,10.2972],[36.6605,10.278],[36.6114,10.2602],[36.5755,10.2651],[36.5766,10.2802],[36.5553,10.286],[36.5163,10.2409],[36.4461,10.2468],[36.3702,10.1626],[36.2727,10.114],[36.2597,10.0794],[36.2197,10.0542],[36.1854,10.0506],[36.1407,10.0107],[36.1214,9.9725],[36.1531,9.8499],[36.129,9.8532],[36.1373,9.8084],[36.1061,9.7743],[36.1598,9.7479],[36.1926,9.6889],[36.2016,9.6159],[36.2326,9.5713],[36.3018,9.5565],[36.3811,9.4815],[36.4014,9.512],[36.462,9.5291],[36.4952,9.5104],[36.5157,9.4451],[36.5081,9.4204],[36.476,9.3957],[36.4849,9.3689],[36.4622,9.3582],[36.3755,9.359],[36.3346,9.3408],[36.3198,9.3069],[36.2963,9.3027],[36.2759,9.3449],[36.254,9.3028],[36.2192,9.2981],[36.2154,9.3334],[36.2351,9.348],[36.2067,9.3558],[36.1957,9.29],[36.2271,9.2728],[36.2297,9.2301],[36.2047,9.1584],[36.1623,9.1064],[36.1854,9.073],[36.2473,9.042],[36.2267,9.032],[36.1776,9.0456],[36.1604,9.0217],[36.1322,9.0218],[36.1295,9.0522],[36.1093,9.0811],[36.0763,9.0637],[36.0978,9.0335],[36.0873,9.0137],[36.0429,9.0161],[36.0289,9.057],[36.0348,9.1085],[36.0544,9.1205],[36.0324,9.2345],[35.9501,9.2502],[35.9186,9.2867],[35.9119,9.317],[35.8606,9.326],[35.798,9.3096],[35.7575,9.3247],[35.7509,9.4041],[35.7781,9.4412],[35.7658,9.4744],[35.7115,9.4878],[35.6483,9.5543],[35.6542,9.6359],[35.6355,9.6525],[35.5793,9.6665],[35.5545,9.6971],[35.4692,9.6714],[35.4115,9.7147],[35.3692,9.7203],[35.3796,9.7664],[35.4204,9.7861],[35.3646,9.814],[35.3506,9.8671],[35.2982,9.9235],[35.2315,9.8942],[35.2216,9.9264],[35.1603,9.9494],[35.0891,9.9515],[35.0818,9.9229],[35.0493,9.9187],[35.0204,9.9298],[35.0158,9.9962],[34.9889,9.9977],[34.9438,9.9345],[34.9052,9.9568],[34.8885,9.9092],[34.8675,9.9032],[34.8984,9.8827],[34.8705,9.8216],[34.8324,9.8041],[34.7969,9.7372],[34.8107,9.7032],[34.8116,9.6311],[34.7928,9.6043],[34.7837,9.5543],[34.7359,9.5463],[34.6328,9.589],[34.5861,9.6314],[34.5492,9.6307],[34.524,9.5421],[34.4995,9.5152],[34.5137,9.449],[34.4525,9.4501],[34.467,9.3668],[34.4403,9.2166],[34.4025,9.1877],[34.3416,9.1698],[34.4276,9.0728],[34.4591,9.0742],[34.5045,9.0052],[34.4314,8.9685],[34.1454,8.9633],[34.1423,8.653],[34.1904,8.6527],[34.2801,8.7099],[34.3132,8.6832],[34.3462,8.6012],[34.359,8.5231],[34.314,8.391],[34.348,8.3778],[34.5234,8.4766],[34.5573,8.4562],[34.575,8.4046],[34.7295,8.3911],[34.786,8.3564],[34.7958,8.328],[34.7866,8.3048],[34.8272,8.2631],[34.8558,8.2518],[34.9655,8.2485],[35.019,8.2208],[35.074,8.2213],[35.1389,8.183],[35.1584,8.1378],[35.144,8.144],[35.0898,8.1151],[35.1187,8.0837],[35.1418,7.9902],[35.1093,7.9583],[35.0491,7.9556],[35.0092,7.9246],[35.0139,7.8836],[35.0014,7.8635],[34.9514,7.8914],[34.933,7.8291],[34.9327,7.7293],[34.9962,7.7491],[35.0778,7.7322],[35.1168,7.6463],[35.2131,7.6527],[35.2235,7.7043],[35.2763,7.7472],[35.3416,7.7778],[35.3506,7.836],[35.3588,7.8441],[35.4013,7.8307],[35.4295,7.882],[35.4751,7.8747],[35.5215,7.8968],[35.5452,7.8321],[35.5904,7.8098],[35.619,7.8159],[35.6945,7.8655],[35.7172,7.8566],[35.7403,7.8678],[35.8007,7.9418],[35.7393,7.99],[35.7236,8.0236],[35.7288,8.0407],[35.7665,8.0824],[35.8616,8.0784],[35.9059,7.9472],[35.8876,7.8937],[35.8494,7.8401],[35.998,7.7463],[36.0527,7.6551],[36.0361,7.5738],[36.063,7.5587],[36.1284,7.5568],[36.1573,7.5438],[36.2255,7.4856],[36.3025,7.4511],[36.3494,7.4466],[36.3754,7.4168],[36.4847,7.4172],[36.5991,7.3702],[36.6337,7.3791],[36.6734,7.3292],[36.7919,7.2535],[36.8417,7.3272],[36.8799,7.3309],[36.9563,7.2617],[36.9654,7.2259],[37.0403,7.2412],[37.1294,7.2297],[37.2386,7.3133],[37.332,7.3446],[37.3805,7.3812],[37.3911,7.4036],[37.408,7.4934],[37.4459,7.5655],[37.402,7.6838],[37.4057,7.8284],[37.4375,7.9197],[37.3906,7.9631],[37.3926,7.994],[37.4916,8.0182],[37.5401,7.955],[37.5583,7.9495],[37.6036,7.966],[37.5929,8.0943],[37.6225,8.2102],[37.5181,8.2375],[37.4649,8.2835],[37.4722,8.3518],[37.513,8.4181],[37.5588,8.4266],[37.6128,8.3552],[37.6669,8.3846],[37.7054,8.3381],[37.7488,8.3529],[37.8171,8.3329],[37.8638,8.3368],[37.9288,8.3793],[37.989,8.3606],[38.0289,8.3914],[38.0675,8.3771],[38.1398,8.4105],[38.165,8.4091],[38.1809,8.394],[38.2184,8.4099],[38.2671,8.4077],[38.3123,8.371],[38.3079,8.3008],[38.3482,8.2554],[38.431,8.2999],[38.4787,8.4485],[38.5023,8.4451],[38.5277,8.4587],[38.5766,8.446],[38.5917,8.4271],[38.6176,8.4322],[38.6553,8.3957],[38.6681,8.3516],[38.6518,8.2862],[38.7168,8.2323],[38.7169,8.2206],[38.683,8.1915],[38.6853,8.1236],[38.6737,8.091],[38.636,8.1335],[38.5944,8.2613],[38.5616,8.2672],[38.5429,8.2472],[38.5434,8.227],[38.5881,8.1574],[38.5848,8.1092],[38.6227,8.0695],[38.6135,8.0444],[38.6285,8.0347],[38.5982,7.9917],[38.5639,7.8863],[38.5137,7.8501],[38.4933,7.7965],[38.4457,7.7607],[38.4395,7.72],[38.4133,7.6827],[38.4211,7.6255],[38.4019,7.5799],[38.4265,7.555],[38.4276,7.5159],[38.3421,7.4798],[38.3281,7.4629],[38.3197,7.4154],[38.2803,7.3818],[38.2824,7.3399],[38.266,7.3079],[38.0878,7.1961],[38.065,7.0446],[38.1179,6.9821],[38.1474,6.9787],[38.1946,7.0136],[38.2387,7.0213],[38.3227,7.163],[38.343,7.1657],[38.3789,7.131],[38.4609,7.1194],[38.4809,7.0916],[38.5469,7.0921],[38.5845,7.1275],[38.6312,7.1121],[38.647,7.0968],[38.6378,7.0673],[38.6817,7.0496],[38.6782,7.0066],[38.7113,7.0142],[38.7152,6.9926],[38.6956,6.9587],[38.7149,6.8618],[38.6407,6.8139],[38.6365,6.773],[38.7064,6.7433],[38.7431,6.7022],[38.8188,6.7049],[38.8386,6.6762],[38.9353,6.6569],[38.9503,6.6451],[38.9425,6.6116],[38.9605,6.6021],[39.0601,6.61],[39.0493,6.5711],[39.0534,6.5582],[39.0871,6.5464],[39.0975,6.5229],[39.0962,6.4734],[39.1282,6.3456],[39.1204,6.3003],[39.0868,6.2533],[39.114,6.1779],[39.1327,6.1601],[39.0353,6.1387],[38.9614,6.1606],[38.8749,6.3021],[38.7588,6.4103],[38.708,6.3937],[38.6623,6.4204],[38.6276,6.4183],[38.5674,6.4417],[38.4761,6.4316],[38.4419,6.4066],[38.4246,6.3668],[38.4355,6.2001],[38.3778,6.1658],[38.3147,6.0291],[38.2801,6.0076],[38.2725,5.9879],[38.2831,5.972],[38.3198,5.9764],[38.3284,5.9567],[38.3756,5.9444],[38.3969,5.9214],[38.3262,5.8701],[38.2713,5.8698],[38.2401,5.8457],[38.2088,5.8415],[38.2005,5.8661],[38.2156,5.8946],[38.2046,5.9363],[38.1818,5.943],[38.1512,6.0017],[38.1224,6.018],[38.1173,6.0515],[38.0807,6.1183],[38.0875,6.1623],[38.1031,6.1817],[38.1259,6.1564],[38.1422,6.1558],[38.1882,6.1835],[38.1987,6.2077],[38.1727,6.2566],[38.1892,6.3055],[38.2147,6.3315],[38.2891,6.3611],[38.2974,6.417],[38.2464,6.4695],[38.156,6.4405],[38.1401,6.5073],[38.1153,6.5008],[38.0916,6.5273],[38.0524,6.536],[38.0167,6.5769],[37.9535,6.5509],[37.8936,6.5973],[37.8154,6.5118],[37.8007,6.4795],[37.7983,6.4305],[37.8409,6.38],[37.853,6.3061],[37.8411,6.2495],[37.7789,6.1509],[37.7906,6.0507],[37.784,6.0119],[37.8045,5.9945],[37.8438,6.0123],[37.9048,5.9618],[37.9694,5.9573],[38.0207,5.7914],[38.0897,5.7469],[38.076,5.6903],[38.0088,5.6515],[37.9443,5.6408],[37.931,5.618],[37.9486,5.539],[37.9476,5.4756],[37.936,5.4244],[37.8972,5.3512],[37.9016,5.2462],[37.8535,5.236],[37.8109,5.2697],[37.7736,5.2847],[37.7479,5.278],[37.7017,5.3073],[37.675,5.309],[37.6475,5.3007],[37.6305,5.2674],[37.418,5.1679],[37.368,5.1565],[37.3415,5.161],[37.2932,5.1957],[37.2177,5.2141],[37.1826,5.1953],[37.113,5.1877],[36.9498,5.1961],[36.8938,5.1112],[36.8615,4.9802],[36.8555,4.7375],[36.8293,4.7106],[36.6472,4.7122],[36.6816,4.6057],[36.6583,4.5818],[36.7134,4.4407],[36.8396,4.4454],[37.0402,4.3632],[37.1245,4.2842],[37.2489,4.219],[37.901,3.7792],[38.0034,3.7237],[38.0457,3.6711],[38.1211,3.61],[38.1893,3.6195],[38.438,3.6028],[38.4496,3.628],[38.477,3.6124],[38.5182,3.6278],[38.5144,3.6485],[38.5336,3.6542],[38.554,3.6141],[38.5733,3.6049],[38.6106,3.6127],[38.6632,3.5964],[38.6787,3.6231],[38.7132,3.5706],[38.9085,3.5112],[38.9477,3.5144],[38.9635,3.5298],[39.0161,3.5143],[39.0937,3.5355],[39.2213,3.604],[39.2855,3.6246],[39.5005,3.9672],[39.4791,4.0418],[39.5296,4.1682],[39.5405,4.2366],[39.5866,4.298],[39.7468,4.668],[39.7444,4.7249],[39.7659,4.8483],[39.8137,5.0035],[39.9431,5.2864],[40.0345,5.3982],[40.0988,5.3662],[40.1753,5.3547],[40.5338,5.412],[40.6339,5.5314],[40.6805,5.542],[40.6952,5.5685],[40.7538,5.5957],[40.8331,5.6572],[40.9232,5.6847],[40.8757,5.8092],[40.8793,5.9888],[40.8673,6.1349],[40.8825,6.2456],[40.8576,6.3872],[40.8612,6.4375],[40.9009,6.5129],[41.0164,6.6458],[41.073,6.6956],[41.1319,6.6925],[41.2294,6.6243],[41.4387,6.5452],[41.5289,6.4662],[41.6206,6.363],[41.6342,6.3927],[41.6912,6.4307],[41.7588,6.5418],[41.8206,6.5717],[41.8546,6.5702],[41.8616,6.5366],[41.8889,6.5366],[42.0004,6.5911],[42.0001,6.6429],[42.0564,6.75],[42.0771,6.888],[42.1636,7.0083],[42.1585,7.0525],[42.2056,7.1422],[42.2108,7.2652],[42.2,7.2926],[41.897,7.4124],[41.868,7.5339],[41.958,7.7759],[41.9133,7.8455],[41.9272,8.0817],[41.9493,8.202],[42.028,8.3241],[42.0269,8.4269],[42.0706,8.4951],[42.2406,8.641],[42.264,8.637],[42.324,8.5379],[42.5211,8.4798],[42.5679,8.2567],[42.6169,8.1607],[42.6523,8.1308],[42.7025,8.1807],[42.7691,8.3643],[42.8998,8.4102],[42.9133,8.5232],[42.9062,8.5833],[42.8393,8.6655],[42.8329,8.6963],[42.8663,8.8262],[42.7316,8.9491],[42.6453,9.074],[42.6003,9.1072],[42.636,9.145],[42.6356,9.1595],[42.5845,9.2164],[42.5523,9.2876],[42.5572,9.3221],[42.5384,9.374],[42.6418,9.4485],[42.7772,9.5129],[42.8146,9.5736],[42.865,9.5876],[42.9219,9.5661],[42.9444,9.5885],[42.9696,9.5932],[42.9789,9.6296],[42.9518,9.6735],[42.936,9.6809],[42.9089,9.6511],[42.8547,9.6632],[42.7315,9.722],[42.695,9.7696],[42.6647,9.7775],[42.4999,9.722],[42.3407,9.7206],[42.2596,9.6526],[42.2214,9.6571],[42.1813,9.6453],[42.1258,9.6155],[42.1535,9.5574],[42.0757,9.4747],[42.0326,9.5054],[41.9834,9.5095],[41.9143,9.4735],[41.8606,9.489],[41.8161,9.4777],[41.7739,9.492],[41.7032,9.4677],[41.6551,9.4822],[41.6435,9.5161],[41.5415,9.5006],[41.4919,9.4584],[41.3096,9.5041],[41.2402,9.4998],[41.1463,9.4256],[41.0574,9.3921],[41.015,9.3582],[40.845,9.3058],[40.8134,9.3119],[40.7897,9.3879],[40.7985,9.3966],[40.8921,9.3905],[40.9284,9.4061],[40.9184,9.4228],[40.8631,9.464],[40.6994,9.4486],[40.6604,9.4053],[40.5293,9.3865],[40.4719,9.3558],[40.409,9.2822],[40.3279,9.1557],[40.2464,9.0759],[40.2387,8.9984],[40.1708,8.9655],[40.0954,8.8632],[40.0521,8.8417],[40.0113,8.8571],[40.052,8.9624],[40.0357,8.9955],[40.0004,9.0082],[39.9485,9.0046],[39.9527,9.031],[39.9196,9.0694],[39.9099,9.1328],[39.8993,9.14],[39.8183,9.1373]],[[38.8134,8.8411],[38.7814,8.837],[38.7738,8.8585],[38.7573,8.8543],[38.7464,8.8645],[38.7444,8.9036],[38.6402,8.9751],[38.6602,8.9864],[38.6528,9.0113],[38.6679,9.0111],[38.6862,9.0741],[38.7175,9.0888],[38.7721,9.0992],[38.7922,9.0787],[38.8691,9.0859],[38.902,9.0206],[38.8976,8.9381],[38.8564,8.9393],[38.8803,8.9194],[38.8696,8.8741],[38.8646,8.8839],[38.8268,8.8812],[38.8252,8.8424],[38.8134,8.8411]],[[36.2487,8.9746],[36.2229,8.9512],[36.1751,8.9805],[36.2218,8.9896],[36.2487,8.9746]],[[42.2538,9.1907],[42.2346,9.1869],[42.1984,9.2209],[42.1495,9.2073],[42.1133,9.2318],[42.0622,9.2275],[42.0714,9.305],[42.1301,9.3897],[42.1884,9.3627],[42.2539,9.3848],[42.2712,9.3627],[42.2503,9.271],[42.273,9.2167],[42.2538,9.1907]]]}},{"type":"Feature","properties":{"name":"SNNPR","code":"75662566B72302855928957","iso":"ETH"},"geometry":{"type":"Polygon","coordinates":[[[34.9857,6.3001],[34.9497,6.2533],[34.9668,6.2022],[34.9587,6.1212],[34.9661,6.0915],[34.988,6.0689],[35.0027,6.0039],[34.9883,5.9556],[34.998,5.9259],[34.9916,5.8967],[35.1218,5.6921],[35.122,5.6216],[35.301,5.4977],[35.305,5.459],[35.2858,5.3841],[35.3009,5.3338],[35.3354,5.3341],[35.4073,5.3611],[35.4804,5.4124],[35.5341,5.4188],[35.5794,5.4158],[35.6565,5.3823],[35.7412,5.3711],[35.8584,5.3108],[35.8536,5.2853],[35.823,5.2494],[35.8586,5.1659],[35.8085,5.0879],[35.7871,4.7329],[35.9661,4.513],[36.0498,4.4508],[36.2102,4.4463],[36.2449,4.4562],[36.2659,4.4451],[36.398,4.4406],[36.6411,4.4513],[36.7134,4.4407],[36.6583,4.5818],[36.6816,4.6057],[36.6472,4.7122],[36.8293,4.7106],[36.8555,4.7375],[36.8615,4.9802],[36.8938,5.1112],[36.9498,5.1961],[37.113,5.1877],[37.1826,5.1953],[37.2177,5.2141],[37.2932,5.1957],[37.3415,5.161],[37.368,5.1565],[37.418,5.1679],[37.6305,5.2674],[37.6475,5.3007],[37.675,5.309],[37.7017,5.3073],[37.7479,5.278],[37.7736,5.2847],[37.8109,5.2697],[37.8535,5.236],[37.9016,5.2462],[37.8972,5.3512],[37.936,5.4244],[37.9476,5.4756],[37.9486,5.539],[37.931,5.618],[37.9443,5.6408],[38.0088,5.6515],[38.076,5.6903],[38.0897,5.7469],[38.0207,5.7914],[37.9694,5.9573],[37.9048,5.9618],[37.8438,6.0123],[37.8045,5.9945],[37.784,6.0119],[37.7906,6.0507],[37.7789,6.1509],[37.8411,6.2495],[37.853,6.3061],[37.8409,6.38],[37.7983,6.4305],[37.8007,6.4795],[37.8723,6.5835],[37.8936,6.5973],[37.9134,6.5919],[37.9335,6.5585],[37.9535,6.5509],[38.0167,6.5769],[38.0524,6.536],[38.0916,6.5273],[38.1153,6.5008],[38.1401,6.5073],[38.1505,6.4979],[38.1443,6.4595],[38.156,6.4405],[38.2464,6.4695],[38.2974,6.417],[38.2891,6.3611],[38.2147,6.3315],[38.1892,6.3055],[38.1727,6.2566],[38.1987,6.2077],[38.1882,6.1835],[38.1422,6.1558],[38.1259,6.1564],[38.1031,6.1817],[38.0875,6.1623],[38.0807,6.1183],[38.1173,6.0515],[38.1224,6.018],[38.1512,6.0017],[38.1818,5.943],[38.2046,5.9363],[38.2156,5.8946],[38.2005,5.8661],[38.2088,5.8415],[38.2401,5.8457],[38.2713,5.8698],[38.3262,5.8701],[38.3969,5.9214],[38.3756,5.9444],[38.3284,5.9567],[38.3198,5.9764],[38.2831,5.972],[38.2725,5.9879],[38.2801,6.0076],[38.3147,6.0291],[38.3778,6.1658],[38.4355,6.2001],[38.4246,6.3668],[38.4419,6.4066],[38.4761,6.4316],[38.5674,6.4417],[38.6276,6.4183],[38.6623,6.4204],[38.708,6.3937],[38.7588,6.4103],[38.8749,6.3021],[38.9614,6.1606],[39.0353,6.1387],[39.1327,6.1601],[39.114,6.1779],[39.0868,6.2533],[39.1204,6.3003],[39.1282,6.3456],[39.0962,6.4734],[39.0975,6.5229],[39.0871,6.5464],[39.0534,6.5582],[39.0493,6.5711],[39.0601,6.61],[38.9605,6.6021],[38.9425,6.6116],[38.9503,6.6451],[38.9353,6.6569],[38.8386,6.6762],[38.8188,6.7049],[38.7431,6.7022],[38.7064,6.7433],[38.6365,6.773],[38.6407,6.8139],[38.7149,6.8618],[38.6956,6.9587],[38.7152,6.9926],[38.7113,7.0142],[38.6782,7.0066],[38.6817,7.0496],[38.6378,7.0673],[38.647,7.0968],[38.6312,7.1121],[38.5845,7.1275],[38.5469,7.0921],[38.4809,7.0916],[38.4609,7.1194],[38.3789,7.131],[38.343,7.1657],[38.3227,7.163],[38.2387,7.0213],[38.1946,7.0136],[38.1474,6.9787],[38.1179,6.9821],[38.065,7.0446],[38.0878,7.1961],[38.266,7.3079],[38.2824,7.3399],[38.2803,7.3818],[38.3197,7.4154],[38.3281,7.4629],[38.3421,7.4798],[38.4276,7.5159],[38.4265,7.555],[38.4019,7.5799],[38.4211,7.6255],[38.4133,7.6827],[38.4395,7.72],[38.4457,7.7607],[38.4933,7.7965],[38.5137,7.8501],[38.5639,7.8863],[38.5982,7.9917],[38.6285,8.0347],[38.6135,8.0444],[38.6227,8.0695],[38.5848,8.1092],[38.5881,8.1574],[38.5434,8.227],[38.5429,8.2472],[38.5616,8.2672],[38.5944,8.2613],[38.636,8.1335],[38.6737,8.091],[38.6853,8.1236],[38.683,8.1915],[38.7169,8.2206],[38.7168,8.2323],[38.6518,8.2862],[38.6681,8.3516],[38.6553,8.3957],[38.6176,8.4322],[38.5917,8.4271],[38.5766,8.446],[38.5277,8.4587],[38.5023,8.4451],[38.4787,8.4485],[38.431,8.2999],[38.3482,8.2554],[38.3079,8.3008],[38.3123,8.371],[38.2671,8.4077],[38.2184,8.4099],[38.1809,8.394],[38.165,8.4091],[38.1398,8.4105],[38.0675,8.3771],[38.0289,8.3914],[37.989,8.3606],[37.9288,8.3793],[37.8638,8.3368],[37.8171,8.3329],[37.7488,8.3529],[37.7054,8.3381],[37.6669,8.3846],[37.6128,8.3552],[37.5588,8.4266],[37.513,8.4181],[37.4722,8.3518],[37.4649,8.2835],[37.5181,8.2375],[37.6225,8.2102],[37.5929,8.0943],[37.6036,7.966],[37.5583,7.9495],[37.5401,7.955],[37.4916,8.0182],[37.3926,7.994],[37.3906,7.9631],[37.4375,7.9197],[37.4057,7.8284],[37.402,7.6838],[37.4459,7.5655],[37.408,7.4934],[37.3911,7.4036],[37.3805,7.3812],[37.332,7.3446],[37.2631,7.3266],[37.155,7.2419],[37.1056,7.2257],[37.0403,7.2412],[36.9654,7.2259],[36.9563,7.2617],[36.8799,7.3309],[36.8417,7.3272],[36.7919,7.2535],[36.6734,7.3292],[36.6337,7.3791],[36.5991,7.3702],[36.4847,7.4172],[36.3754,7.4168],[36.3494,7.4466],[36.3025,7.4511],[36.2255,7.4856],[36.1573,7.5438],[36.0458,7.5667],[36.0333,7.5926],[36.0527,7.6551],[35.998,7.7463],[35.8494,7.8401],[35.8876,7.8937],[35.9059,7.9472],[35.8735,8.0599],[35.8616,8.0784],[35.7665,8.0824],[35.7236,8.0236],[35.7393,7.99],[35.796,7.9492],[35.8005,7.9338],[35.7403,7.8678],[35.7172,7.8566],[35.6945,7.8655],[35.619,7.8159],[35.5904,7.8098],[35.5452,7.8321],[35.5215,7.8968],[35.4751,7.8747],[35.4343,7.8839],[35.4013,7.8307],[35.3588,7.8441],[35.3506,7.836],[35.3416,7.7778],[35.2763,7.7472],[35.2235,7.7043],[35.2131,7.6527],[35.1168,7.6463],[35.1164,7.632],[35.1464,7.6314],[35.1671,7.616],[35.1727,7.5339],[35.1388,7.5133],[35.1232,7.4798],[35.19,7.4568],[35.2103,7.4731],[35.3103,7.4804],[35.3744,7.4292],[35.3686,7.4158],[35.3931,7.3974],[35.3757,7.2912],[35.3466,7.2402],[35.3736,7.2322],[35.3347,7.1811],[35.3811,7.124],[35.3315,7.1283],[35.3006,7.117],[35.2654,7.1374],[35.2352,7.1391],[35.2053,7.1008],[35.115,7.1034],[35.0845,7.1261],[35.0547,7.1855],[35.0216,7.187],[34.9786,7.2145],[34.9709,7.2352],[34.9432,7.1941],[34.8988,7.186],[34.8934,7.0927],[34.8778,7.071],[34.8851,7.032],[34.9028,7.0321],[34.9121,6.9894],[34.9986,6.8941],[34.9931,6.8653],[34.9697,6.8605],[34.9344,6.7975],[35.0806,6.812],[35.1803,6.7286],[35.1984,6.6815],[35.1883,6.6578],[35.1961,6.5987],[35.1863,6.491],[35.1746,6.4678],[35.2002,6.4122],[35.1793,6.3806],[35.1323,6.3968],[35.1069,6.3202],[35.039,6.3059],[35.012,6.2816],[34.9857,6.3001]]]}},{"type":"Feature","properties":{"name":"Somali","code":"75662566B32417772325798","iso":"ETH"},"geometry":{"type":"Polygon","coordinates":[[[40.6944,9.4454],[40.7841,9.4489],[40.8432,9.4646],[40.8909,9.4496],[40.9284,9.4061],[40.8921,9.3905],[40.7985,9.3966],[40.7897,9.3879],[40.8134,9.3119],[40.845,9.3058],[41.015,9.3582],[41.0574,9.3921],[41.1463,9.4256],[41.2402,9.4998],[41.3096,9.5041],[41.4919,9.4584],[41.5415,9.5006],[41.6435,9.5161],[41.6551,9.4822],[41.6711,9.4716],[41.7229,9.4685],[41.7355,9.4725],[41.7289,9.49],[41.7495,9.6373],[41.7747,9.6547],[41.8096,9.6415],[41.8741,9.6849],[41.907,9.6803],[42.0317,9.6195],[42.1867,9.7745],[42.2143,9.7847],[42.2519,9.7845],[42.3407,9.7206],[42.3775,9.7148],[42.4999,9.722],[42.569,9.7379],[42.6484,9.7762],[42.682,9.7752],[42.7315,9.722],[42.8547,9.6632],[42.9089,9.6511],[42.936,9.6809],[42.9789,9.6296],[42.9696,9.5932],[42.9098,9.5642],[42.865,9.5876],[42.8146,9.5736],[42.7772,9.5129],[42.6418,9.4485],[42.5384,9.374],[42.5572,9.3221],[42.5523,9.2876],[42.5845,9.2164],[42.6356,9.1595],[42.636,9.145],[42.6003,9.1072],[42.6453,9.074],[42.7316,8.9491],[42.8663,8.8262],[42.8329,8.6963],[42.8393,8.6655],[42.9062,8.5833],[42.9133,8.5232],[42.8998,8.4102],[42.7691,8.3643],[42.7025,8.1807],[42.6523,8.1308],[42.6169,8.1607],[42.579,8.2296],[42.5307,8.4559],[42.5035,8.4932],[42.324,8.5379],[42.264,8.637],[42.2406,8.641],[42.0706,8.4951],[42.0269,8.4269],[42.028,8.3241],[41.9493,8.202],[41.9272,8.0817],[41.9133,7.8455],[41.958,7.7759],[41.868,7.5339],[41.897,7.4124],[42.2,7.2926],[42.2108,7.2281],[42.2056,7.1422],[42.1585,7.0525],[42.1636,7.0083],[42.0771,6.888],[42.0564,6.75],[42.0001,6.6429],[42.0049,6.5989],[41.8889,6.5366],[41.8616,6.5366],[41.8546,6.5702],[41.8206,6.5717],[41.7588,6.5418],[41.6912,6.4307],[41.6342,6.3927],[41.6206,6.363],[41.5289,6.4662],[41.4387,6.5452],[41.2294,6.6243],[41.1319,6.6925],[41.073,6.6956],[40.9009,6.5129],[40.8612,6.4375],[40.8576,6.3872],[40.8825,6.2456],[40.8673,6.1349],[40.8793,5.9888],[40.8757,5.8092],[40.9232,5.6847],[40.8331,5.6572],[40.7538,5.5957],[40.6952,5.5685],[40.6805,5.542],[40.6339,5.5314],[40.5338,5.412],[40.1753,5.3547],[40.0988,5.3662],[40.0345,5.3982],[39.9431,5.2864],[39.8137,5.0035],[39.7659,4.8483],[39.7444,4.7249],[39.7468,4.668],[39.5866,4.298],[39.5405,4.2366],[39.5296,4.1682],[39.4791,4.0418],[39.5005,3.9672],[39.2855,3.6246],[39.2213,3.604],[39.0937,3.5355],[39.2013,3.4806],[39.3292,3.4797],[39.3334,3.4678],[39.4945,3.459],[39.5283,3.4004],[39.5597,3.414],[39.5827,3.4797],[39.7719,3.6699],[39.8627,3.8656],[40.1916,4.0376],[40.3854,4.1025],[40.7761,4.2787],[40.9378,4.1497],[41.0579,4.0279],[41.173,3.9632],[41.216,3.9764],[41.3329,3.9607],[41.5567,3.9572],[41.9016,3.9868],[41.9834,4.0505],[42.0146,4.0993],[42.0791,4.1327],[42.2048,4.1629],[42.3971,4.1648],[42.5468,4.1878],[42.7567,4.252],[42.8163,4.2859],[42.9489,4.3966],[43.0086,4.4895],[43.034,4.556],[43.1635,4.6596],[43.3984,4.7855],[43.5527,4.8327],[43.8072,4.9002],[44.0299,4.9411],[44.3843,4.9378],[44.6792,4.9145],[44.9041,4.9141],[45.0026,4.9336],[47.9593,8.0137],[47.0003,7.9862],[44.1573,8.939],[44.0622,8.987],[44.0193,9.0255],[43.9765,9.038],[43.9595,9.066],[43.805,9.1984],[43.6832,9.2801],[43.6254,9.3471],[43.5472,9.4019],[43.4978,9.4091],[43.4834,9.4363],[43.4164,9.4778],[43.4064,9.5118],[43.3563,9.5653],[43.2759,9.702],[43.2751,9.7423],[43.2506,9.792],[43.2523,9.8292],[43.2007,9.8814],[43.0992,9.9224],[43.082,9.9398],[43.0639,9.9975],[42.857,10.2265],[42.8054,10.3157],[42.7169,10.5321],[42.7078,10.6199],[42.7975,10.7929],[42.934,10.9592],[42.9444,10.9863],[42.8531,11.0034],[42.7605,11.0682],[42.702,11.0821],[42.5797,11.0681],[42.4053,11.0055],[42.2387,11.0012],[42.0793,10.9822],[42.0355,10.9637],[41.905,10.9533],[41.7698,10.9921],[41.7185,10.9656],[41.2691,10.9587],[41.2416,10.9222],[41.221,10.8353],[41.0782,10.682],[41.0879,10.6015],[40.9374,10.0362],[40.9667,9.9726],[40.9998,9.9688],[41.0205,9.9498],[40.8482,9.7913],[40.7496,9.6523],[40.6999,9.5338],[40.6944,9.4454]]]}},{"type":"Feature","properties":{"name":"Tigray","code":"75662566B45163836206557","iso":"ETH"},"geometry":{"type":"Polygon","coordinates":[[[39.9851,14.4329],[39.9817,14.4414],[39.9507,14.4112],[39.9246,14.4156],[39.8575,14.4726],[39.8141,14.4829],[39.7677,14.5413],[39.7102,14.5519],[39.6812,14.5893],[39.6386,14.599],[39.6236,14.6365],[39.5921,14.6627],[39.5035,14.6776],[39.4784,14.6042],[39.5013,14.5444],[39.494,14.5094],[39.4735,14.4988],[39.4702,14.5162],[39.453,14.5115],[39.4541,14.5274],[39.4363,14.5198],[39.4291,14.5312],[39.3696,14.5389],[39.372,14.4952],[39.3409,14.5119],[39.3249,14.4988],[39.3309,14.481],[39.3147,14.4795],[39.3208,14.4425],[39.2986,14.4368],[39.3017,14.412],[39.2616,14.3937],[39.2506,14.3928],[39.2094,14.4936],[39.2323,14.5197],[39.2395,14.5664],[39.2224,14.573],[39.2012,14.6116],[39.1255,14.614],[39.0816,14.6371],[39.0244,14.6329],[38.9756,14.5422],[38.9381,14.5327],[38.9057,14.5018],[38.8493,14.4963],[38.7949,14.4638],[38.7038,14.4659],[38.6166,14.4341],[38.5952,14.4392],[38.5167,14.4057],[38.4845,14.4188],[38.4483,14.411],[38.4216,14.4643],[38.3631,14.4873],[38.3161,14.5512],[38.3088,14.5857],[38.2654,14.6147],[38.2619,14.6677],[38.2291,14.6863],[38.1882,14.6897],[38.1808,14.6771],[38.1401,14.6679],[38.0924,14.7072],[38.0412,14.7172],[38.0191,14.7372],[38.0214,14.7613],[37.995,14.774],[37.9888,14.8085],[37.9753,14.8022],[37.9719,14.831],[37.9411,14.846],[37.8765,14.8004],[37.8503,14.8131],[37.8335,14.8057],[37.7827,14.7354],[37.7744,14.631],[37.7424,14.643],[37.6716,14.5047],[37.5962,14.4782],[37.5734,14.456],[37.5496,14.4467],[37.4898,14.4737],[37.4306,14.4808],[37.4042,14.4719],[37.3779,14.4291],[37.3449,14.4096],[37.3001,14.4452],[37.2487,14.4301],[37.2128,14.4375],[37.1297,14.3996],[37.1004,14.3339],[37.0946,14.2723],[37.0444,14.267],[37.0183,14.2512],[36.9911,14.2604],[36.97,14.2877],[36.8641,14.3184],[36.833,14.3075],[36.7473,14.3183],[36.6866,14.2965],[36.6296,14.3082],[36.619,14.2935],[36.5535,14.2774],[36.5625,14.2612],[36.5439,14.2513],[36.5413,14.1987],[36.4636,13.9716],[36.4999,13.8474],[36.452,13.7693],[36.4846,13.7277],[36.4766,13.7011],[36.5052,13.6658],[36.5269,13.6071],[36.5204,13.5862],[36.5555,13.5719],[36.5655,13.5337],[36.6019,13.4991],[36.5751,13.4785],[36.5672,13.4469],[36.6056,13.3783],[36.6366,13.3831],[36.6654,13.3672],[36.6859,13.3755],[36.7355,13.3637],[36.7678,13.3788],[36.8256,13.4489],[36.8963,13.4076],[36.92,13.3775],[37.0358,13.3539],[37.0792,13.3125],[37.0996,13.317],[37.1586,13.2985],[37.2055,13.2564],[37.2513,13.2957],[37.2815,13.2856],[37.3226,13.2979],[37.3661,13.3605],[37.3966,13.3584],[37.4166,13.3746],[37.4413,13.3548],[37.5186,13.3671],[37.6379,13.4146],[37.695,13.4731],[37.7153,13.5427],[37.7608,13.5916],[37.7769,13.6342],[37.785,13.5884],[37.7699,13.5633],[37.7935,13.5213],[37.8098,13.5198],[37.8177,13.4638],[37.8672,13.4758],[37.9049,13.4477],[37.9473,13.4671],[37.9692,13.4944],[38.002,13.5018],[38.0603,13.4679],[38.1218,13.507],[38.146,13.4723],[38.1746,13.4941],[38.2017,13.4808],[38.2488,13.5023],[38.26,13.4869],[38.2798,13.4862],[38.3207,13.5028],[38.3287,13.551],[38.342,13.5383],[38.3608,13.5537],[38.3807,13.5451],[38.3921,13.554],[38.4074,13.5401],[38.4417,13.5851],[38.4519,13.5852],[38.4436,13.5612],[38.4545,13.5576],[38.4661,13.5683],[38.4785,13.553],[38.5548,13.551],[38.5433,13.5265],[38.4977,13.5074],[38.4991,13.4851],[38.4682,13.4856],[38.4618,13.4602],[38.5629,13.484],[38.591,13.5068],[38.6149,13.4913],[38.663,13.5318],[38.6773,13.4841],[38.6341,13.4734],[38.6166,13.4521],[38.6187,13.429],[38.6232,13.4119],[38.6495,13.3972],[38.7065,13.39],[38.7227,13.4087],[38.734,13.3995],[38.7427,13.3405],[38.7324,13.263],[38.8015,13.248],[38.864,13.2102],[38.9526,13.2382],[38.9567,13.2127],[38.9982,13.2041],[39.0425,13.1622],[39.0378,13.1349],[38.9795,13.0997],[39.0052,13.0241],[39.0011,13.0041],[39.0545,12.9914],[39.0837,12.96],[39.1427,12.9565],[39.1937,12.9288],[39.2596,12.9154],[39.2799,12.857],[39.2958,12.8716],[39.3077,12.867],[39.311,12.8529],[39.2785,12.8267],[39.3081,12.8124],[39.3045,12.794],[39.2766,12.7886],[39.2685,12.7721],[39.2797,12.7593],[39.2704,12.7239],[39.2864,12.7051],[39.2813,12.6887],[39.1753,12.6442],[39.2306,12.5018],[39.252,12.3449],[39.2917,12.2968],[39.3226,12.3056],[39.4204,12.2974],[39.4564,12.3258],[39.5083,12.3336],[39.5235,12.3272],[39.5441,12.2658],[39.5734,12.2567],[39.6151,12.2765],[39.6331,12.3084],[39.7071,12.307],[39.7594,12.3207],[39.7624,12.304],[39.8185,12.3248],[39.8317,12.3582],[39.8158,12.4078],[39.864,12.4641],[39.8834,12.4584],[39.8672,12.4734],[39.8819,12.4852],[39.8643,12.507],[39.8641,12.5322],[39.8532,12.5482],[39.8336,12.5506],[39.8076,12.597],[39.8334,12.6351],[39.821,12.6596],[39.827,12.6945],[39.8895,12.7565],[39.9789,12.7929],[39.9261,12.8945],[39.8632,12.9627],[39.8639,13.0204],[39.7866,13.2634],[39.7682,13.2859],[39.7206,13.2952],[39.7426,13.352],[39.7304,13.3795],[39.7466,13.3748],[39.7204,13.4763],[39.7403,13.5638],[39.7639,13.5719],[39.7947,13.5564],[39.8648,13.5488],[39.8849,13.7489],[39.8541,13.7671],[39.8532,13.7955],[39.8346,13.822],[39.8431,13.839],[39.8299,13.8691],[39.8342,13.919],[39.8185,13.9432],[39.8025,13.9462],[39.8301,13.9749],[39.86,13.9664],[39.8868,14.0128],[39.8449,14.0509],[39.8385,14.1548],[39.768,14.1406],[39.6829,14.1653],[39.6508,14.1892],[39.6866,14.2168],[39.695,14.2419],[39.7582,14.2404],[39.7585,14.2778],[39.7271,14.3035],[39.7801,14.3311],[39.7729,14.3744],[39.8018,14.3878],[39.854,14.3677],[39.9512,14.361],[39.9917,14.3825],[39.9851,14.4329]]]}}]}