{"type":"FeatureCollection","features":[{"type":"Feature","properties":{"name":"Woleu-Ntem","code":"98808126B17543062715179","iso":"GAB"},"geometry":{"type":"Polygon","coordinates":[[[13.1513,1.2634],[13.1513,1.3204],[13.2068,1.3331],[13.2369,1.3584],[13.2401,1.4226],[13.1229,1.5826],[13.1339,1.7705],[13.1764,1.8861],[13.1385,1.906],[13.1605,1.9222],[13.1545,1.9622],[13.2057,2.0102],[13.2092,2.0547],[13.2772,2.1191],[13.2717,2.2051],[13.2855,2.2223],[13.2649,2.2558],[13.1324,2.2777],[13.0903,2.2573],[13.0826,2.2407],[12.9575,2.2535],[12.8069,2.2509],[12.7316,2.2356],[12.5379,2.2777],[12.4673,2.2638],[12.2978,2.2915],[12.213,2.2673],[12.1899,2.2887],[11.7377,2.28],[11.6802,2.319],[11.6353,2.3155],[11.6126,2.3008],[11.5834,2.3122],[11.3603,2.3018],[11.3345,2.1315],[11.3496,0.9952],[10.4189,0.9897],[10.4219,0.8279],[10.3757,0.7936],[10.3698,0.6924],[10.3846,0.6835],[10.3921,0.6358],[10.4338,0.6388],[10.9401,0.8264],[10.9594,0.8234],[10.9654,0.6343],[10.9386,0.6031],[10.9207,0.5301],[10.885,0.5003],[10.8507,0.3484],[10.8224,0.3201],[10.8448,0.2725],[10.8299,0.2457],[10.8343,0.2248],[11.5646,0.2398],[11.5625,0.2714],[11.4721,0.3471],[11.4742,0.3619],[11.8697,0.6269],[12.2084,0.873],[12.2105,1.0077],[12.3524,1.2554],[13.1513,1.2634]]]}},{"type":"Feature","properties":{"name":"Estuaire","code":"98808126B6174087794558","iso":"GAB"},"geometry":{"type":"Polygon","coordinates":[[[10.4189,0.9897],[10.0065,0.9868],[10.0051,0.9201],[9.9359,0.9101],[9.8977,0.9292],[9.871,0.975],[9.8001,0.975],[9.7774,1.0248],[9.6733,1.0248],[9.6401,0.9946],[9.5887,0.9931],[9.5707,0.9621],[9.5716,0.9011],[9.6234,0.8021],[9.6362,0.5626],[9.6352,0.523],[9.6181,0.51],[9.6181,0.4588],[9.5806,0.4663],[9.571,0.5593],[9.4897,0.5882],[9.4908,0.6011],[9.538,0.6085],[9.5231,0.6423],[9.314,0.5792],[9.3235,0.5041],[9.372,0.5077],[9.4009,0.4727],[9.4813,0.3413],[9.5001,0.2869],[9.5275,0.2984],[9.5488,0.2871],[9.5714,0.3197],[9.5839,0.3147],[9.574,0.2802],[9.6589,0.2246],[9.7193,0.2056],[9.7281,0.1868],[9.7797,0.1672],[9.8938,0.1841],[9.931,0.1724],[9.8803,0.1489],[9.8425,0.1017],[9.7656,0.0854],[9.6906,0.0942],[9.6522,0.1238],[9.5895,0.0872],[9.5685,0.136],[9.525,0.1447],[9.5128,0.1395],[9.5075,0.0819],[9.4953,0.068],[9.4744,0.0732],[9.4604,0.1587],[9.4029,0.1569],[9.382,0.1778],[9.3663,0.3208],[9.3227,0.3104],[9.3278,0.1785],[9.3444,0.1544],[9.3537,0.0158],[9.3505,-0.1671],[9.3222,-0.227],[9.3206,-0.3264],[9.3535,-0.3266],[9.3562,-0.4288],[9.4128,-0.4799],[9.4447,-0.5319],[9.525,-0.5374],[9.5569,-0.5967],[9.5925,-0.5985],[9.5825,-0.4416],[9.6527,-0.4343],[9.6543,-0.4159],[9.7347,-0.4132],[9.7354,-0.3912],[9.8536,-0.3891],[9.9011,-0.3266],[9.9368,-0.33],[10.0069,-0.3657],[10.0083,-0.4441],[10.1542,-0.382],[10.3496,-0.2139],[10.4097,-0.196],[10.4772,-0.1444],[10.5554,-0.06],[10.5573,0.0057],[10.5916,0.0143],[10.602,0.0486],[10.6554,0.06],[10.6354,0.121],[10.6688,0.163],[10.6697,0.1963],[10.8343,0.2248],[10.8299,0.2457],[10.8448,0.2725],[10.8224,0.3201],[10.8507,0.3484],[10.885,0.5003],[10.9207,0.5301],[10.9386,0.6031],[10.9654,0.6343],[10.9594,0.8234],[10.9401,0.8264],[10.4338,0.6388],[10.3921,0.6358],[10.3846,0.6835],[10.3698,0.6924],[10.3683,0.7415],[10.3757,0.7936],[10.4219,0.8279],[10.4189,0.9897]]]}},{"type":"Feature","properties":{"name":"Moyen-Ogooué","code":"98808126B18014785017467","iso":"GAB"},"geometry":{"type":"Polygon","coordinates":[[[10.8343,0.2248],[10.6697,0.1963],[10.6688,0.163],[10.6354,0.121],[10.6554,0.06],[10.602,0.0486],[10.5916,0.0143],[10.5573,0.0057],[10.5554,-0.06],[10.4772,-0.1444],[10.4097,-0.196],[10.3496,-0.2139],[10.1542,-0.382],[10.0083,-0.4441],[10.0069,-0.3657],[9.9368,-0.33],[9.9011,-0.3266],[9.8536,-0.3891],[9.7354,-0.3912],[9.7347,-0.4132],[9.6543,-0.4159],[9.6527,-0.4343],[9.5825,-0.4416],[9.5933,-0.649],[9.6114,-0.6762],[9.6114,-0.7199],[9.6491,-0.809],[9.6506,-0.8618],[9.6597,-0.8754],[9.7276,-0.8935],[9.7623,-0.9388],[9.937,-0.9488],[9.961,-0.9746],[9.9628,-1.0835],[9.9259,-1.1629],[9.9222,-1.2072],[9.961,-1.2072],[9.9924,-1.2644],[10.0164,-1.2773],[10.1031,-1.2755],[10.1511,-1.2183],[10.2084,-1.1777],[10.2471,-1.1684],[10.3246,-1.1814],[10.3505,-1.1629],[10.3726,-1.1758],[10.3985,-1.1666],[10.4446,-1.0171],[10.5277,-0.9433],[10.5319,-0.8292],[10.6221,-0.7711],[10.6682,-0.703],[10.6702,-0.643],[10.7443,-0.6329],[10.7763,-0.665],[10.7983,-0.669],[10.8284,-0.6349],[10.8765,-0.647],[10.9386,-0.6049],[11.1349,-0.6009],[11.1469,-0.5869],[11.1849,-0.5829],[11.221,-0.6009],[11.231,-0.6249],[11.3031,-0.689],[11.3712,-0.7251],[11.4714,-0.7511],[11.5535,-0.7511],[11.5615,-0.7391],[11.5234,-0.645],[11.5174,-0.5668],[11.4393,-0.5108],[11.4233,-0.3866],[11.3552,-0.3025],[11.3392,-0.1362],[11.2871,-0.0941],[11.3231,0.032],[11.4153,0.0661],[11.4694,0.1102],[11.5655,0.1482],[11.5835,0.1723],[11.5855,0.2384],[10.8343,0.2248]]]}},{"type":"Feature","properties":{"name":"Ogooué-Lolo","code":"98808126B26189030995048","iso":"GAB"},"geometry":{"type":"Polygon","coordinates":[[[13.2888,0.0763],[13.254,0.0813],[13.2485,0.0948],[13.1835,0.1002],[13.1293,0.13],[13.1049,0.2276],[13.0779,0.2465],[12.9993,0.2493],[12.9559,0.2899],[12.9261,0.252],[12.8665,0.2438],[12.8042,0.2547],[12.7446,0.3224],[12.6742,0.2818],[12.6417,0.2818],[12.62,0.3034],[12.5983,0.3034],[12.484,-0.3048],[12.4501,-0.4191],[11.5535,-0.7511],[11.5527,-0.7899],[11.5138,-0.8377],[11.5068,-0.9295],[11.5191,-0.9826],[11.5598,-1.0303],[11.5651,-1.1204],[11.6693,-1.1292],[11.7171,-1.0903],[11.7789,-1.078],[11.7825,-1.1646],[11.8478,-1.2405],[11.9115,-1.2953],[12.0278,-1.3621],[12.0591,-1.4559],[12.063,-1.538],[12.0376,-1.6357],[12.0557,-1.6641],[12.0971,-1.6677],[12.1187,-1.6875],[12.1656,-1.7649],[12.2304,-1.8171],[12.3763,-1.8568],[12.4646,-1.855],[12.5309,-1.9083],[12.5497,-1.894],[12.5444,-1.8543],[12.5839,-1.8408],[12.6151,-1.8065],[12.6546,-1.8158],[12.6723,-1.8054],[12.6962,-1.8299],[12.7794,-1.8617],[12.7946,-1.7428],[12.8237,-1.6543],[12.8583,-1.6225],[12.8638,-1.5782],[12.9067,-1.5381],[12.9274,-1.4496],[12.9828,-1.3777],[13.0588,-1.3694],[13.0942,-1.3186],[13.1325,-1.3125],[13.1325,-1.2529],[13.1891,-1.2498],[13.1768,-1.0953],[13.1998,-1.0861],[13.2671,-1.129],[13.3176,-1.0892],[13.5195,-0.797],[13.5823,-0.7245],[13.3397,-0.2738],[13.3305,-0.2186],[13.273,-0.2002],[13.2523,-0.1059],[13.2109,-0.0759],[13.2155,-0.0506],[13.2868,0.023],[13.2888,0.0763]]]}},{"type":"Feature","properties":{"name":"Haut-Ogooué","code":"98808126B76399587683442","iso":"GAB"},"geometry":{"type":"Polygon","coordinates":[[[12.7794,-1.8617],[12.8489,-1.8932],[12.8493,-1.915],[12.866,-1.9171],[12.9027,-2.0514],[12.9261,-2.068],[12.9208,-2.081],[12.9548,-2.1748],[12.9865,-2.1746],[13.0277,-2.2185],[13.0572,-2.2607],[13.0609,-2.3188],[13.0979,-2.3178],[13.1677,-2.3557],[13.2462,-2.3403],[13.2732,-2.3583],[13.3671,-2.3754],[13.4033,-2.4066],[13.5149,-2.4087],[13.5991,-2.3236],[13.6329,-2.3061],[13.6505,-2.2682],[13.7148,-2.2156],[13.7505,-2.1682],[13.7505,-2.1304],[13.7759,-2.0844],[13.7937,-2.0783],[13.8457,-2.1458],[13.8686,-2.2128],[13.9069,-2.2594],[13.9079,-2.2888],[13.9575,-2.3295],[13.944,-2.3503],[13.9667,-2.3794],[13.9258,-2.4186],[13.9144,-2.4462],[13.9595,-2.464],[14.0166,-2.4467],[14.035,-2.4742],[14.099,-2.4542],[14.1308,-2.4766],[14.1369,-2.4511],[14.1607,-2.428],[14.1757,-2.3644],[14.2716,-2.3218],[14.2134,-2.2782],[14.2137,-2.2438],[14.1771,-2.2135],[14.1782,-2.1994],[14.2337,-2.1569],[14.2711,-2.1008],[14.2692,-1.925],[14.4496,-1.8652],[14.4377,-1.8261],[14.4509,-1.8066],[14.4432,-1.7287],[14.4687,-1.6752],[14.4491,-1.6605],[14.4344,-1.6184],[14.4021,-1.6015],[14.4002,-1.5828],[14.4208,-1.5547],[14.4395,-1.5528],[14.4451,-1.5248],[14.4919,-1.5098],[14.4788,-1.4593],[14.4825,-1.4126],[14.5021,-1.3786],[14.4675,-1.3366],[14.4715,-1.3186],[14.4538,-1.2929],[14.4958,-1.2452],[14.4977,-1.1987],[14.4721,-1.1469],[14.471,-1.087],[14.447,-1.029],[14.4323,-1.0206],[14.4214,-0.9668],[14.4423,-0.8975],[14.4366,-0.8467],[14.476,-0.7996],[14.4648,-0.7816],[14.4787,-0.7479],[14.4805,-0.6865],[14.5148,-0.637],[14.5218,-0.5713],[14.443,-0.4856],[14.376,-0.4618],[14.2132,-0.4545],[14.2025,-0.4209],[14.1872,-0.4127],[14.1661,-0.2959],[14.15,-0.2819],[14.0041,-0.2528],[13.9823,-0.2515],[13.9495,-0.2771],[13.9166,-0.2637],[13.8493,-0.1754],[13.8493,-0.1403],[13.8916,-0.0521],[13.8121,-0.0244],[13.7525,0.0217],[13.6983,0.0488],[13.6224,0.0461],[13.5601,0.0759],[13.2888,0.0763],[13.2868,0.023],[13.2155,-0.0506],[13.2109,-0.0759],[13.2523,-0.1059],[13.273,-0.2002],[13.3305,-0.2186],[13.3397,-0.2738],[13.5823,-0.7245],[13.5195,-0.797],[13.3176,-1.0892],[13.2671,-1.129],[13.1998,-1.0861],[13.1768,-1.0953],[13.1891,-1.2498],[13.1325,-1.2529],[13.1325,-1.3125],[13.0942,-1.3186],[13.0588,-1.3694],[12.9828,-1.3777],[12.9274,-1.4496],[12.9067,-1.5381],[12.8638,-1.5782],[12.8583,-1.6225],[12.8237,-1.6543],[12.7946,-1.7428],[12.7794,-1.8617]]]}},{"type":"Feature","properties":{"name":"Ngounié","code":"98808126B87109284652443","iso":"GAB"},"geometry":{"type":"Polygon","coordinates":[[[10.0761,-1.28],[10.0853,-1.347],[10.0082,-1.4132],[9.9849,-1.4634],[10.0064,-1.5475],[9.9921,-1.6245],[9.9366,-1.6568],[9.8954,-1.7284],[9.9008,-1.7517],[10.0029,-1.8698],[10.1193,-1.8788],[10.1695,-1.9146],[10.2769,-1.9432],[10.2877,-1.9611],[10.3593,-1.9665],[10.3952,-1.9486],[10.4829,-1.988],[10.486,-2.1007],[10.5149,-2.128],[10.5347,-2.1965],[10.5697,-2.2573],[10.6366,-2.3272],[10.7035,-2.3363],[10.737,-2.315],[10.9302,-2.2998],[11.0276,-2.2694],[11.0854,-2.2694],[11.1189,-2.3044],[11.1387,-2.3743],[11.2148,-2.4047],[11.2513,-2.4351],[11.2619,-2.5218],[11.5693,-2.8212],[11.6038,-2.7738],[11.601,-2.7026],[11.6236,-2.6831],[11.6312,-2.624],[11.5762,-2.5444],[11.5719,-2.4196],[11.545,-2.3873],[11.5473,-2.362],[11.6046,-2.3645],[11.6043,-2.3394],[11.6347,-2.3242],[11.6697,-2.3318],[11.7686,-2.4275],[11.7914,-2.4291],[11.8355,-2.3895],[11.9887,-2.3445],[12.0308,-2.3471],[12.0912,-2.4207],[12.1412,-2.4181],[12.3804,-2.3576],[12.4056,-2.3299],[12.471,-2.3194],[12.492,-2.3037],[12.5125,-2.2554],[12.5209,-2.1802],[12.5029,-2.1528],[12.5256,-2.1229],[12.4689,-2.0222],[12.4605,-1.855],[12.3763,-1.8568],[12.2556,-1.8297],[12.1818,-1.7829],[12.0971,-1.6677],[12.0557,-1.6641],[12.0376,-1.6357],[12.0376,-1.6044],[12.061,-1.5575],[12.0591,-1.4559],[12.0278,-1.3621],[11.9115,-1.2953],[11.8478,-1.2405],[11.7825,-1.1646],[11.7789,-1.078],[11.7171,-1.0903],[11.6693,-1.1292],[11.5651,-1.1204],[11.5598,-1.0303],[11.5191,-0.9826],[11.5068,-0.9295],[11.5138,-0.8377],[11.5527,-0.7899],[11.5535,-0.7511],[11.4714,-0.7511],[11.3712,-0.7251],[11.3031,-0.689],[11.231,-0.6249],[11.221,-0.6009],[11.1849,-0.5829],[11.1469,-0.5869],[11.1349,-0.6009],[10.9386,-0.6049],[10.8765,-0.647],[10.8284,-0.6349],[10.7983,-0.669],[10.7763,-0.665],[10.7443,-0.6329],[10.6702,-0.643],[10.6682,-0.703],[10.6221,-0.7711],[10.5319,-0.8292],[10.5277,-0.9433],[10.4446,-1.0171],[10.3985,-1.1666],[10.3726,-1.1758],[10.3505,-1.1629],[10.3246,-1.1814],[10.2471,-1.1684],[10.2084,-1.1777],[10.1511,-1.2183],[10.1031,-1.2755],[10.0761,-1.28]]]}},{"type":"Feature","properties":{"name":"Ogooué-Maritime","code":"98808126B47729285420158","iso":"GAB"},"geometry":{"type":"Polygon","coordinates":[[[9.3206,-0.3264],[9.307,-0.418],[9.1206,-0.6579],[9.1308,-0.7162],[9.1099,-0.7472],[9.0981,-0.7327],[9.0604,-0.7391],[9.0513,-0.6961],[9.0112,-0.661],[8.9794,-0.676],[8.9595,-0.7318],[8.9688,-0.7894],[8.9582,-0.7885],[8.9485,-0.7455],[8.9141,-0.743],[8.9091,-0.7592],[8.9233,-0.778],[8.8983,-0.7788],[8.869,-0.8567],[8.813,-0.8048],[8.8146,-0.7455],[8.7861,-0.6938],[8.7398,-0.6654],[8.7279,-0.6393],[8.7227,-0.6756],[8.7718,-0.7316],[8.8912,-1.0307],[8.9581,-1.0909],[9.0087,-1.1677],[9.0178,-1.2633],[9.0401,-1.3372],[9.2687,-1.6418],[9.2931,-1.8857],[9.3831,-2.0087],[9.6182,-2.2444],[9.6153,-2.3471],[9.6301,-2.3798],[10.052,-2.778],[10.1737,-2.7317],[10.376,-2.6811],[10.3744,-2.6022],[10.3925,-2.576],[10.4438,-2.5649],[10.4215,-2.5113],[10.4729,-2.4243],[10.6408,-2.3284],[10.5697,-2.2573],[10.5347,-2.1965],[10.5149,-2.128],[10.486,-2.1007],[10.4829,-1.988],[10.3952,-1.9486],[10.3593,-1.9665],[10.2877,-1.9611],[10.2769,-1.9432],[10.1695,-1.9146],[10.1193,-1.8788],[10.0029,-1.8698],[9.9008,-1.7517],[9.8954,-1.7284],[9.9169,-1.6836],[9.9366,-1.6568],[9.9921,-1.6245],[10.0064,-1.5475],[9.9849,-1.492],[9.9939,-1.4365],[10.0853,-1.347],[10.0761,-1.28],[10.0164,-1.2773],[9.9924,-1.2644],[9.961,-1.2072],[9.9222,-1.2072],[9.9259,-1.1629],[9.9628,-1.0835],[9.961,-0.9746],[9.937,-0.9488],[9.7623,-0.9388],[9.7276,-0.8935],[9.6597,-0.8754],[9.5861,-0.5989],[9.5569,-0.5967],[9.525,-0.5374],[9.4447,-0.5319],[9.4128,-0.4799],[9.3562,-0.4288],[9.3535,-0.3266],[9.3206,-0.3264]]]}},{"type":"Feature","properties":{"name":"Nyanga","code":"98808126B61171791227044","iso":"GAB"},"geometry":{"type":"Polygon","coordinates":[[[10.6408,-2.3284],[10.4729,-2.4243],[10.4215,-2.5113],[10.4438,-2.5649],[10.3925,-2.576],[10.3744,-2.6022],[10.376,-2.6811],[10.1737,-2.7317],[10.052,-2.778],[10.4397,-3.0825],[10.5503,-3.1943],[10.5754,-3.2561],[10.6926,-3.3362],[10.6887,-3.4471],[10.927,-3.6175],[11.0269,-3.7177],[11.0547,-3.7805],[11.0612,-3.8478],[11.1904,-3.9534],[11.2039,-3.9371],[11.2209,-3.8525],[11.2511,-3.8054],[11.2729,-3.6952],[11.3703,-3.5956],[11.421,-3.5971],[11.4635,-3.5826],[11.5072,-3.5123],[11.6115,-3.5208],[11.6868,-3.6274],[11.7414,-3.6746],[11.8724,-3.717],[11.9125,-3.6988],[11.9531,-3.6487],[11.9074,-3.6201],[11.8882,-3.5741],[11.9396,-3.4609],[11.9396,-3.4233],[12.0131,-3.3611],[12.0184,-3.335],[11.9186,-3.3104],[11.8353,-3.2383],[11.7972,-3.2307],[11.7415,-3.1954],[11.7389,-3.1111],[11.7495,-3.0791],[11.7655,-3.0579],[11.8188,-3.0472],[11.8428,-3.0286],[11.7589,-2.9454],[11.6962,-2.8556],[11.6623,-2.853],[11.6128,-2.9053],[11.5978,-2.8847],[11.5817,-2.8929],[11.5699,-2.8202],[11.2619,-2.5218],[11.2513,-2.4351],[11.2148,-2.4047],[11.1387,-2.3743],[11.1189,-2.3044],[11.0854,-2.2694],[11.0276,-2.2694],[10.9302,-2.2998],[10.737,-2.315],[10.7035,-2.3363],[10.6408,-2.3284]]]}},{"type":"Feature","properties":{"name":"Ogooué-Ivindo\t","code":"98808126B66499753932145","iso":"GAB"},"geometry":{"type":"Polygon","coordinates":[[[11.5646,0.2398],[11.5855,0.2384],[11.5835,0.1723],[11.5655,0.1482],[11.4694,0.1102],[11.4153,0.0661],[11.3231,0.032],[11.2871,-0.0941],[11.3392,-0.1362],[11.3552,-0.3025],[11.4233,-0.3866],[11.4333,-0.5008],[11.5174,-0.5668],[11.5234,-0.645],[11.5615,-0.7391],[11.5535,-0.7511],[12.4501,-0.4191],[12.484,-0.3048],[12.5983,0.3034],[12.62,0.3034],[12.6417,0.2818],[12.6742,0.2818],[12.7446,0.3224],[12.8042,0.2547],[12.8665,0.2438],[12.9261,0.252],[12.9559,0.2899],[12.9993,0.2493],[13.0779,0.2465],[13.1049,0.2276],[13.1293,0.13],[13.1835,0.1002],[13.2485,0.0948],[13.254,0.0813],[13.2888,0.0763],[13.5601,0.0759],[13.6224,0.0461],[13.6983,0.0488],[13.8121,-0.0244],[13.8792,-0.0505],[13.9254,-0.0139],[13.9375,0.0491],[13.9073,0.0881],[13.9171,0.1469],[13.8877,0.1959],[13.8894,0.2608],[13.9359,0.3277],[13.9563,0.3859],[14.0777,0.4852],[14.064,0.523],[14.0715,0.5366],[14.0477,0.5635],[14.052,0.5895],[14.2687,0.5981],[14.3294,0.6631],[14.3424,0.7368],[14.3727,0.7888],[14.4421,0.8365],[14.4684,0.8854],[14.4724,0.9344],[14.4098,0.9891],[14.387,1.0764],[14.34,1.0897],[14.3173,1.1124],[14.3143,1.1598],[14.2947,1.1745],[14.2817,1.3329],[14.2071,1.3799],[14.0778,1.3831],[14.0363,1.4168],[13.952,1.421],[13.9438,1.4365],[13.9086,1.4433],[13.809,1.4405],[13.8115,1.3831],[13.7796,1.3609],[13.6659,1.3609],[13.6487,1.345],[13.6228,1.345],[13.5911,1.3263],[13.5825,1.2746],[13.5048,1.276],[13.4621,1.2933],[13.3839,1.2875],[13.2991,1.2185],[13.1725,1.217],[13.1725,1.2368],[13.1506,1.2506],[13.1588,1.2643],[12.3524,1.2554],[12.2105,1.0077],[12.2084,0.873],[11.8697,0.6269],[11.4742,0.3619],[11.4721,0.3471],[11.5625,0.2714],[11.5646,0.2398]]]}}]}