{"type":"FeatureCollection","features":[{"type":"Feature","properties":{"name":"Boke","code":"385441B97135885584055","iso":"GIN"},"geometry":{"type":"MultiPolygon","coordinates":[[[[-13.7715,9.8444],[-13.7699,9.8484],[-13.7831,9.8446],[-13.7886,9.8409],[-13.7904,9.8379],[-13.7879,9.8356],[-13.7715,9.8444]]],[[[-13.725,9.8582],[-13.7192,9.8628],[-13.7229,9.8641],[-13.7326,9.8581],[-13.732,9.8552],[-13.725,9.8582]]],[[[-14.0389,10.1087],[-14.0597,10.1264],[-14.0728,10.1125],[-14.0639,10.099],[-14.0389,10.1087]]],[[[-14.5751,10.7687],[-14.5763,10.7728],[-14.5809,10.7618],[-14.5781,10.7604],[-14.5751,10.7687]]],[[[-14.8732,10.8564],[-14.8709,10.8893],[-14.8856,10.8984],[-14.8965,10.8832],[-14.8732,10.8564]]],[[[-14.8976,10.8163],[-14.8812,10.8446],[-14.902,10.8867],[-14.8869,10.9066],[-14.8964,10.9201],[-14.9371,10.863],[-14.933,10.8325],[-14.9118,10.8129],[-14.8976,10.8163]]],[[[-14.8533,10.9033],[-14.865,10.9386],[-14.8859,10.94],[-14.8769,10.904],[-14.8533,10.9033]]],[[[-14.8028,10.9401],[-14.8029,10.9437],[-14.8126,10.9413],[-14.8154,10.9381],[-14.8144,10.9358],[-14.8104,10.9349],[-14.8028,10.9401]]],[[[-14.8976,10.9461],[-14.9006,10.9598],[-14.9126,10.9528],[-14.8976,10.9461]]],[[[-14.9231,10.8956],[-14.9054,10.9308],[-14.9613,10.975],[-15.0628,10.9068],[-15.0845,10.8554],[-15.0217,10.7815],[-14.9529,10.7729],[-14.9414,10.7965],[-14.9789,10.8245],[-14.9619,10.8379],[-14.9778,10.8838],[-14.9532,10.8616],[-14.9231,10.8956]]],[[[-14.7072,11.0044],[-14.7056,11.0063],[-14.7092,11.0108],[-14.7097,11.0143],[-14.7143,11.0131],[-14.7177,11.0077],[-14.7168,11.0048],[-14.7147,11.0036],[-14.7072,11.0044]]],[[[-14.9013,11.001],[-14.9305,11.0448],[-14.966,10.9781],[-14.9178,10.9548],[-14.9007,10.9704],[-14.9013,11.001]]],[[[-12.5631,12.3674],[-12.6339,12.4313],[-12.7554,12.4351],[-12.7718,12.4709],[-12.8342,12.4869],[-12.8456,12.5156],[-12.8877,12.5406],[-12.9309,12.5305],[-12.9396,12.4875],[-12.9687,12.4617],[-13.0606,12.4778],[-13.0766,12.5297],[-13.0509,12.5821],[-13.0567,12.6193],[-13.0735,12.639],[-13.0973,12.6258],[-13.1341,12.6423],[-13.1877,12.6278],[-13.2134,12.6488],[-13.233,12.6397],[-13.2879,12.6525],[-13.3241,12.6417],[-13.3509,12.6596],[-13.7083,12.6762],[-13.7111,12.5994],[-13.6757,12.5162],[-13.6584,12.5126],[-13.6319,12.4604],[-13.6704,12.3955],[-13.6556,12.3582],[-13.6699,12.3409],[-13.6671,12.3155],[-13.6986,12.2929],[-13.7195,12.2469],[-13.7586,12.2772],[-13.7763,12.2518],[-13.8002,12.2519],[-13.7989,12.2977],[-13.8235,12.2578],[-13.8315,12.2836],[-13.856,12.2813],[-13.8644,12.2749],[-13.8524,12.2623],[-13.8579,12.2414],[-13.9207,12.2338],[-13.9348,12.203],[-13.957,12.2006],[-13.9582,12.1808],[-13.935,12.1429],[-13.8846,12.1328],[-13.8727,12.1051],[-13.819,12.0841],[-13.8073,12.0501],[-13.703,12.0063],[-13.7217,11.8886],[-13.7156,11.7063],[-13.7592,11.6842],[-13.7836,11.6865],[-13.799,11.6936],[-13.7956,11.7169],[-13.8209,11.7043],[-13.8336,11.7246],[-13.824,11.7342],[-13.8547,11.746],[-13.8636,11.7291],[-13.8454,11.7228],[-13.8689,11.664],[-13.9266,11.6776],[-13.9453,11.656],[-13.9973,11.6434],[-14.0367,11.6547],[-14.083,11.6255],[-14.1425,11.6594],[-14.1796,11.657],[-14.2068,11.6725],[-14.2658,11.6665],[-14.3239,11.6015],[-14.5173,11.493],[-14.6247,11.5023],[-14.6714,11.4919],[-14.7798,11.3534],[-14.8414,11.1994],[-14.9256,11.0534],[-14.8941,11.0339],[-14.8732,10.9622],[-14.8121,10.9919],[-14.7948,10.973],[-14.751,10.9699],[-14.7235,11.0033],[-14.7277,11.0192],[-14.6834,11.0421],[-14.6591,11.0298],[-14.6576,11.0208],[-14.6916,11.0237],[-14.6983,10.9969],[-14.7409,10.9615],[-14.7735,10.959],[-14.8173,10.9247],[-14.8091,10.8231],[-14.777,10.8249],[-14.7614,10.8474],[-14.7541,10.8362],[-14.7678,10.7763],[-14.79,10.7608],[-14.7482,10.69],[-14.7362,10.7471],[-14.6797,10.7839],[-14.6645,10.8098],[-14.6562,10.8002],[-14.6694,10.7753],[-14.7039,10.7581],[-14.7232,10.699],[-14.6849,10.6905],[-14.6956,10.6739],[-14.711,10.6741],[-14.7033,10.6325],[-14.6369,10.6836],[-14.5734,10.8046],[-14.5529,10.8265],[-14.541,10.8172],[-14.5748,10.7381],[-14.6173,10.6808],[-14.6237,10.6058],[-14.5938,10.5939],[-14.6284,10.566],[-14.6581,10.564],[-14.6671,10.4747],[-14.6607,10.4646],[-14.6515,10.4762],[-14.5825,10.4717],[-14.5457,10.5059],[-14.5521,10.4182],[-14.4851,10.3465],[-14.4634,10.3393],[-14.4561,10.301],[-14.4711,10.2556],[-14.4565,10.2083],[-14.4018,10.2356],[-14.3682,10.2283],[-14.2627,10.1532],[-14.238,10.1153],[-14.2043,10.1042],[-14.1843,10.1283],[-14.1862,10.0843],[-14.1376,10.0471],[-14.0786,10.0658],[-14.0838,10.1522],[-14.0793,10.1398],[-14.0481,10.1532],[-14.0417,10.1376],[-14.0518,10.1249],[-14.031,10.1162],[-14.0321,10.1039],[-14.0681,10.0321],[-14.0327,9.9963],[-13.9602,9.9715],[-13.8143,9.84],[-13.7967,9.8378],[-13.7177,9.8755],[-13.6775,9.9564],[-13.7404,9.9733],[-13.8424,10.032],[-13.9065,10.1087],[-13.9064,10.1241],[-13.8354,10.1663],[-13.768,10.2788],[-13.7199,10.27],[-13.6723,10.2892],[-13.6249,10.2522],[-13.5833,10.2579],[-13.5506,10.3373],[-13.5031,10.3823],[-13.499,10.403],[-13.5193,10.4278],[-13.5085,10.4525],[-13.4978,10.4525],[-13.4853,10.4788],[-13.462,10.476],[-13.4415,10.4955],[-13.4166,10.4916],[-13.4007,10.5061],[-13.3846,10.5616],[-13.4006,10.5966],[-13.3508,10.6605],[-13.3943,10.6982],[-13.444,10.6835],[-13.4365,10.7615],[-13.4794,10.8047],[-13.5175,10.7902],[-13.6525,10.6683],[-13.6682,10.6661],[-13.6837,10.6947],[-13.7081,10.6975],[-13.716,10.7261],[-13.752,10.7249],[-13.7949,10.7556],[-13.828,10.7294],[-13.867,10.7361],[-13.8808,10.6849],[-13.9036,10.6859],[-13.9065,10.6628],[-13.9793,10.7201],[-13.9717,10.7643],[-13.9198,10.8619],[-13.8118,10.9112],[-13.769,10.9534],[-13.7727,10.9819],[-13.8183,11.0363],[-13.8165,11.0494],[-13.8006,11.0532],[-13.7984,11.0801],[-13.7627,11.0936],[-13.744,11.1197],[-13.7401,11.1517],[-13.7574,11.19],[-13.7885,11.1981],[-13.7735,11.2339],[-13.8286,11.2706],[-13.8429,11.2967],[-13.8177,11.2929],[-13.7386,11.3344],[-13.6356,11.3329],[-13.5768,11.3801],[-13.5561,11.383],[-13.4362,11.3731],[-13.4294,11.3584],[-13.4473,11.2915],[-13.4157,11.2964],[-13.3482,11.3374],[-13.2757,11.3452],[-13.2673,11.3299],[-13.2823,11.2792],[-13.2155,11.0589],[-13.1974,11.0647],[-13.221,11.1329],[-13.1185,11.1781],[-12.9964,11.1895],[-12.9756,11.2153],[-12.9911,11.2668],[-12.9564,11.2929],[-12.9843,11.332],[-12.9655,11.357],[-12.8995,11.3992],[-12.8709,11.4393],[-12.7969,11.4664],[-12.7642,11.4938],[-12.7531,11.531],[-12.6941,11.5637],[-12.7112,11.5939],[-12.7012,11.6066],[-12.7079,11.6237],[-12.7218,11.6117],[-12.7503,11.6275],[-12.7838,11.6863],[-12.8186,11.6961],[-12.7888,11.7233],[-12.7815,11.7544],[-12.7981,11.7752],[-12.8025,11.8334],[-12.7711,11.8404],[-12.7603,11.8632],[-12.7693,11.897],[-12.8097,11.938],[-12.7754,11.9782],[-12.8217,12.0029],[-12.8298,12.0569],[-12.8178,12.0617],[-12.8068,12.0981],[-12.8122,12.1324],[-12.8268,12.1443],[-12.7512,12.2539],[-12.5647,12.3546],[-12.5631,12.3674]]]]}},{"type":"Feature","properties":{"name":"Conakry","code":"385441B29247776226513","iso":"GIN"},"geometry":{"type":"MultiPolygon","coordinates":[[[[-13.7869,9.4659],[-13.7901,9.4696],[-13.7989,9.4674],[-13.8035,9.4637],[-13.8048,9.4575],[-13.8018,9.4568],[-13.7988,9.458],[-13.796,9.4569],[-13.7926,9.4629],[-13.7875,9.4625],[-13.7869,9.4659]]],[[[-13.7533,9.4427],[-13.7476,9.4782],[-13.7696,9.5049],[-13.7533,9.4427]]],[[[-13.8328,9.4501],[-13.8313,9.4704],[-13.7953,9.5121],[-13.815,9.5112],[-13.8386,9.4818],[-13.8328,9.4501]]],[[[-13.5477,9.74],[-13.5602,9.7303],[-13.5703,9.7506],[-13.5856,9.7533],[-13.6081,9.7363],[-13.5978,9.7247],[-13.6243,9.7237],[-13.6342,9.628],[-13.6574,9.6046],[-13.6718,9.5579],[-13.6991,9.5236],[-13.7218,9.5168],[-13.7237,9.5014],[-13.6168,9.5656],[-13.5433,9.4954],[-13.5002,9.5226],[-13.493,9.5421],[-13.503,9.5746],[-13.4603,9.6366],[-13.4998,9.6887],[-13.475,9.7329],[-13.4774,9.7432],[-13.5477,9.74]]]]}},{"type":"Feature","properties":{"name":"Faranah","code":"385441B61717407014046","iso":"GIN"},"geometry":{"type":"Polygon","coordinates":[[[-10.0868,12.1777],[-10.149,12.1727],[-10.1951,12.2007],[-10.2433,12.1994],[-10.2484,12.2152],[-10.283,12.2127],[-10.2936,12.1908],[-10.3094,12.2188],[-10.3393,12.2255],[-10.335,12.1873],[-10.3582,12.1922],[-10.3711,12.1676],[-10.4107,12.1726],[-10.414,12.1411],[-10.4564,12.1165],[-10.4945,12.1227],[-10.5165,12.1128],[-10.5052,12.0838],[-10.5215,12.0761],[-10.5229,12.0412],[-10.5783,12.022],[-10.5644,11.9959],[-10.6207,11.9692],[-10.6424,11.9102],[-10.6902,11.893],[-10.7355,11.9193],[-10.7513,11.944],[-10.7564,11.9938],[-10.7923,12.0298],[-10.7902,12.1094],[-10.8451,12.1316],[-10.8768,12.1611],[-10.8922,12.2039],[-10.9328,12.2234],[-11.0154,12.2056],[-11.0483,12.2171],[-11.0728,12.1353],[-11.1044,12.1186],[-11.1093,12.0949],[-11.1395,12.0931],[-11.1381,12.0595],[-11.1666,12.0326],[-11.1528,11.9921],[-11.1599,11.9416],[-11.0479,11.8833],[-11.0768,11.8557],[-11.0703,11.7499],[-11.1008,11.6918],[-11.1415,11.6866],[-11.165,11.6546],[-11.1442,11.6285],[-11.2133,11.574],[-11.1963,11.537],[-11.152,11.5359],[-11.1211,11.5176],[-11.1233,11.4788],[-11.1899,11.4241],[-11.2677,11.4014],[-11.337,11.3084],[-11.3368,11.2675],[-11.3067,11.1781],[-11.279,11.141],[-11.2546,11.1474],[-11.208,11.1005],[-11.1372,11.0748],[-11.2783,10.9896],[-11.3805,10.9686],[-11.4541,10.9935],[-11.5087,10.9432],[-11.5258,10.9057],[-11.5245,10.8763],[-11.4984,10.878],[-11.4374,10.8266],[-11.4614,10.7325],[-11.4483,10.724],[-11.4791,10.665],[-11.4789,10.6377],[-11.5074,10.6077],[-11.5279,10.4922],[-11.3986,10.4516],[-11.3788,10.3347],[-11.3951,10.182],[-11.438,10.0834],[-11.4704,10.055],[-11.4776,9.9997],[-11.2067,10.0004],[-11.175,9.9758],[-11.1544,9.8792],[-11.0387,9.7977],[-10.9774,9.714],[-10.9628,9.6641],[-10.9214,9.65],[-10.911,9.6019],[-10.8594,9.5582],[-10.8738,9.5375],[-10.8275,9.5179],[-10.8484,9.4954],[-10.8489,9.4547],[-10.802,9.4144],[-10.8147,9.3866],[-10.731,9.3802],[-10.7116,9.3347],[-10.6633,9.3006],[-10.6752,9.2503],[-10.6637,9.21],[-10.6952,9.194],[-10.7184,9.1975],[-10.7145,9.1439],[-10.7261,9.1311],[-10.7299,9.0792],[-10.6603,9.0816],[-10.5747,9.0508],[-10.5628,9.0644],[-10.4769,9.0702],[-10.4543,9.1095],[-10.4347,9.0546],[-10.4684,9.0083],[-10.4676,8.9806],[-10.3433,9.0133],[-10.334,9.0614],[-10.311,9.0669],[-10.2795,9.0221],[-10.2784,8.9593],[-10.2198,8.948],[-10.2103,8.9209],[-10.1874,8.915],[-10.1797,8.8847],[-10.1176,8.9286],[-10.1061,8.9191],[-10.108,8.8825],[-10.0748,8.8708],[-10.0286,8.8969],[-10.0168,8.9459],[-10.0001,8.9516],[-9.9896,8.818],[-9.972,8.8083],[-9.9255,8.8196],[-9.8789,8.8493],[-9.8574,8.8354],[-9.8035,8.8465],[-9.7967,8.8677],[-9.7622,8.8929],[-9.7403,8.8803],[-9.6676,8.8911],[-9.6134,8.8747],[-9.6549,8.9364],[-9.634,8.9517],[-9.6288,8.9923],[-9.6585,9.0219],[-9.698,9.0304],[-9.7194,9.0655],[-9.6655,9.0973],[-9.6607,9.1159],[-9.7187,9.1347],[-9.7251,9.176],[-9.7464,9.1978],[-9.7397,9.2254],[-9.6496,9.2531],[-9.6466,9.3078],[-9.5979,9.3556],[-9.6264,9.4267],[-9.6735,9.4718],[-9.812,9.5187],[-9.8712,9.559],[-9.8593,9.5606],[-9.8853,9.5926],[-9.8717,9.6125],[-9.8796,9.6295],[-9.9753,9.668],[-10.0662,9.61],[-10.0939,9.6243],[-10.1073,9.6713],[-10.1449,9.7003],[-10.1606,9.6993],[-10.1793,9.6538],[-10.2419,9.5716],[-10.2817,9.5462],[-10.3427,9.5425],[-10.4042,9.5694],[-10.4189,9.5618],[-10.4254,9.6126],[-10.4034,9.6546],[-10.4142,9.7341],[-10.4049,9.7577],[-10.3668,9.783],[-10.3689,9.8644],[-10.3506,9.8641],[-10.3277,9.8949],[-10.3616,10.002],[-10.3208,10.0585],[-10.3233,10.1008],[-10.3051,10.0951],[-10.2657,10.1253],[-10.255,10.1546],[-10.2286,10.1582],[-10.2373,10.1755],[-10.2205,10.1792],[-10.2019,10.2062],[-10.2368,10.2556],[-10.2257,10.2932],[-10.2365,10.2929],[-10.2257,10.3039],[-10.2394,10.3386],[-10.1958,10.3246],[-10.1669,10.3409],[-10.1529,10.4074],[-10.1351,10.4018],[-10.1252,10.4147],[-10.1294,10.4255],[-10.1459,10.4216],[-10.1506,10.4619],[-10.1169,10.4561],[-10.1099,10.4927],[-10.1395,10.4985],[-10.132,10.5138],[-10.1454,10.5371],[-10.1535,10.4952],[-10.1673,10.4826],[-10.18,10.4879],[-10.1936,10.445],[-10.2142,10.485],[-10.2371,10.4847],[-10.2337,10.5105],[-10.2129,10.5246],[-10.2775,10.5211],[-10.2929,10.5271],[-10.2951,10.5553],[-10.3321,10.5286],[-10.3373,10.5101],[-10.3543,10.512],[-10.3521,10.5315],[-10.3772,10.5398],[-10.3858,10.5279],[-10.4011,10.547],[-10.4142,10.5121],[-10.4673,10.5316],[-10.4675,10.5455],[-10.4475,10.5569],[-10.4552,10.6145],[-10.5117,10.7606],[-10.5865,10.7401],[-10.6689,10.7353],[-10.7328,10.7926],[-10.8067,10.8169],[-10.9088,10.8758],[-10.8154,10.9299],[-10.7911,10.9997],[-10.7181,11.0588],[-10.7209,11.1444],[-10.6898,11.1634],[-10.6651,11.1547],[-10.6631,11.1835],[-10.6339,11.1791],[-10.645,11.1992],[-10.5689,11.1832],[-10.5126,11.1971],[-10.4432,11.2556],[-10.4758,11.2945],[-10.3802,11.3226],[-10.345,11.3682],[-10.3516,11.4017],[-10.3459,11.4079],[-10.3358,11.3945],[-10.3212,11.4306],[-10.3173,11.405],[-10.3332,11.3736],[-10.3003,11.3798],[-10.289,11.4141],[-10.2667,11.3952],[-10.2472,11.4057],[-10.2485,11.4255],[-10.2221,11.4161],[-10.2176,11.4011],[-10.195,11.4142],[-10.1898,11.3841],[-10.1552,11.391],[-10.1691,11.3614],[-10.1522,11.3507],[-10.1241,11.3544],[-10.1356,11.3688],[-10.121,11.3907],[-10.1033,11.3785],[-10.0634,11.3967],[-10.0777,11.3543],[-10.0573,11.3643],[-10.0291,11.4172],[-10.0048,11.407],[-10.0096,11.4629],[-10.0312,11.4784],[-10.1304,11.5009],[-10.1722,11.5346],[-10.2219,11.541],[-10.2655,11.5884],[-10.2577,11.6815],[-10.2281,11.7038],[-10.2318,11.7285],[-10.2193,11.7514],[-10.245,11.7582],[-10.2462,11.7747],[-10.211,11.8176],[-10.2118,11.8422],[-10.1824,11.8691],[-10.193,11.9072],[-10.1595,11.9322],[-10.1758,11.9559],[-10.1908,12.0298],[-10.2213,12.0762],[-10.1914,12.1141],[-10.1124,12.1523],[-10.0868,12.1777]]]}},{"type":"Feature","properties":{"name":"Kankan","code":"385441B85233176952124","iso":"GIN"},"geometry":{"type":"Polygon","coordinates":[[[-9.6134,8.8747],[-9.5369,8.8686],[-9.4023,8.8964],[-9.3213,8.8506],[-9.2549,8.785],[-9.2131,8.7697],[-9.163,8.7661],[-9.0648,8.7985],[-8.949,8.7726],[-8.8414,8.8469],[-8.795,8.9142],[-8.7188,8.9421],[-8.6998,8.961],[-8.7289,9.0415],[-8.7154,9.1139],[-8.6936,9.1621],[-8.6633,9.1873],[-8.6626,9.2195],[-8.6234,9.3045],[-8.6345,9.4633],[-8.6197,9.498],[-8.5839,9.4351],[-8.5579,9.4458],[-8.554,9.478],[-8.5419,9.4851],[-8.5342,9.4736],[-8.5131,9.4974],[-8.4968,9.4912],[-8.4848,9.5126],[-8.4947,9.5352],[-8.4836,9.5443],[-8.4389,9.5326],[-8.3525,9.5811],[-8.1473,9.584],[-8.1518,9.6254],[-8.1278,9.6548],[-8.1367,9.6666],[-8.1232,9.7085],[-8.1298,9.7583],[-8.1135,9.7647],[-8.1205,9.791],[-8.1093,9.7978],[-8.1187,9.8069],[-8.1062,9.8079],[-8.1015,9.8326],[-8.113,9.8388],[-8.1133,9.8673],[-8.1434,9.8697],[-8.1245,9.901],[-8.1334,9.9174],[-8.1608,9.9122],[-8.1655,9.9268],[-8.1524,9.9372],[-8.1668,9.9473],[-8.1178,9.9577],[-8.1215,9.9761],[-8.1385,9.9685],[-8.1518,9.9797],[-8.1314,10.0139],[-8.0989,10.053],[-8.0165,10.0971],[-7.9525,10.2099],[-7.9472,10.2411],[-7.9686,10.3136],[-7.9953,10.3383],[-8.0917,10.3581],[-8.1205,10.4221],[-8.1732,10.3991],[-8.2254,10.41],[-8.2448,10.4654],[-8.2618,10.4769],[-8.2767,10.5207],[-8.2733,10.5777],[-8.3015,10.6362],[-8.2965,10.6891],[-8.3069,10.7163],[-8.2956,10.7509],[-8.329,10.7619],[-8.3062,10.8219],[-8.2756,10.8531],[-8.2871,10.9951],[-8.3235,11.0482],[-8.3819,11.076],[-8.4056,11.0622],[-8.4729,11.0686],[-8.503,11.0315],[-8.5151,10.972],[-8.536,10.9764],[-8.5905,10.9502],[-8.6225,10.9653],[-8.661,10.9492],[-8.6773,10.9553],[-8.6814,11.0078],[-8.6504,11.0337],[-8.6452,11.0638],[-8.6207,11.0891],[-8.6225,11.1199],[-8.5812,11.1259],[-8.571,11.1398],[-8.5663,11.2047],[-8.4865,11.222],[-8.4993,11.2628],[-8.4792,11.2888],[-8.4223,11.2705],[-8.377,11.2792],[-8.3651,11.3209],[-8.4017,11.3218],[-8.4218,11.3356],[-8.4108,11.3601],[-8.3759,11.3675],[-8.3969,11.3823],[-8.4563,11.3816],[-8.5021,11.3993],[-8.5267,11.4313],[-8.5178,11.4431],[-8.5354,11.4778],[-8.5763,11.4433],[-8.6126,11.4528],[-8.6541,11.4993],[-8.6731,11.565],[-8.6889,11.5762],[-8.6823,11.6247],[-8.6916,11.6356],[-8.7337,11.6303],[-8.7601,11.6068],[-8.7853,11.6217],[-8.7977,11.6145],[-8.8543,11.6283],[-8.7949,11.9239],[-8.8162,11.9726],[-8.8054,12.0052],[-8.8323,12.039],[-8.8559,12.042],[-8.8715,12.0233],[-8.9129,12.0412],[-8.915,12.095],[-8.9032,12.1009],[-8.8967,12.1519],[-8.9245,12.1986],[-8.9733,12.1825],[-8.978,12.2118],[-8.9929,12.2214],[-8.987,12.2807],[-8.9577,12.3208],[-9.025,12.4129],[-9.1545,12.4841],[-9.2533,12.5026],[-9.2842,12.4819],[-9.3196,12.5006],[-9.3357,12.4768],[-9.3396,12.493],[-9.362,12.4957],[-9.3697,12.4734],[-9.4046,12.4615],[-9.4036,12.4445],[-9.3844,12.4473],[-9.3342,12.377],[-9.2976,12.3585],[-9.3086,12.3232],[-9.3225,12.3166],[-9.3198,12.2729],[-9.3419,12.2629],[-9.3404,12.2429],[-9.4146,12.2603],[-9.4793,12.2458],[-9.5414,12.1927],[-9.6304,12.1728],[-9.6777,12.1237],[-9.6757,12.0788],[-9.6959,12.0576],[-9.6998,12.0238],[-9.7696,12.0319],[-9.8099,12.0567],[-9.8829,12.0571],[-9.9144,12.0985],[-9.9708,12.0983],[-10.0017,12.1282],[-10.0593,12.1497],[-10.0671,12.1391],[-10.0868,12.1777],[-10.2109,12.0969],[-10.2213,12.0762],[-10.1908,12.0298],[-10.1758,11.9559],[-10.1595,11.9322],[-10.193,11.9072],[-10.1824,11.8691],[-10.2118,11.8422],[-10.211,11.8176],[-10.2462,11.7747],[-10.245,11.7582],[-10.2193,11.7514],[-10.2318,11.7285],[-10.2281,11.7038],[-10.2577,11.6815],[-10.2655,11.5884],[-10.2219,11.541],[-10.1722,11.5346],[-10.1304,11.5009],[-10.0312,11.4784],[-10.0096,11.4629],[-10.0048,11.407],[-10.0291,11.4172],[-10.0573,11.3643],[-10.0777,11.3543],[-10.0634,11.3967],[-10.1033,11.3785],[-10.121,11.3907],[-10.1356,11.3688],[-10.1241,11.3544],[-10.1522,11.3507],[-10.1691,11.3614],[-10.1552,11.391],[-10.1898,11.3841],[-10.195,11.4142],[-10.2176,11.4011],[-10.2221,11.4161],[-10.2485,11.4255],[-10.2472,11.4057],[-10.2667,11.3952],[-10.289,11.4141],[-10.3003,11.3798],[-10.3332,11.3736],[-10.3173,11.405],[-10.3212,11.4306],[-10.3358,11.3945],[-10.3459,11.4079],[-10.3516,11.4017],[-10.345,11.3682],[-10.3802,11.3226],[-10.4758,11.2945],[-10.4432,11.2556],[-10.5126,11.1971],[-10.5689,11.1832],[-10.645,11.1992],[-10.6339,11.1791],[-10.6631,11.1835],[-10.6651,11.1547],[-10.6898,11.1634],[-10.7209,11.1444],[-10.7181,11.0588],[-10.7911,10.9997],[-10.8154,10.9299],[-10.9085,10.8798],[-10.8067,10.8169],[-10.7328,10.7926],[-10.6689,10.7353],[-10.5865,10.7401],[-10.5117,10.7606],[-10.4552,10.6145],[-10.4475,10.5569],[-10.4675,10.5455],[-10.4673,10.5316],[-10.4142,10.5121],[-10.4011,10.547],[-10.3858,10.5279],[-10.3772,10.5398],[-10.3521,10.5315],[-10.3543,10.512],[-10.3373,10.5101],[-10.3321,10.5286],[-10.2951,10.5553],[-10.2929,10.5271],[-10.2775,10.5211],[-10.2129,10.5246],[-10.2337,10.5105],[-10.2371,10.4847],[-10.2142,10.485],[-10.1936,10.445],[-10.18,10.4879],[-10.1673,10.4826],[-10.1535,10.4952],[-10.1454,10.5371],[-10.132,10.5138],[-10.1395,10.4985],[-10.1099,10.4927],[-10.1169,10.4561],[-10.1506,10.4619],[-10.1459,10.4216],[-10.1294,10.4255],[-10.1252,10.4147],[-10.1351,10.4018],[-10.1529,10.4074],[-10.1669,10.3409],[-10.1958,10.3246],[-10.2394,10.3386],[-10.2257,10.3039],[-10.2365,10.2929],[-10.2257,10.2932],[-10.2368,10.2556],[-10.2019,10.2062],[-10.2205,10.1792],[-10.2373,10.1755],[-10.2286,10.1582],[-10.255,10.1546],[-10.2657,10.1253],[-10.3051,10.0951],[-10.3233,10.1008],[-10.3208,10.0585],[-10.3616,10.002],[-10.3277,9.8949],[-10.3506,9.8641],[-10.3689,9.8644],[-10.3668,9.783],[-10.4049,9.7577],[-10.4142,9.7341],[-10.4034,9.6546],[-10.4254,9.6126],[-10.4189,9.5618],[-10.4042,9.5694],[-10.3427,9.5425],[-10.2817,9.5462],[-10.2419,9.5716],[-10.1793,9.6538],[-10.1606,9.6993],[-10.1449,9.7003],[-10.1073,9.6713],[-10.0939,9.6243],[-10.0662,9.61],[-9.9753,9.668],[-9.9278,9.6548],[-9.8796,9.6295],[-9.8717,9.6125],[-9.8853,9.5926],[-9.8593,9.5606],[-9.8712,9.559],[-9.8297,9.5266],[-9.6513,9.4584],[-9.5979,9.3556],[-9.6466,9.3078],[-9.6496,9.2531],[-9.6604,9.2416],[-9.7397,9.2254],[-9.7464,9.1978],[-9.7251,9.176],[-9.7187,9.1347],[-9.6607,9.1159],[-9.6655,9.0973],[-9.7194,9.0655],[-9.698,9.0304],[-9.6585,9.0219],[-9.6288,8.9923],[-9.634,8.9517],[-9.6549,8.9364],[-9.6134,8.8747]]]}},{"type":"Feature","properties":{"name":"Kindia","code":"385441B58689174477974","iso":"GIN"},"geometry":{"type":"MultiPolygon","coordinates":[[[[-13.3201,9.1478],[-13.3206,9.1501],[-13.3241,9.1514],[-13.3186,9.1579],[-13.3198,9.1606],[-13.3232,9.159],[-13.3269,9.153],[-13.3257,9.1463],[-13.3201,9.1478]]],[[[-13.4202,9.2707],[-13.4214,9.2735],[-13.4304,9.2769],[-13.4341,9.2764],[-13.4357,9.2686],[-13.4347,9.2665],[-13.4299,9.2665],[-13.428,9.2649],[-13.4218,9.2661],[-13.4202,9.2707]]],[[[-13.765,9.824],[-13.731,9.8509],[-13.7786,9.8347],[-13.7788,9.8046],[-13.765,9.824]]],[[[-13.6954,9.8929],[-13.6885,9.9007],[-13.6866,9.907],[-13.6889,9.9205],[-13.6964,9.9053],[-13.6952,9.9022],[-13.6984,9.8965],[-13.6974,9.8922],[-13.6954,9.8929]]],[[[-13.6842,9.9381],[-13.6841,9.9017],[-13.7488,9.8166],[-13.7551,9.7664],[-13.7308,9.7459],[-13.6893,9.74],[-13.6398,9.7912],[-13.6634,9.8296],[-13.6389,9.8121],[-13.6251,9.822],[-13.6302,9.8005],[-13.6116,9.7978],[-13.6193,9.7771],[-13.5961,9.7658],[-13.5699,9.7651],[-13.5554,9.7874],[-13.5647,9.7564],[-13.5477,9.74],[-13.4774,9.7432],[-13.4752,9.7219],[-13.4998,9.6887],[-13.4603,9.6366],[-13.503,9.5746],[-13.493,9.5421],[-13.5214,9.4765],[-13.5173,9.4574],[-13.4744,9.4067],[-13.4241,9.4102],[-13.4326,9.3518],[-13.4126,9.2793],[-13.3571,9.2753],[-13.345,9.3331],[-13.3246,9.3386],[-13.3239,9.2603],[-13.3099,9.2407],[-13.32,9.1979],[-13.312,9.1909],[-13.3259,9.1797],[-13.31,9.1568],[-13.2804,9.1526],[-13.2705,9.1931],[-13.2605,9.1904],[-13.249,9.1445],[-13.3044,9.0778],[-13.3236,9.0703],[-13.3214,9.0579],[-13.3076,9.0375],[-13.2679,9.0674],[-13.2069,9.0726],[-13.1742,9.0924],[-13.0876,9.0484],[-12.9916,9.1128],[-12.9562,9.1822],[-12.9615,9.238],[-12.9351,9.2866],[-12.8931,9.2703],[-12.8729,9.2983],[-12.8121,9.2868],[-12.7895,9.3007],[-12.777,9.3426],[-12.7509,9.3496],[-12.7522,9.3965],[-12.7122,9.3895],[-12.7035,9.4155],[-12.6868,9.4092],[-12.6785,9.4637],[-12.6507,9.5089],[-12.6605,9.532],[-12.6344,9.5482],[-12.6212,9.6012],[-12.5917,9.5999],[-12.5915,9.6541],[-12.5755,9.6599],[-12.5667,9.7027],[-12.5361,9.7205],[-12.5194,9.7073],[-12.5281,9.7364],[-12.5073,9.7459],[-12.5187,9.7565],[-12.4913,9.8113],[-12.499,9.8437],[-12.4569,9.8546],[-12.4317,9.8816],[-12.2271,9.9246],[-12.1483,9.8776],[-12.1727,9.9752],[-12.1251,10.0386],[-12.1568,10.1257],[-12.2177,10.2049],[-12.23,10.2707],[-12.3324,10.2867],[-12.3621,10.2652],[-12.4185,10.2739],[-12.4432,10.3597],[-12.3956,10.4706],[-12.4013,10.4852],[-12.4516,10.5061],[-12.4446,10.5273],[-12.4577,10.544],[-12.4907,10.5478],[-12.5065,10.5649],[-12.5075,10.6051],[-12.4924,10.6186],[-12.5038,10.6355],[-12.6067,10.562],[-12.6496,10.5531],[-12.7259,10.4847],[-12.7451,10.4812],[-12.8158,10.5334],[-12.8543,10.5309],[-12.8816,10.5468],[-12.9167,10.5157],[-12.947,10.518],[-12.9546,10.5589],[-12.9817,10.6028],[-12.9639,10.6059],[-12.9405,10.6576],[-12.953,10.6664],[-12.953,10.6881],[-12.9308,10.729],[-12.9551,10.7577],[-12.9666,10.8197],[-12.9452,10.9358],[-12.9075,10.9636],[-12.8897,10.997],[-12.8601,11.0091],[-12.8539,11.0305],[-12.8271,11.0175],[-12.7888,11.1111],[-12.859,11.1441],[-12.9256,11.0986],[-12.9525,11.1054],[-12.9751,11.1832],[-13.0646,11.1871],[-13.1185,11.1781],[-13.221,11.1329],[-13.1974,11.0647],[-13.2155,11.0589],[-13.2823,11.2792],[-13.2673,11.3299],[-13.2757,11.3452],[-13.3482,11.3374],[-13.4157,11.2964],[-13.4473,11.2915],[-13.4294,11.3584],[-13.4362,11.3731],[-13.5561,11.383],[-13.5768,11.3801],[-13.6356,11.3329],[-13.7386,11.3344],[-13.8177,11.2929],[-13.8429,11.2967],[-13.8286,11.2706],[-13.7735,11.2339],[-13.7885,11.1981],[-13.7574,11.19],[-13.7401,11.1517],[-13.744,11.1197],[-13.7627,11.0936],[-13.7984,11.0801],[-13.8006,11.0532],[-13.8165,11.0494],[-13.8183,11.0363],[-13.7727,10.9819],[-13.769,10.9534],[-13.8118,10.9112],[-13.9198,10.8619],[-13.9807,10.7357],[-13.9793,10.7201],[-13.9065,10.6628],[-13.9036,10.6859],[-13.8808,10.6849],[-13.867,10.7361],[-13.828,10.7294],[-13.7949,10.7556],[-13.752,10.7249],[-13.716,10.7261],[-13.7081,10.6975],[-13.6837,10.6947],[-13.6682,10.6661],[-13.6525,10.6683],[-13.5175,10.7902],[-13.4794,10.8047],[-13.4365,10.7615],[-13.444,10.6835],[-13.3943,10.6982],[-13.3508,10.6605],[-13.4006,10.5966],[-13.3846,10.5616],[-13.4007,10.5061],[-13.4166,10.4916],[-13.4415,10.4955],[-13.462,10.476],[-13.4853,10.4788],[-13.4978,10.4525],[-13.5085,10.4525],[-13.5193,10.4278],[-13.499,10.403],[-13.5031,10.3823],[-13.5506,10.3373],[-13.5833,10.2579],[-13.6249,10.2522],[-13.6723,10.2892],[-13.7199,10.27],[-13.768,10.2788],[-13.8354,10.1663],[-13.9064,10.1241],[-13.9065,10.1087],[-13.8424,10.032],[-13.7404,9.9733],[-13.6775,9.9564],[-13.6842,9.9381]]]]}},{"type":"Feature","properties":{"name":"Labe","code":"385441B21537995001042","iso":"GIN"},"geometry":{"type":"Polygon","coordinates":[[[-12.9964,11.1895],[-12.9688,11.1729],[-12.9525,11.1054],[-12.9256,11.0986],[-12.859,11.1441],[-12.7888,11.1111],[-12.7312,11.2318],[-12.6559,11.2816],[-12.6471,11.2999],[-12.6563,11.3158],[-12.5682,11.3377],[-12.523,11.2929],[-12.497,11.2858],[-12.5022,11.2321],[-12.475,11.151],[-12.4247,11.1313],[-12.3953,11.1812],[-12.3678,11.1738],[-12.2925,11.1937],[-12.2649,11.1854],[-12.2373,11.1435],[-12.1621,11.1919],[-12.1202,11.2868],[-12.0506,11.2979],[-12.0117,11.2909],[-11.9616,11.2184],[-11.9139,11.2047],[-11.8789,11.1779],[-11.8718,11.1449],[-11.8949,11.0849],[-11.8631,11.0255],[-11.8049,10.9986],[-11.7429,10.9875],[-11.6495,11.0812],[-11.6121,11.0777],[-11.5612,11.1099],[-11.5055,11.1854],[-11.4467,11.2175],[-11.3857,11.2322],[-11.3928,11.2692],[-11.3462,11.2563],[-11.337,11.3084],[-11.2677,11.4014],[-11.1899,11.4241],[-11.1314,11.466],[-11.1211,11.5176],[-11.152,11.5359],[-11.1963,11.537],[-11.2133,11.574],[-11.1442,11.6285],[-11.165,11.6546],[-11.1415,11.6866],[-11.1008,11.6918],[-11.0897,11.707],[-11.0703,11.7499],[-11.0768,11.8557],[-11.0479,11.8833],[-11.1599,11.9416],[-11.1528,11.9921],[-11.1666,12.0326],[-11.2575,11.9925],[-11.3618,12.0599],[-11.376,12.1039],[-11.4641,12.1336],[-11.4945,12.1785],[-11.4978,12.2095],[-11.4349,12.2868],[-11.45,12.3505],[-11.4397,12.3786],[-11.4163,12.3954],[-11.4128,12.3779],[-11.3803,12.3834],[-11.3795,12.4136],[-11.4597,12.4415],[-11.5314,12.4428],[-11.6638,12.4234],[-11.7125,12.3935],[-11.7616,12.3879],[-11.8494,12.3974],[-11.9033,12.4309],[-11.9987,12.3969],[-12.025,12.3996],[-12.0496,12.4232],[-12.0968,12.4213],[-12.1592,12.3681],[-12.2348,12.3551],[-12.3436,12.3073],[-12.36,12.3114],[-12.404,12.3687],[-12.4741,12.3991],[-12.5062,12.3973],[-12.7512,12.2539],[-12.8268,12.1443],[-12.8122,12.1324],[-12.8068,12.0981],[-12.8178,12.0617],[-12.8298,12.0569],[-12.8217,12.0029],[-12.7754,11.9782],[-12.8097,11.938],[-12.7693,11.897],[-12.7603,11.8632],[-12.7711,11.8404],[-12.8025,11.8334],[-12.7981,11.7752],[-12.7815,11.7544],[-12.7888,11.7233],[-12.8186,11.6961],[-12.7838,11.6863],[-12.7503,11.6275],[-12.7218,11.6117],[-12.7079,11.6237],[-12.7012,11.6066],[-12.7112,11.5939],[-12.6941,11.5637],[-12.7531,11.531],[-12.7642,11.4938],[-12.7969,11.4664],[-12.8709,11.4393],[-12.8995,11.3992],[-12.9655,11.357],[-12.9843,11.332],[-12.9564,11.2929],[-12.9911,11.2668],[-12.9756,11.2153],[-12.9964,11.1895]]]}},{"type":"Feature","properties":{"name":"Mamou","code":"385441B8345275251802","iso":"GIN"},"geometry":{"type":"Polygon","coordinates":[[[-11.3368,11.2675],[-11.3517,11.2692],[-11.3462,11.2563],[-11.3928,11.2692],[-11.3857,11.2322],[-11.4467,11.2175],[-11.5055,11.1854],[-11.5612,11.1099],[-11.6121,11.0777],[-11.6495,11.0812],[-11.7429,10.9875],[-11.8049,10.9986],[-11.8631,11.0255],[-11.8949,11.0849],[-11.8718,11.1449],[-11.8789,11.1779],[-11.9139,11.2047],[-11.9616,11.2184],[-12.0117,11.2909],[-12.0506,11.2979],[-12.1202,11.2868],[-12.1621,11.1919],[-12.2373,11.1435],[-12.2649,11.1854],[-12.2925,11.1937],[-12.3678,11.1738],[-12.3953,11.1812],[-12.4247,11.1313],[-12.4797,11.1556],[-12.5022,11.2321],[-12.497,11.2858],[-12.5077,11.2959],[-12.523,11.2929],[-12.5682,11.3377],[-12.6372,11.3285],[-12.6601,11.3114],[-12.6471,11.2999],[-12.6559,11.2816],[-12.7282,11.2355],[-12.7328,11.2133],[-12.7551,11.1964],[-12.7639,11.1499],[-12.7893,11.0929],[-12.8101,11.0764],[-12.8271,11.0175],[-12.8539,11.0305],[-12.8601,11.0091],[-12.8897,10.997],[-12.9075,10.9636],[-12.9452,10.9358],[-12.9666,10.8197],[-12.9551,10.7577],[-12.9308,10.729],[-12.953,10.6881],[-12.953,10.6664],[-12.9405,10.6576],[-12.9639,10.6059],[-12.9817,10.6028],[-12.9791,10.5879],[-12.9546,10.5589],[-12.947,10.518],[-12.9167,10.5157],[-12.8816,10.5468],[-12.7801,10.5166],[-12.7451,10.4812],[-12.7159,10.4904],[-12.6496,10.5531],[-12.6067,10.562],[-12.5038,10.6355],[-12.4924,10.6186],[-12.5075,10.6051],[-12.5065,10.5649],[-12.4907,10.5478],[-12.4577,10.544],[-12.4446,10.5273],[-12.4516,10.5061],[-12.4013,10.4852],[-12.3956,10.4706],[-12.4432,10.3597],[-12.4185,10.2739],[-12.3621,10.2652],[-12.3324,10.2867],[-12.23,10.2707],[-12.2177,10.2049],[-12.1384,10.0889],[-12.1284,10.0249],[-12.1383,10.0078],[-12.1642,9.9995],[-12.1727,9.9752],[-12.1418,9.8743],[-11.9066,9.9358],[-11.8858,9.9975],[-11.4776,9.9997],[-11.4704,10.055],[-11.438,10.0834],[-11.3951,10.182],[-11.3761,10.2854],[-11.3986,10.4516],[-11.5279,10.4922],[-11.5074,10.6077],[-11.4789,10.6377],[-11.4791,10.665],[-11.4483,10.724],[-11.4614,10.7325],[-11.4374,10.8266],[-11.4984,10.878],[-11.5245,10.8763],[-11.5258,10.9057],[-11.5087,10.9432],[-11.4541,10.9935],[-11.3805,10.9686],[-11.2783,10.9896],[-11.1372,11.0748],[-11.208,11.1005],[-11.2546,11.1474],[-11.279,11.141],[-11.3067,11.1781],[-11.3368,11.2675]]]}},{"type":"Feature","properties":{"name":"Nzerekore","code":"385441B82784678606818","iso":"GIN"},"geometry":{"type":"Polygon","coordinates":[[[-10.5997,9.0585],[-10.5836,9.0364],[-10.5983,8.9737],[-10.5869,8.8043],[-10.5358,8.7725],[-10.5232,8.7375],[-10.5114,8.7388],[-10.5103,8.7094],[-10.4694,8.6746],[-10.4818,8.6379],[-10.5229,8.6102],[-10.5795,8.5957],[-10.5831,8.5716],[-10.6224,8.5417],[-10.6306,8.4907],[-10.6496,8.4763],[-10.6531,8.3879],[-10.6961,8.3596],[-10.7189,8.271],[-10.7007,8.2733],[-10.6976,8.3033],[-10.674,8.3409],[-10.5971,8.3323],[-10.5796,8.308],[-10.5535,8.3077],[-10.4527,8.3952],[-10.386,8.4929],[-10.364,8.4881],[-10.3314,8.5029],[-10.2869,8.4848],[-10.232,8.4976],[-10.2295,8.4818],[-10.2126,8.4805],[-10.158,8.5264],[-10.0868,8.518],[-10.0549,8.4958],[-10.0674,8.4293],[-10.0553,8.4209],[-9.995,8.4413],[-9.9194,8.498],[-9.859,8.5006],[-9.8469,8.4875],[-9.8327,8.5014],[-9.8043,8.5026],[-9.7941,8.5124],[-9.8,8.5345],[-9.7594,8.5494],[-9.7353,8.5199],[-9.7451,8.494],[-9.7175,8.4444],[-9.6918,8.4916],[-9.6605,8.4887],[-9.6281,8.4586],[-9.6558,8.4206],[-9.6548,8.4023],[-9.6061,8.4068],[-9.5796,8.4328],[-9.5333,8.3834],[-9.4801,8.3768],[-9.4862,8.3486],[-9.5202,8.3262],[-9.501,8.311],[-9.5033,8.2856],[-9.4882,8.2673],[-9.5166,8.2427],[-9.5198,8.1794],[-9.4635,8.1659],[-9.4447,8.0714],[-9.4599,8.0362],[-9.4276,8.0479],[-9.4312,8.0263],[-9.4097,7.9795],[-9.4324,7.9479],[-9.4235,7.8623],[-9.3904,7.8092],[-9.3594,7.7961],[-9.3439,7.7487],[-9.3707,7.682],[-9.3722,7.6457],[-9.3571,7.6122],[-9.4187,7.4717],[-9.4564,7.4338],[-9.4778,7.362],[-9.4109,7.4235],[-9.394,7.3888],[-9.3501,7.4292],[-9.2953,7.4226],[-9.2886,7.3881],[-9.2746,7.3796],[-9.2118,7.3852],[-9.2021,7.3806],[-9.2061,7.3513],[-9.1902,7.3032],[-9.1538,7.2734],[-9.1161,7.2737],[-9.0942,7.2258],[-9.1045,7.1936],[-9.066,7.201],[-9.0168,7.2437],[-8.9639,7.2517],[-8.9532,7.2698],[-8.941,7.2626],[-8.937,7.2856],[-8.9156,7.288],[-8.9028,7.2611],[-8.8481,7.2633],[-8.8335,7.2835],[-8.8458,7.3473],[-8.8113,7.4014],[-8.7799,7.4122],[-8.7754,7.448],[-8.709,7.5083],[-8.7116,7.5466],[-8.7226,7.5522],[-8.7068,7.64],[-8.6594,7.6962],[-8.5597,7.6926],[-8.5547,7.6497],[-8.5652,7.6259],[-8.4722,7.5546],[-8.4174,7.6082],[-8.393,7.6122],[-8.3693,7.5728],[-8.3028,7.6014],[-8.2894,7.577],[-8.2149,7.5337],[-8.1936,7.545],[-8.1726,7.5817],[-8.1719,7.62],[-8.1437,7.6555],[-8.1399,7.6933],[-8.094,7.722],[-8.0714,7.7902],[-8.0718,7.8083],[-8.1172,7.8588],[-8.0658,7.9584],[-8.0576,8.0227],[-8.0003,8.0392],[-7.9843,8.011],[-7.9456,8.013],[-7.9466,8.0424],[-8.0145,8.1023],[-7.9984,8.1985],[-8.0179,8.1864],[-8.0396,8.2055],[-8.0689,8.1615],[-8.1264,8.1962],[-8.1796,8.1998],[-8.2191,8.234],[-8.2303,8.226],[-8.2481,8.236],[-8.2302,8.2804],[-8.238,8.3278],[-8.2257,8.3549],[-8.2456,8.4426],[-8.2354,8.4658],[-8.2205,8.4596],[-8.1983,8.5016],[-8.1578,8.4963],[-8.1533,8.4841],[-8.1391,8.4942],[-8.1197,8.4807],[-8.0954,8.5058],[-7.9851,8.4838],[-7.9709,8.4987],[-7.9381,8.5011],[-7.9132,8.4833],[-7.9234,8.4798],[-7.9118,8.4647],[-7.9213,8.4473],[-7.8847,8.4349],[-7.8866,8.417],[-7.8329,8.4329],[-7.8377,8.4685],[-7.8273,8.4902],[-7.7884,8.4637],[-7.7451,8.3733],[-7.6411,8.3774],[-7.6814,8.4485],[-7.6611,8.5059],[-7.6876,8.5448],[-7.7679,8.762],[-7.8612,8.7777],[-7.9159,8.7655],[-7.9613,8.8104],[-7.9548,8.8694],[-7.9063,9.0183],[-7.813,9.0822],[-7.7649,9.0662],[-7.7365,9.0781],[-7.8378,9.1505],[-7.8331,9.1748],[-7.853,9.1778],[-7.8819,9.1577],[-7.9199,9.1869],[-7.9257,9.2173],[-7.8874,9.2906],[-7.8885,9.3423],[-7.8665,9.3754],[-7.85,9.4377],[-7.8831,9.4356],[-7.8917,9.4169],[-7.9157,9.4195],[-7.9681,9.396],[-8.0603,9.4018],[-8.1341,9.5038],[-8.1329,9.525],[-8.1492,9.5321],[-8.1473,9.584],[-8.3525,9.5811],[-8.4389,9.5326],[-8.4836,9.5443],[-8.4947,9.5352],[-8.4848,9.5126],[-8.4968,9.4912],[-8.5131,9.4974],[-8.5342,9.4736],[-8.5419,9.4851],[-8.554,9.478],[-8.5579,9.4458],[-8.5839,9.4351],[-8.6166,9.5026],[-8.6345,9.4633],[-8.6234,9.3045],[-8.6626,9.2195],[-8.6633,9.1873],[-8.7091,9.1379],[-8.7271,9.0677],[-8.7231,9.0144],[-8.6998,8.961],[-8.7188,8.9421],[-8.795,8.9142],[-8.8414,8.8469],[-8.949,8.7726],[-9.0648,8.7985],[-9.163,8.7661],[-9.2131,8.7697],[-9.2549,8.785],[-9.3213,8.8506],[-9.4023,8.8964],[-9.5651,8.8677],[-9.6676,8.8911],[-9.7094,8.8785],[-9.7622,8.8929],[-9.7967,8.8677],[-9.8035,8.8465],[-9.8574,8.8354],[-9.8789,8.8493],[-9.9255,8.8196],[-9.972,8.8083],[-9.9896,8.818],[-10.0001,8.9516],[-10.0168,8.9459],[-10.0286,8.8969],[-10.0748,8.8708],[-10.108,8.8825],[-10.1061,8.9191],[-10.1176,8.9286],[-10.1797,8.8847],[-10.1874,8.915],[-10.2103,8.9209],[-10.2198,8.948],[-10.2784,8.9593],[-10.2795,9.0221],[-10.311,9.0669],[-10.334,9.0614],[-10.3433,9.0133],[-10.4545,8.9808],[-10.4676,8.9806],[-10.4684,9.0083],[-10.4347,9.0546],[-10.4543,9.1095],[-10.4769,9.0702],[-10.5628,9.0644],[-10.5747,9.0508],[-10.5997,9.0585]]]}}]}