{"type":"FeatureCollection","features":[{"type":"Feature","properties":{"name":"Banjul","code":"31243875B86288540800273","iso":"GMB"},"geometry":{"type":"Polygon","coordinates":[[[-16.6112,13.4691],[-16.6271,13.4678],[-16.6075,13.4598],[-16.6122,13.4465],[-16.5736,13.4432],[-16.5719,13.4565],[-16.6112,13.4691]]]}},{"type":"Feature","properties":{"name":"Basse","code":"31243875B74768451122912","iso":"GMB"},"geometry":{"type":"MultiPolygon","coordinates":[[[[-14.5221,13.3805],[-14.5461,13.3217],[-14.5318,13.3107],[-14.4628,13.2942],[-14.3968,13.2421],[-14.3218,13.2327],[-14.2749,13.2426],[-14.2071,13.2169],[-14.133,13.2344],[-14.1192,13.2828],[-13.9444,13.3187],[-13.8518,13.3252],[-13.7971,13.3843],[-13.7911,13.4309],[-13.7938,13.4449],[-13.8253,13.4485],[-13.8267,13.4724],[-13.8145,13.4812],[-13.8536,13.5116],[-13.8907,13.4942],[-13.8686,13.4523],[-13.8891,13.4069],[-13.9211,13.4204],[-13.9514,13.4756],[-14.0017,13.4505],[-13.9976,13.4116],[-14.0389,13.3875],[-14.0571,13.4496],[-14.0751,13.4547],[-14.11,13.4184],[-14.1073,13.375],[-14.1304,13.3881],[-14.1482,13.3829],[-14.1406,13.414],[-14.1572,13.4246],[-14.1627,13.3933],[-14.1848,13.3869],[-14.1868,13.3544],[-14.2053,13.3447],[-14.2128,13.3147],[-14.2255,13.3353],[-14.2802,13.368],[-14.3016,13.3299],[-14.3593,13.3267],[-14.386,13.3718],[-14.419,13.3752],[-14.4429,13.408],[-14.4786,13.3853],[-14.5045,13.4207],[-14.4981,13.3852],[-14.5221,13.3805]]],[[[-13.8918,13.5531],[-13.9854,13.5795],[-14.0322,13.5555],[-14.1853,13.5238],[-14.2134,13.507],[-14.2435,13.4629],[-14.3268,13.4515],[-14.424,13.497],[-14.4484,13.5271],[-14.4818,13.4962],[-14.4759,13.4731],[-14.5091,13.4598],[-14.5041,13.4235],[-14.48,13.3872],[-14.4499,13.4107],[-14.4165,13.3752],[-14.3846,13.3723],[-14.3604,13.3288],[-14.3042,13.3304],[-14.2817,13.3693],[-14.2241,13.3357],[-14.2125,13.3158],[-14.2059,13.3455],[-14.1881,13.3539],[-14.1855,13.388],[-14.163,13.3956],[-14.1588,13.4245],[-14.1397,13.4165],[-14.1475,13.3836],[-14.1317,13.3898],[-14.1081,13.3758],[-14.1117,13.4182],[-14.0752,13.4559],[-14.0547,13.448],[-14.0388,13.3888],[-13.9969,13.415],[-14.0001,13.4538],[-13.9517,13.4764],[-13.9189,13.4199],[-13.8876,13.4089],[-13.8702,13.4532],[-13.8919,13.4942],[-13.8589,13.5126],[-13.8918,13.5531]]]]}},{"type":"Feature","properties":{"name":"Brikama","code":"31243875B88426941804625","iso":"GMB"},"geometry":{"type":"Polygon","coordinates":[[[-16.6431,13.4006],[-16.6595,13.3845],[-16.6657,13.4042],[-16.7243,13.4437],[-16.7541,13.3989],[-16.7935,13.3791],[-16.8143,13.3389],[-16.8037,13.3189],[-16.8071,13.2758],[-16.7863,13.2499],[-16.7911,13.1588],[-16.7671,13.1238],[-16.7723,13.078],[-16.7522,13.0698],[-16.7395,13.0437],[-16.7442,13.07],[-16.7256,13.0968],[-16.7357,13.112],[-16.7163,13.1102],[-16.7254,13.1221],[-16.7123,13.1208],[-16.6968,13.1402],[-16.7089,13.1552],[-16.6854,13.169],[-15.8012,13.1658],[-15.8075,13.2589],[-15.8504,13.2548],[-15.8527,13.2709],[-15.8681,13.2683],[-15.875,13.2812],[-15.914,13.2567],[-15.9189,13.2772],[-15.9427,13.2712],[-15.9514,13.2929],[-15.9912,13.298],[-15.9996,13.2872],[-16.0116,13.2968],[-16.0597,13.264],[-16.0839,13.2796],[-16.091,13.2669],[-16.0765,13.2543],[-16.092,13.2484],[-16.1264,13.2779],[-16.1107,13.2899],[-16.1392,13.296],[-16.2037,13.2495],[-16.2021,13.3021],[-16.2213,13.3258],[-16.3106,13.2906],[-16.3331,13.2933],[-16.3618,13.2651],[-16.383,13.2812],[-16.4487,13.271],[-16.5565,13.2993],[-16.5791,13.3336],[-16.5715,13.3577],[-16.5856,13.386],[-16.613,13.3796],[-16.6222,13.4015],[-16.6431,13.4006]]]}},{"type":"Feature","properties":{"name":"Janjanbureh","code":"31243875B72482523363184","iso":"GMB"},"geometry":{"type":"Polygon","coordinates":[[[-14.5221,13.3805],[-14.4981,13.3852],[-14.5133,13.4689],[-14.5814,13.4928],[-14.5684,13.5355],[-14.5774,13.5602],[-14.6073,13.5616],[-14.6251,13.5448],[-14.6194,13.4642],[-14.6321,13.4378],[-14.6516,13.4337],[-14.7143,13.5362],[-14.7921,13.5448],[-14.8201,13.5631],[-14.86,13.5484],[-14.9067,13.5773],[-14.9679,13.5786],[-14.9838,13.6134],[-14.8962,13.6642],[-14.8933,13.6898],[-14.9086,13.7],[-14.9586,13.7092],[-15.0045,13.6958],[-15.0514,13.7243],[-15.214,13.6399],[-15.2522,13.645],[-15.3072,13.6901],[-15.328,13.6873],[-15.3562,13.661],[-15.3719,13.5756],[-15.36,13.5315],[-15.3384,13.5151],[-15.2998,13.5046],[-15.2654,13.5328],[-15.256,13.5171],[-15.2372,13.5471],[-15.2153,13.5352],[-15.2064,13.5583],[-15.1686,13.546],[-15.117,13.5848],[-15.0766,13.5846],[-15.0667,13.5412],[-15.0134,13.493],[-14.917,13.452],[-14.7688,13.4351],[-14.7355,13.3757],[-14.6959,13.3516],[-14.6322,13.3438],[-14.5811,13.3634],[-14.5465,13.3214],[-14.5221,13.3805]]]}},{"type":"Feature","properties":{"name":"Kanifing","code":"31243875B42421745591684","iso":"GMB"},"geometry":{"type":"Polygon","coordinates":[[[-16.6353,13.4039],[-16.6555,13.4167],[-16.6611,13.4466],[-16.634,13.4538],[-16.629,13.4693],[-16.6591,13.4744],[-16.6672,13.4892],[-16.7232,13.449],[-16.6657,13.4042],[-16.6595,13.3845],[-16.6353,13.4039]]]}},{"type":"Feature","properties":{"name":"Kerewan","code":"31243875B21899311231896","iso":"GMB"},"geometry":{"type":"MultiPolygon","coordinates":[[[[-16.1333,13.6024],[-16.153,13.5931],[-16.5457,13.5934],[-16.5271,13.5312],[-16.5498,13.4872],[-16.501,13.4635],[-16.4774,13.4237],[-16.4826,13.3911],[-16.5075,13.362],[-16.455,13.3547],[-16.4113,13.3282],[-16.3354,13.3472],[-16.3101,13.3375],[-16.2641,13.3655],[-16.1305,13.4694],[-16.1346,13.4976],[-16.104,13.4995],[-16.09,13.5161],[-16.0891,13.527],[-16.1074,13.5312],[-16.1021,13.5669],[-16.0853,13.5702],[-16.0881,13.593],[-16.1333,13.6024]]],[[[-15.373,13.6297],[-15.3992,13.631],[-15.4052,13.6465],[-15.4626,13.6401],[-15.4703,13.5903],[-16.086,13.5927],[-16.0836,13.5704],[-16.1,13.5678],[-16.1061,13.5296],[-16.0891,13.5311],[-16.0856,13.5199],[-16.1026,13.4972],[-16.1358,13.4938],[-16.1318,13.4642],[-16.0833,13.4412],[-15.9056,13.4485],[-15.8476,13.4679],[-15.7889,13.4553],[-15.7359,13.4669],[-15.6735,13.5032],[-15.6401,13.4972],[-15.6085,13.4721],[-15.5783,13.5162],[-15.5445,13.5237],[-15.5004,13.4935],[-15.4441,13.4997],[-15.4127,13.4626],[-15.3476,13.4384],[-15.3105,13.4562],[-15.3043,13.4971],[-15.3515,13.5164],[-15.3728,13.5451],[-15.373,13.6297]]]]}},{"type":"Feature","properties":{"name":"Kuntaur","code":"31243875B86283726287100","iso":"GMB"},"geometry":{"type":"Polygon","coordinates":[[[-15.373,13.6297],[-15.3568,13.6694],[-15.3262,13.6923],[-15.3024,13.692],[-15.2443,13.6461],[-15.2129,13.6437],[-15.1034,13.7097],[-15.051,13.7259],[-15.003,13.703],[-14.9574,13.7152],[-14.8927,13.6978],[-14.8985,13.6566],[-14.9733,13.6179],[-14.9676,13.5831],[-14.9103,13.5802],[-14.8629,13.5548],[-14.8248,13.5681],[-14.7943,13.5464],[-14.7129,13.537],[-14.6485,13.4348],[-14.6208,13.4682],[-14.6287,13.5411],[-14.6119,13.5617],[-14.5705,13.5568],[-14.5772,13.4903],[-14.514,13.4715],[-14.5071,13.4588],[-14.477,13.4727],[-14.4825,13.4964],[-14.4469,13.5283],[-14.4673,13.5424],[-14.5036,13.6216],[-14.5396,13.6497],[-14.6395,13.6493],[-14.7175,13.6169],[-14.7964,13.6667],[-14.8009,13.7334],[-14.8142,13.7562],[-14.8873,13.7928],[-14.962,13.7867],[-15.0689,13.8232],[-15.2175,13.7497],[-15.2379,13.75],[-15.2945,13.7905],[-15.3401,13.7891],[-15.3941,13.7666],[-15.4498,13.6821],[-15.4626,13.6401],[-15.4052,13.6465],[-15.3992,13.631],[-15.373,13.6297]]]}},{"type":"Feature","properties":{"name":"Mansakonko","code":"31243875B75097494588605","iso":"GMB"},"geometry":{"type":"Polygon","coordinates":[[[-15.8022,13.2412],[-15.8034,13.3427],[-15.7937,13.3474],[-15.6872,13.3649],[-15.6443,13.3461],[-15.592,13.3492],[-15.5166,13.3957],[-15.3665,13.3452],[-15.2809,13.3644],[-15.2297,13.4055],[-15.2109,13.4479],[-15.2106,13.5269],[-15.1705,13.5514],[-15.2064,13.5583],[-15.2153,13.5352],[-15.2372,13.5471],[-15.256,13.5171],[-15.2654,13.5328],[-15.2916,13.5189],[-15.3068,13.4552],[-15.35,13.4346],[-15.4086,13.4541],[-15.4506,13.4953],[-15.4963,13.4874],[-15.5353,13.5122],[-15.5696,13.5139],[-15.5863,13.4649],[-15.6072,13.4485],[-15.6294,13.4526],[-15.6674,13.4877],[-15.7012,13.4576],[-15.814,13.4378],[-15.8629,13.4496],[-15.9097,13.4258],[-16.0267,13.4217],[-16.0732,13.4083],[-16.1462,13.4344],[-16.208,13.3707],[-16.2232,13.3387],[-16.2021,13.3021],[-16.2037,13.2495],[-16.1392,13.296],[-16.1107,13.2899],[-16.1264,13.2779],[-16.092,13.2484],[-16.0765,13.2543],[-16.091,13.2669],[-16.0839,13.2796],[-16.0597,13.264],[-16.0116,13.2968],[-15.9996,13.2872],[-15.9753,13.2988],[-15.9514,13.2929],[-15.9427,13.2712],[-15.9189,13.2772],[-15.914,13.2567],[-15.875,13.2812],[-15.8681,13.2683],[-15.8527,13.2709],[-15.8504,13.2548],[-15.8075,13.2589],[-15.8022,13.2412]]]}}]}