{"type":"FeatureCollection","features":[{"type":"Feature","properties":{"name":"Bissau","code":"76643164B96925829526723","iso":"GNB"},"geometry":{"type":"Polygon","coordinates":[[[-15.5244,11.8341],[-15.5397,11.8946],[-15.5963,11.9451],[-15.6061,11.9157],[-15.6514,11.862],[-15.6616,11.7951],[-15.6011,11.7535],[-15.5244,11.8341]]]}},{"type":"Feature","properties":{"name":"Bafatá","code":"76643164B84174472060432","iso":"GNB"},"geometry":{"type":"Polygon","coordinates":[[[-14.3234,12.6765],[-14.9129,12.6783],[-14.8687,12.6622],[-14.8473,12.6227],[-14.8519,12.5914],[-14.9077,12.5186],[-14.8771,12.4974],[-14.8493,12.4528],[-14.9119,12.4285],[-14.9722,12.423],[-14.9708,12.3509],[-14.9362,12.2855],[-14.9451,12.2737],[-14.9357,12.1994],[-14.96,12.1907],[-15.0289,12.2042],[-15.0726,12.1849],[-14.9963,12.0416],[-14.9572,12.0138],[-14.9405,11.9834],[-14.9623,11.96],[-15.0347,11.975],[-15.015,11.9307],[-15.0498,11.8488],[-15.0379,11.8057],[-14.9925,11.7927],[-14.9551,11.7499],[-14.9188,11.7592],[-14.9299,11.785],[-14.9072,11.7913],[-14.8857,11.7862],[-14.8833,11.7467],[-14.8563,11.759],[-14.8499,11.7429],[-14.8273,11.7451],[-14.8628,11.6942],[-14.8473,11.7027],[-14.7998,11.6936],[-14.7998,11.645],[-14.7281,11.59],[-14.695,11.5959],[-14.6615,11.65],[-14.647,11.6472],[-14.6261,11.6128],[-14.603,11.638],[-14.5217,11.6431],[-14.4856,11.6951],[-14.4436,11.729],[-14.4691,11.7591],[-14.4839,11.8539],[-14.4699,11.9133],[-14.5086,11.9898],[-14.4941,12.0357],[-14.5458,12.1027],[-14.5152,12.124],[-14.503,12.1239],[-14.5082,12.1076],[-14.468,12.1314],[-14.457,12.1184],[-14.4402,12.1471],[-14.4915,12.2314],[-14.4817,12.2831],[-14.4894,12.3045],[-14.5306,12.3491],[-14.5486,12.3509],[-14.5511,12.3662],[-14.5365,12.3713],[-14.5531,12.3788],[-14.5294,12.4051],[-14.5062,12.3902],[-14.4897,12.4059],[-14.501,12.4423],[-14.4804,12.4326],[-14.4806,12.4463],[-14.4592,12.4416],[-14.4517,12.4517],[-14.4722,12.4911],[-14.5005,12.4786],[-14.5233,12.4957],[-14.5262,12.5209],[-14.5,12.5275],[-14.505,12.5128],[-14.4573,12.5112],[-14.4488,12.4916],[-14.4137,12.5179],[-14.3832,12.497],[-14.3687,12.5048],[-14.3626,12.5277],[-14.3892,12.5356],[-14.408,12.5661],[-14.3961,12.5935],[-14.4076,12.5992],[-14.4128,12.6338],[-14.395,12.6428],[-14.3697,12.6065],[-14.3505,12.612],[-14.3365,12.6288],[-14.3403,12.66],[-14.3219,12.6605],[-14.3234,12.6765]]]}},{"type":"Feature","properties":{"name":"Biombo","code":"76643164B78535055467734","iso":"GNB"},"geometry":{"type":"Polygon","coordinates":[[[-15.6002,11.9359],[-15.6518,12.026],[-15.6769,12.0271],[-15.7053,12.0077],[-15.7087,11.9769],[-15.752,11.9747],[-15.7606,12.0098],[-15.7732,12.0161],[-15.8264,12.0015],[-15.9365,11.9057],[-15.9976,11.748],[-15.9507,11.7343],[-15.9272,11.7546],[-15.8594,11.7598],[-15.8003,11.7444],[-15.712,11.7937],[-15.6616,11.7951],[-15.6514,11.862],[-15.6002,11.9359]]]}},{"type":"Feature","properties":{"name":"Bolama","code":"76643164B18917431809987","iso":"GNB"},"geometry":{"type":"MultiPolygon","coordinates":[[[[-15.6683,11.0066],[-15.6763,10.97],[-15.6596,10.9609],[-15.6683,11.0066]]],[[[-15.7042,11.0245],[-15.7144,11.0185],[-15.7032,11.0029],[-15.7042,11.0245]]],[[[-15.9537,11.045],[-15.954,11.0461],[-15.9563,11.0453],[-15.9566,11.0419],[-15.9584,11.0432],[-15.9592,11.0409],[-15.96,11.0442],[-15.9587,11.043],[-15.9569,11.0448],[-15.9652,11.045],[-15.9642,11.0424],[-15.9655,11.0429],[-15.9647,11.0417],[-15.9668,11.0411],[-15.9656,11.0406],[-15.9665,11.0393],[-15.9675,11.0401],[-15.9673,11.0373],[-15.9714,11.0375],[-15.9727,11.0362],[-15.9764,11.0363],[-15.9793,11.0383],[-15.98,11.0357],[-15.9905,11.0341],[-16.0022,11.0339],[-16.0236,11.031],[-16.0296,11.0328],[-16.0307,11.0345],[-16.0309,11.0327],[-16.0241,11.0305],[-15.9691,11.0358],[-15.9553,11.0401],[-15.9532,11.0432],[-15.9537,11.045]]],[[[-15.6321,11.057],[-15.6439,11.0524],[-15.6393,11.025],[-15.609,11.0518],[-15.6321,11.057]]],[[[-16.109,11.0664],[-16.126,11.064],[-16.1342,11.0416],[-16.0901,11.0371],[-16.1334,11.0328],[-16.0859,11.0241],[-16.0508,11.0465],[-16.0912,11.0337],[-16.0662,11.0542],[-16.109,11.0664]]],[[[-15.9261,11.1297],[-15.9557,11.1177],[-15.9451,11.1082],[-15.9153,11.1171],[-15.921,11.0766],[-15.9384,11.0705],[-15.9346,11.0856],[-15.9489,11.0845],[-15.9551,11.068],[-15.9439,11.061],[-15.9744,11.0548],[-15.888,11.046],[-15.881,11.0772],[-15.899,11.0725],[-15.8901,11.054],[-15.9172,11.0531],[-15.9066,11.0869],[-15.8966,11.0849],[-15.9093,11.1189],[-15.9261,11.1297]]],[[[-15.9977,11.1488],[-16.0092,11.1441],[-15.995,11.1328],[-16.0086,11.1344],[-16.0304,11.1095],[-16.0164,11.0689],[-15.995,11.0846],[-16.0155,11.0889],[-16.0163,11.1005],[-16.0009,11.1039],[-15.9964,11.1294],[-15.9827,11.1126],[-15.9785,11.1212],[-15.9977,11.1488]]],[[[-15.9408,11.1917],[-15.939,11.1757],[-15.9761,11.1692],[-15.9732,11.1602],[-15.965,11.1502],[-15.9505,11.165],[-15.9361,11.1502],[-15.9332,11.1616],[-15.9168,11.1587],[-15.9172,11.1402],[-15.9021,11.1413],[-15.909,11.1712],[-15.9283,11.1729],[-15.9408,11.1917]]],[[[-16.0119,11.1999],[-16.0116,11.183],[-16.0254,11.1755],[-16.0255,11.193],[-16.0409,11.1963],[-16.0343,11.1772],[-16.0548,11.1612],[-16.0329,11.1525],[-16.0472,11.1427],[-16.0208,11.1349],[-15.9999,11.1877],[-16.0119,11.1999]]],[[[-16.1166,11.2055],[-16.1189,11.195],[-16.1014,11.186],[-16.1199,11.1805],[-16.1057,11.1607],[-16.1167,11.1615],[-16.1213,11.1424],[-16.1377,11.1372],[-16.1224,11.1622],[-16.1264,11.1808],[-16.14,11.1816],[-16.1483,11.1683],[-16.1718,11.1659],[-16.1712,11.1486],[-16.1581,11.1453],[-16.2114,11.0869],[-16.2265,11.0837],[-16.2326,11.1043],[-16.1798,11.1383],[-16.2453,11.0963],[-16.2262,11.0649],[-16.182,11.0432],[-16.1899,11.0419],[-16.1793,11.0276],[-16.1364,11.0264],[-16.1526,11.0647],[-16.1407,11.0823],[-16.155,11.0789],[-16.1394,11.0832],[-16.143,11.0689],[-16.1336,11.0663],[-16.1348,11.0931],[-16.1473,11.1016],[-16.1297,11.0837],[-16.1194,11.1045],[-16.1159,11.0914],[-16.0932,11.0977],[-16.0702,11.0829],[-16.0583,11.0983],[-16.088,11.0972],[-16.0831,11.1103],[-16.0975,11.1092],[-16.0755,11.123],[-16.103,11.136],[-16.0882,11.1526],[-16.0837,11.1343],[-16.0606,11.1305],[-16.0733,11.1372],[-16.0721,11.158],[-16.0974,11.1711],[-16.0807,11.1727],[-16.0821,11.1847],[-16.0679,11.1664],[-16.0728,11.1786],[-16.064,11.1725],[-16.0559,11.1882],[-16.1166,11.2055]]],[[[-16.3957,11.3012],[-16.3939,11.2812],[-16.3638,11.2932],[-16.3957,11.3012]]],[[[-15.6579,11.3047],[-15.6681,11.293],[-15.6773,11.3029],[-15.6866,11.295],[-15.6846,11.3045],[-15.6981,11.2988],[-15.7336,11.2632],[-15.7521,11.2755],[-15.7457,11.2459],[-15.7609,11.2497],[-15.7794,11.2254],[-15.7568,11.2257],[-15.7691,11.2159],[-15.7611,11.2072],[-15.7837,11.2025],[-15.7698,11.1837],[-15.7738,11.1672],[-15.7537,11.1698],[-15.7594,11.1796],[-15.7201,11.1694],[-15.7179,11.2163],[-15.7441,11.2059],[-15.7364,11.2168],[-15.7455,11.2284],[-15.7259,11.2212],[-15.7301,11.2377],[-15.7116,11.2484],[-15.7143,11.2284],[-15.7042,11.2238],[-15.7145,11.2217],[-15.6969,11.2149],[-15.6805,11.245],[-15.6936,11.2437],[-15.6897,11.2525],[-15.7038,11.2596],[-15.6936,11.28],[-15.6837,11.255],[-15.6764,11.2687],[-15.6675,11.2628],[-15.6734,11.2283],[-15.6612,11.2311],[-15.6579,11.3047]]],[[[-15.8333,11.3029],[-15.8626,11.2943],[-15.8579,11.2734],[-15.8654,11.2677],[-15.8715,11.2829],[-15.8886,11.2537],[-15.8844,11.2316],[-15.9003,11.2333],[-15.9005,11.2166],[-15.9052,11.2256],[-15.8749,11.1922],[-15.8339,11.2049],[-15.8316,11.2209],[-15.835,11.2062],[-15.8473,11.2234],[-15.8564,11.2219],[-15.848,11.2059],[-15.8746,11.2082],[-15.8608,11.2141],[-15.8713,11.2257],[-15.8626,11.2499],[-15.8489,11.25],[-15.8604,11.2566],[-15.8473,11.2587],[-15.8529,11.2703],[-15.8427,11.282],[-15.8315,11.2676],[-15.8199,11.2833],[-15.8333,11.3029]]],[[[-16.2253,11.3107],[-16.2373,11.2907],[-16.2613,11.2888],[-16.2642,11.261],[-16.2834,11.2458],[-16.2483,11.2129],[-16.1911,11.2179],[-16.1513,11.2541],[-16.165,11.288],[-16.1805,11.2982],[-16.2018,11.2816],[-16.2065,11.3062],[-16.2253,11.3107]]],[[[-16.4512,11.3153],[-16.475,11.3096],[-16.4764,11.2775],[-16.41,11.2875],[-16.4512,11.3153]]],[[[-16.1219,11.3431],[-16.1128,11.3212],[-16.1313,11.3195],[-16.1077,11.2922],[-16.064,11.3244],[-16.0844,11.3196],[-16.0823,11.3325],[-16.1219,11.3431]]],[[[-16.1731,11.348],[-16.1837,11.3405],[-16.1567,11.3301],[-16.1731,11.348]]],[[[-16.0323,11.3564],[-16.061,11.3415],[-16.0246,11.3346],[-16.0469,11.318],[-16.0191,11.3362],[-16.0323,11.3564]]],[[[-15.7763,11.3736],[-15.8176,11.3555],[-15.8313,11.3072],[-15.8222,11.3155],[-15.8149,11.3021],[-15.8019,11.3042],[-15.8136,11.3145],[-15.7942,11.3197],[-15.8186,11.3341],[-15.8087,11.3494],[-15.7925,11.3469],[-15.7763,11.3736]]],[[[-15.8446,11.3807],[-15.8988,11.329],[-15.8852,11.3249],[-15.8696,11.352],[-15.8664,11.3437],[-15.8511,11.352],[-15.8446,11.3807]]],[[[-16.0032,11.3865],[-16.0182,11.3771],[-15.999,11.3781],[-16.0032,11.3865]]],[[[-16.0915,11.4226],[-16.1469,11.4018],[-16.1402,11.3676],[-16.1362,11.3987],[-16.1192,11.4032],[-16.1199,11.3899],[-16.0977,11.3868],[-16.1098,11.394],[-16.0822,11.4216],[-16.0915,11.4226]]],[[[-16.0721,11.4191],[-16.0894,11.4082],[-16.062,11.3908],[-16.0756,11.4005],[-16.0661,11.4052],[-16.0721,11.4191]]],[[[-16.309,11.4372],[-16.3087,11.4382],[-16.31,11.4354],[-16.3114,11.4166],[-16.3103,11.4076],[-16.3091,11.4068],[-16.3099,11.4083],[-16.3062,11.4073],[-16.3091,11.4086],[-16.3086,11.4094],[-16.3052,11.4085],[-16.3032,11.4107],[-16.3057,11.4104],[-16.3091,11.414],[-16.3071,11.414],[-16.3063,11.4184],[-16.3073,11.4187],[-16.3068,11.4202],[-16.3076,11.4197],[-16.3075,11.431],[-16.309,11.4372]]],[[[-16.1681,11.5014],[-16.1669,11.5022],[-16.1687,11.5027],[-16.1716,11.5007],[-16.1745,11.5024],[-16.1766,11.5014],[-16.1759,11.4999],[-16.181,11.495],[-16.1794,11.4932],[-16.182,11.4934],[-16.1846,11.4888],[-16.1812,11.4889],[-16.1799,11.4903],[-16.1783,11.4895],[-16.1786,11.4877],[-16.1799,11.4877],[-16.1783,11.4859],[-16.1796,11.4849],[-16.1786,11.4836],[-16.1806,11.4818],[-16.177,11.4836],[-16.178,11.4814],[-16.172,11.4867],[-16.1692,11.4953],[-16.1679,11.4958],[-16.1681,11.5014]]],[[[-15.661,11.5025],[-15.6894,11.4907],[-15.7004,11.465],[-15.717,11.4686],[-15.7348,11.4549],[-15.7121,11.4334],[-15.6684,11.4439],[-15.645,11.465],[-15.6675,11.4839],[-15.661,11.5025]]],[[[-15.927,11.5167],[-15.9298,11.5008],[-15.9532,11.508],[-15.9532,11.4932],[-15.963,11.5149],[-15.9779,11.503],[-15.9691,11.5161],[-15.9939,11.5042],[-16.0211,11.5133],[-16.0465,11.4722],[-16.0817,11.4502],[-16.0286,11.423],[-16.0029,11.4339],[-16.0064,11.4445],[-15.9807,11.4302],[-15.9794,11.4508],[-15.9812,11.4386],[-15.9623,11.4357],[-15.9538,11.4523],[-15.9438,11.4454],[-15.9682,11.4235],[-15.9434,11.4279],[-15.9006,11.4532],[-15.9091,11.5117],[-15.927,11.5167]]],[[[-15.94,11.5247],[-15.9618,11.52],[-15.9425,11.5123],[-15.94,11.5247]]],[[[-16.1644,11.5294],[-16.2349,11.5133],[-16.2895,11.4576],[-16.2585,11.4696],[-16.2443,11.4545],[-16.2205,11.4546],[-16.2355,11.4731],[-16.2228,11.4716],[-16.2238,11.4855],[-16.1999,11.465],[-16.1969,11.489],[-16.2145,11.5059],[-16.1698,11.5069],[-16.1644,11.5294]]],[[[-15.983,11.5812],[-16.0123,11.5425],[-15.9989,11.5117],[-15.9596,11.5465],[-15.9768,11.5465],[-15.9678,11.5545],[-15.9756,11.5653],[-15.9831,11.5578],[-15.983,11.5812]]],[[[-16.2738,11.5935],[-16.3249,11.5515],[-16.2998,11.5424],[-16.3471,11.5423],[-16.3715,11.5603],[-16.4015,11.5523],[-16.4186,11.5297],[-16.4096,11.5037],[-16.3944,11.491],[-16.3754,11.5127],[-16.3563,11.4947],[-16.3464,11.5066],[-16.3087,11.4837],[-16.2933,11.4958],[-16.27,11.4896],[-16.2401,11.5488],[-16.2461,11.58],[-16.2738,11.5935]]],[[[-15.9484,11.6043],[-15.979,11.5859],[-15.9761,11.5764],[-15.9681,11.5653],[-15.9617,11.5824],[-15.9662,11.5625],[-15.9347,11.5257],[-15.9078,11.5234],[-15.8953,11.5411],[-15.9224,11.5496],[-15.905,11.549],[-15.9144,11.5627],[-15.9004,11.5757],[-15.9124,11.5919],[-15.9347,11.5768],[-15.9484,11.6043]]],[[[-15.4694,11.638],[-15.4732,11.6261],[-15.5218,11.6137],[-15.5501,11.5752],[-15.588,11.5716],[-15.6073,11.5382],[-15.633,11.5268],[-15.5463,11.502],[-15.5369,11.5188],[-15.5648,11.5243],[-15.5521,11.533],[-15.5587,11.5495],[-15.5219,11.541],[-15.5068,11.5661],[-15.497,11.5447],[-15.4899,11.556],[-15.4667,11.5516],[-15.4625,11.5661],[-15.4788,11.5675],[-15.4717,11.5785],[-15.484,11.5904],[-15.46,11.6288],[-15.4694,11.638]]],[[[-15.4208,11.5301],[-15.3525,11.565],[-15.311,11.607],[-15.3186,11.6672],[-15.3375,11.6927],[-15.4058,11.6877],[-15.4514,11.6395],[-15.4571,11.5895],[-15.4208,11.5301]]]]}},{"type":"Feature","properties":{"name":"Cacheu","code":"76643164B20603668674672","iso":"GNB"},"geometry":{"type":"Polygon","coordinates":[[[-15.6769,12.0271],[-15.6723,12.0631],[-15.6538,12.0757],[-15.6588,12.1122],[-15.6224,12.1264],[-15.6212,12.1503],[-15.6728,12.1705],[-15.683,12.1914],[-15.7163,12.1935],[-15.7239,12.2195],[-15.7571,12.2432],[-15.7218,12.2633],[-15.7234,12.2774],[-15.7436,12.2807],[-15.7242,12.3086],[-15.7106,12.3074],[-15.7026,12.2895],[-15.6857,12.2991],[-15.6957,12.3134],[-15.6847,12.3231],[-15.625,12.3231],[-15.6145,12.3544],[-15.5945,12.3572],[-15.5735,12.3834],[-15.5489,12.3813],[-15.5274,12.4105],[-15.4952,12.4011],[-15.4816,12.4199],[-15.4808,12.5153],[-15.6831,12.4249],[-15.884,12.4499],[-15.9534,12.4428],[-16.0388,12.4724],[-16.1626,12.4497],[-16.2028,12.4613],[-16.3754,12.3759],[-16.381,12.3625],[-16.5143,12.3505],[-16.5475,12.3604],[-16.606,12.3469],[-16.6897,12.3592],[-16.7173,12.3395],[-16.683,12.3443],[-16.6196,12.3134],[-16.5965,12.2867],[-16.5617,12.2811],[-16.4799,12.1941],[-16.4411,12.1848],[-16.3433,12.0982],[-16.3275,12.0623],[-16.3402,12.0246],[-16.3113,12.0026],[-16.2928,11.9422],[-16.3124,11.8707],[-16.3296,11.8536],[-16.2321,11.8398],[-16.1763,11.8711],[-16.1628,11.86],[-16.153,11.8078],[-16.0991,11.7816],[-16.0918,11.7585],[-16.0601,11.7635],[-15.9976,11.748],[-15.9514,11.881],[-15.9011,11.9422],[-15.8264,12.0015],[-15.7861,12.0167],[-15.7606,12.0098],[-15.752,11.9747],[-15.7087,11.9769],[-15.7053,12.0077],[-15.6769,12.0271]]]}},{"type":"Feature","properties":{"name":"Gabu","code":"76643164B38080973404583","iso":"GNB"},"geometry":{"type":"Polygon","coordinates":[[[-14.5139,11.6495],[-14.4821,11.6397],[-14.4712,11.6202],[-14.4365,11.6191],[-14.4113,11.5567],[-14.3195,11.6024],[-14.2671,11.677],[-14.2505,11.6641],[-14.2049,11.6725],[-14.1792,11.6565],[-14.1351,11.6647],[-14.119,11.6428],[-14.0826,11.6261],[-14.0405,11.6546],[-13.9884,11.6417],[-13.9363,11.6549],[-13.9221,11.685],[-13.8733,11.6593],[-13.8456,11.717],[-13.849,11.7293],[-13.8547,11.72],[-13.8637,11.7298],[-13.8544,11.7472],[-13.8239,11.7347],[-13.8335,11.7252],[-13.8206,11.7042],[-13.7954,11.7175],[-13.7982,11.6938],[-13.7757,11.6826],[-13.7082,11.7074],[-13.7012,11.7705],[-13.7127,11.8803],[-13.6963,12.0082],[-13.7647,12.0308],[-13.8053,12.0628],[-13.797,12.0667],[-13.8137,12.0964],[-13.8682,12.1078],[-13.8755,12.1369],[-13.9378,12.1449],[-13.9578,12.1802],[-13.9571,12.1998],[-13.9335,12.2038],[-13.9192,12.2346],[-13.8571,12.2423],[-13.8524,12.2629],[-13.8644,12.2752],[-13.8553,12.2813],[-13.8311,12.2832],[-13.8224,12.2582],[-13.7986,12.2974],[-13.7999,12.2516],[-13.7754,12.2523],[-13.7596,12.2771],[-13.7272,12.2471],[-13.6861,12.3106],[-13.6582,12.32],[-13.6663,12.3434],[-13.6514,12.3672],[-13.6663,12.4055],[-13.6349,12.4302],[-13.6365,12.4645],[-13.7095,12.6079],[-13.7081,12.6756],[-14.3234,12.6765],[-14.3219,12.6605],[-14.3403,12.66],[-14.3365,12.6288],[-14.3505,12.612],[-14.3697,12.6065],[-14.395,12.6428],[-14.4128,12.6338],[-14.4076,12.5992],[-14.3961,12.5935],[-14.408,12.5661],[-14.3892,12.5356],[-14.3626,12.5277],[-14.3687,12.5048],[-14.3832,12.497],[-14.4137,12.5179],[-14.4488,12.4916],[-14.4573,12.5112],[-14.505,12.5128],[-14.5,12.5275],[-14.5262,12.5209],[-14.5233,12.4957],[-14.5005,12.4786],[-14.4722,12.4911],[-14.4517,12.4517],[-14.4592,12.4416],[-14.4806,12.4463],[-14.4804,12.4326],[-14.501,12.4423],[-14.4897,12.4059],[-14.5062,12.3902],[-14.5294,12.4051],[-14.5435,12.3951],[-14.5531,12.3788],[-14.5365,12.3713],[-14.5503,12.3553],[-14.4894,12.3045],[-14.4817,12.2831],[-14.4915,12.2314],[-14.4402,12.1471],[-14.457,12.1184],[-14.468,12.1314],[-14.5082,12.1076],[-14.503,12.1239],[-14.5152,12.124],[-14.5458,12.1027],[-14.4941,12.0357],[-14.5086,11.9898],[-14.4699,11.9133],[-14.4839,11.8539],[-14.4691,11.7591],[-14.4436,11.729],[-14.4985,11.6806],[-14.4959,11.667],[-14.5139,11.6495]]]}},{"type":"Feature","properties":{"name":"Oio","code":"76643164B92913079273182","iso":"GNB"},"geometry":{"type":"Polygon","coordinates":[[[-15.5244,11.8341],[-15.4677,11.8928],[-15.4346,11.9101],[-15.3478,11.915],[-15.1727,11.8945],[-15.0593,11.9739],[-14.9623,11.96],[-14.9458,11.9702],[-14.9451,11.9952],[-14.9963,12.0416],[-15.0726,12.1849],[-15.0289,12.2042],[-14.96,12.1907],[-14.9357,12.1994],[-14.9451,12.2737],[-14.9362,12.2855],[-14.9708,12.3509],[-14.9722,12.423],[-14.9119,12.4285],[-14.8493,12.4528],[-14.8771,12.4974],[-14.9077,12.5186],[-14.8476,12.5992],[-14.8687,12.6622],[-14.9129,12.6783],[-15.1636,12.6862],[-15.2397,12.6596],[-15.3376,12.6137],[-15.4048,12.5529],[-15.4808,12.5153],[-15.4816,12.4199],[-15.4952,12.4011],[-15.5274,12.4105],[-15.5489,12.3813],[-15.5735,12.3834],[-15.5945,12.3572],[-15.6145,12.3544],[-15.625,12.3231],[-15.694,12.3169],[-15.6845,12.3015],[-15.6984,12.2901],[-15.7158,12.3093],[-15.7337,12.2981],[-15.7431,12.2765],[-15.7234,12.2774],[-15.7218,12.2633],[-15.755,12.2384],[-15.7239,12.2195],[-15.7163,12.1935],[-15.683,12.1914],[-15.6728,12.1705],[-15.6212,12.1503],[-15.6224,12.1264],[-15.6588,12.1122],[-15.6538,12.0757],[-15.6723,12.0631],[-15.6769,12.0271],[-15.6391,12.0177],[-15.6097,11.9383],[-15.5812,11.9361],[-15.5397,11.8946],[-15.5244,11.8341]]]}},{"type":"Feature","properties":{"name":"Quinara","code":"76643164B25325276017448","iso":"GNB"},"geometry":{"type":"Polygon","coordinates":[[[-15.6011,11.7535],[-15.5472,11.7175],[-15.5366,11.6807],[-15.482,11.648],[-15.4514,11.6395],[-15.4216,11.6784],[-15.3688,11.6973],[-15.3375,11.6927],[-15.3186,11.6672],[-15.311,11.607],[-15.3525,11.565],[-15.4208,11.5301],[-15.4161,11.4865],[-15.4532,11.4696],[-15.4624,11.4834],[-15.4749,11.4673],[-15.4576,11.4378],[-15.4808,11.4194],[-15.5038,11.3371],[-15.4463,11.3068],[-15.406,11.3568],[-15.3615,11.3853],[-15.3216,11.3714],[-15.2983,11.3811],[-15.2164,11.4763],[-15.1346,11.4541],[-15.126,11.4301],[-15.082,11.4057],[-15.0306,11.4198],[-15.0238,11.4366],[-14.9592,11.435],[-14.8414,11.7012],[-14.8583,11.6906],[-14.8643,11.702],[-14.8241,11.7423],[-14.8499,11.7429],[-14.8563,11.759],[-14.8833,11.7467],[-14.8857,11.7862],[-14.9072,11.7913],[-14.9299,11.785],[-14.9188,11.7592],[-14.9551,11.7499],[-14.9925,11.7927],[-15.0379,11.8057],[-15.0498,11.8665],[-15.015,11.9307],[-15.0257,11.9669],[-15.0451,11.9761],[-15.0734,11.9675],[-15.1727,11.8945],[-15.3478,11.915],[-15.4521,11.9031],[-15.6011,11.7535]]]}},{"type":"Feature","properties":{"name":"Tombali","code":"76643164B14801811690770","iso":"GNB"},"geometry":{"type":"Polygon","coordinates":[[[-14.8414,11.7012],[-14.9592,11.435],[-15.0238,11.4366],[-15.0306,11.4198],[-15.082,11.4057],[-15.126,11.4301],[-15.1346,11.4541],[-15.2164,11.4763],[-15.2983,11.3811],[-15.3216,11.3714],[-15.3615,11.3853],[-15.406,11.3568],[-15.4463,11.3068],[-15.3979,11.2695],[-15.4073,11.2093],[-15.3913,11.1804],[-15.322,11.1293],[-15.2985,11.1378],[-15.2886,11.1205],[-15.2436,11.1215],[-15.2034,11.0877],[-15.2718,11.0269],[-15.2455,11.0032],[-15.1045,10.9665],[-15.1031,10.939],[-15.0907,10.9421],[-15.0762,10.9227],[-15.074,10.8918],[-15.0022,10.9556],[-14.9577,10.977],[-14.9541,11.0117],[-14.8375,11.2025],[-14.7723,11.3646],[-14.7016,11.4719],[-14.6636,11.505],[-14.5116,11.4965],[-14.4113,11.5567],[-14.4365,11.6191],[-14.4712,11.6202],[-14.5027,11.6515],[-14.5367,11.637],[-14.603,11.638],[-14.6261,11.6128],[-14.647,11.6472],[-14.6615,11.65],[-14.695,11.5959],[-14.7281,11.59],[-14.7998,11.645],[-14.7998,11.6936],[-14.8414,11.7012]]]}}]}