{"type":"FeatureCollection","features":[{"type":"Feature","properties":{"name":"Annobón","code":"51917635B39296927406250","iso":"GNQ"},"geometry":{"type":"Polygon","coordinates":[[[5.6239,-1.4353],[5.6285,-1.4668],[5.6516,-1.4607],[5.6557,-1.4355],[5.6407,-1.4028],[5.618,-1.4092],[5.6239,-1.4353]]]}},{"type":"Feature","properties":{"name":"Bioko Norte","code":"51917635B51392139910348","iso":"GNQ"},"geometry":{"type":"Polygon","coordinates":[[[8.8432,3.5052],[8.9332,3.6407],[8.9337,3.7153],[8.9007,3.7636],[8.7333,3.7573],[8.7297,3.7813],[8.7135,3.7881],[8.6902,3.776],[8.6802,3.7482],[8.6136,3.6709],[8.6112,3.6468],[8.6492,3.6425],[8.7087,3.5893],[8.7359,3.58],[8.8013,3.588],[8.8345,3.5546],[8.8432,3.5052]]]}},{"type":"Feature","properties":{"name":"Bioko Sur","code":"51917635B89890013794964","iso":"GNQ"},"geometry":{"type":"Polygon","coordinates":[[[8.6112,3.6468],[8.609,3.5656],[8.571,3.5214],[8.5851,3.504],[8.5739,3.4685],[8.5564,3.4603],[8.4781,3.4745],[8.4588,3.4656],[8.4343,3.4286],[8.4148,3.3609],[8.4398,3.2802],[8.4538,3.2693],[8.5583,3.2399],[8.5905,3.2459],[8.6769,3.209],[8.7648,3.3184],[8.7733,3.3493],[8.7655,3.3911],[8.8077,3.4236],[8.8101,3.4555],[8.8423,3.4961],[8.8396,3.5317],[8.8345,3.5546],[8.8013,3.588],[8.7359,3.58],[8.7087,3.5893],[8.6492,3.6425],[8.6112,3.6468]]]}},{"type":"Feature","properties":{"name":"Litoral Province","code":"51917635B39894172986547","iso":"GNQ"},"geometry":{"type":"MultiPolygon","coordinates":[[[[9.3024,0.8962],[9.3453,0.8932],[9.3303,0.932],[9.3073,0.9335],[9.3024,0.8962]]],[[[9.4994,0.9822],[9.5106,0.9739],[9.5044,0.9939],[9.4994,0.9822]]],[[[10.1631,2.1631],[10.1573,2.1753],[10.1216,2.1566],[10.0457,2.1739],[10.0349,2.1624],[9.9232,2.2061],[9.9065,2.1977],[9.887,2.2308],[9.8482,2.2457],[9.8288,2.3426],[9.7785,2.3273],[9.7961,2.1666],[9.7875,2.1264],[9.7643,2.0935],[9.8115,1.9189],[9.7431,1.8455],[9.7585,1.8293],[9.7433,1.8377],[9.7258,1.7777],[9.609,1.6673],[9.6053,1.6231],[9.6256,1.5987],[9.5964,1.5742],[9.5607,1.4863],[9.4623,1.3976],[9.459,1.3256],[9.4268,1.2839],[9.3959,1.2738],[9.3696,1.1857],[9.3413,1.1756],[9.3856,1.1083],[9.4097,1.1006],[9.4793,1.1377],[9.5059,1.138],[9.5512,1.1141],[9.5871,1.0297],[9.5988,1.0628],[9.597,1.0505],[9.605,1.0562],[9.6149,1.0423],[9.6562,1.07],[9.6623,1.0591],[9.7139,1.0694],[9.7708,1.0503],[9.7979,1.0002],[9.984,1.0026],[10.0072,1.0505],[10.0634,1.0825],[10.1927,1.0851],[10.2269,1.0957],[10.2557,1.1241],[10.2506,1.1725],[10.1921,1.1708],[10.1916,1.2016],[10.1679,1.224],[10.1697,1.2649],[10.1432,1.2664],[10.1315,1.2807],[10.1296,1.3841],[10.1031,1.3847],[10.0812,1.4132],[10.0815,1.441],[10.1032,1.4712],[10.0366,1.5214],[10.0012,1.5214],[9.9688,1.5432],[9.9162,1.552],[9.8984,1.5715],[9.9728,1.6097],[10.0434,1.7418],[10.0808,1.7874],[10.1038,1.9529],[10.1767,2.0207],[10.1845,2.1103],[10.1631,2.1631]]]]}},{"type":"Feature","properties":{"name":"Kié-Ntem Province","code":"51917635B96022802158984","iso":"GNQ"},"geometry":{"type":"Polygon","coordinates":[[[10.4002,2.174],[10.3991,2.0873],[10.4322,2.0301],[10.4316,2.0053],[10.4077,1.9818],[10.4059,1.9233],[10.4182,1.9103],[10.5094,1.9291],[10.5291,1.916],[10.5678,1.9524],[10.5909,1.9523],[10.6554,1.9884],[10.8493,1.9309],[10.8956,1.9311],[10.9235,1.9761],[10.9532,1.9761],[10.9746,1.7747],[11.0028,1.7304],[11.0597,1.7392],[11.1605,1.7276],[11.203,1.7561],[11.3473,1.735],[11.3599,2.1719],[10.4002,2.174]]]}},{"type":"Feature","properties":{"name":"Centro Sur Province","code":"51917635B11975982083171","iso":"GNQ"},"geometry":{"type":"Polygon","coordinates":[[[9.984,1.0026],[10.9541,1.003],[10.969,1.0283],[10.9666,1.0437],[10.9367,1.0651],[10.9311,1.1517],[10.8523,1.1941],[10.7659,1.2846],[10.7748,1.355],[10.841,1.4424],[10.8496,1.4715],[10.92,1.538],[10.9847,1.5541],[10.9807,1.5792],[10.9634,1.5821],[10.9528,1.557],[10.9492,1.5763],[10.9343,1.5828],[10.9347,1.5666],[10.8876,1.5811],[10.8871,1.5991],[10.8711,1.6025],[10.8675,1.5868],[10.8498,1.5902],[10.8607,1.5592],[10.8311,1.5945],[10.8142,1.5967],[10.8099,1.5841],[10.7722,1.5948],[10.7641,1.5814],[10.7092,1.5694],[10.7107,1.5548],[10.6815,1.5541],[10.6523,1.5754],[10.6456,1.5598],[10.6161,1.5795],[10.5693,1.5859],[10.573,1.6139],[10.5917,1.636],[10.5665,1.6824],[10.6133,1.7755],[10.6001,1.793],[10.6173,1.8244],[10.5933,1.8266],[10.5901,1.8597],[10.5629,1.8608],[10.5348,1.9119],[10.5094,1.9291],[10.4238,1.9105],[10.4059,1.9233],[10.4077,1.9818],[10.4316,2.0053],[10.4322,2.0301],[10.3991,2.0873],[10.4002,2.174],[10.1888,2.1734],[10.1631,2.1631],[10.1845,2.1103],[10.1767,2.0207],[10.1038,1.9529],[10.0808,1.7874],[10.0434,1.7418],[9.9728,1.6097],[9.8984,1.5715],[9.9162,1.552],[9.9688,1.5432],[10.0012,1.5214],[10.0366,1.5214],[10.1032,1.4712],[10.0815,1.441],[10.0812,1.4132],[10.1031,1.3847],[10.1296,1.3841],[10.1315,1.2807],[10.1432,1.2664],[10.1697,1.2649],[10.1679,1.224],[10.1916,1.2016],[10.1921,1.1708],[10.2218,1.1639],[10.2443,1.1764],[10.2575,1.1621],[10.2557,1.1241],[10.2269,1.0957],[10.1676,1.0805],[10.0634,1.0825],[10.0072,1.0505],[9.984,1.0026]]]}},{"type":"Feature","properties":{"name":"Wele-Nzas Province","code":"51917635B29423629069944","iso":"GNQ"},"geometry":{"type":"Polygon","coordinates":[[[10.5291,1.916],[10.5629,1.8608],[10.5901,1.8597],[10.5933,1.8266],[10.6173,1.8244],[10.6001,1.793],[10.6133,1.7755],[10.5665,1.6824],[10.5917,1.636],[10.573,1.6139],[10.5693,1.5859],[10.6161,1.5795],[10.6456,1.5598],[10.6523,1.5754],[10.6815,1.5541],[10.7107,1.5548],[10.7092,1.5694],[10.7641,1.5814],[10.7722,1.5948],[10.8099,1.5841],[10.8142,1.5967],[10.8311,1.5945],[10.8607,1.5592],[10.8498,1.5902],[10.8675,1.5868],[10.8711,1.6025],[10.8871,1.5991],[10.8876,1.5811],[10.9347,1.5666],[10.9343,1.5828],[10.9492,1.5763],[10.9528,1.557],[10.9634,1.5821],[10.9807,1.5792],[10.9847,1.5541],[10.92,1.538],[10.8496,1.4715],[10.841,1.4424],[10.7748,1.355],[10.7659,1.2846],[10.8523,1.1941],[10.9311,1.1517],[10.9367,1.0651],[10.9694,1.0387],[10.9541,1.003],[11.3533,1.0022],[11.3473,1.735],[11.203,1.7561],[11.1605,1.7276],[11.0597,1.7392],[11.0028,1.7304],[10.9746,1.7747],[10.9532,1.9761],[10.9235,1.9761],[10.8956,1.9311],[10.8493,1.9309],[10.6554,1.9884],[10.5909,1.9523],[10.5678,1.9524],[10.5291,1.916]]]}}]}