{"type":"FeatureCollection","features":[{"type":"Feature","properties":{"name":"Bomi","code":"1627179B80972729563959","iso":"LBR"},"geometry":{"type":"Polygon","coordinates":[[[-10.5042,6.8612],[-10.5832,6.8809],[-10.6407,6.8747],[-10.649,6.8521],[-10.6723,6.8438],[-10.7194,6.8575],[-10.7527,6.8434],[-10.7607,6.9391],[-10.8275,6.9777],[-10.8656,6.9697],[-10.9361,6.9847],[-10.9656,6.8753],[-10.9886,6.8458],[-10.9654,6.7961],[-10.9777,6.7895],[-10.9722,6.7366],[-10.9822,6.7159],[-11.0105,6.7158],[-11.0238,6.7025],[-11.0274,6.6629],[-11.063,6.6578],[-11.0861,6.6398],[-11.0702,6.5884],[-11.0515,6.5747],[-11.0399,6.5843],[-10.9609,6.535],[-10.9424,6.562],[-10.9141,6.5579],[-10.8961,6.5226],[-10.8747,6.5152],[-10.8804,6.4801],[-10.8392,6.4742],[-10.8249,6.4916],[-10.8085,6.491],[-10.8067,6.5075],[-10.8087,6.5195],[-10.836,6.5274],[-10.8426,6.5692],[-10.8286,6.5892],[-10.7832,6.5828],[-10.7763,6.5514],[-10.793,6.5408],[-10.7721,6.5232],[-10.7139,6.5636],[-10.7082,6.587],[-10.5969,6.6082],[-10.5907,6.6186],[-10.6112,6.6479],[-10.5876,6.6894],[-10.5973,6.7136],[-10.5739,6.7279],[-10.5742,6.7678],[-10.5563,6.8088],[-10.5093,6.8268],[-10.5042,6.8612]]]}},{"type":"Feature","properties":{"name":"Bong","code":"1627179B61083292869492","iso":"LBR"},"geometry":{"type":"Polygon","coordinates":[[[-10.5093,6.8268],[-10.4547,6.7756],[-10.3777,6.7721],[-10.3523,6.7858],[-10.3404,6.8115],[-10.2863,6.8211],[-10.1468,6.897],[-10.1219,6.8272],[-10.1502,6.7811],[-10.1495,6.7524],[-10.171,6.7428],[-10.1749,6.6967],[-10.122,6.7013],[-10.0823,6.6711],[-10.0351,6.6889],[-9.9995,6.6762],[-9.9777,6.6853],[-9.9563,6.6727],[-9.9254,6.6818],[-9.9147,6.6665],[-9.9226,6.6286],[-9.8906,6.6057],[-9.8152,6.7164],[-9.7509,6.7458],[-9.7079,6.677],[-9.5984,6.6188],[-9.6186,6.5428],[-9.6669,6.4564],[-9.6585,6.4362],[-9.6662,6.4029],[-9.5847,6.4596],[-9.5834,6.4751],[-9.524,6.4659],[-9.5018,6.4838],[-9.5047,6.5025],[-9.4854,6.4929],[-9.4673,6.5124],[-9.4527,6.5068],[-9.4527,6.5218],[-9.4383,6.5182],[-9.404,6.5635],[-9.3921,6.5549],[-9.368,6.5894],[-9.3355,6.6052],[-9.3365,6.6223],[-9.3127,6.6091],[-9.3179,6.5915],[-9.2134,6.6211],[-9.211,6.6347],[-9.197,6.6186],[-9.1763,6.6268],[-9.1586,6.6612],[-9.1734,6.6784],[-9.1496,6.6906],[-9.16,6.7179],[-9.122,6.7492],[-9.1393,6.7779],[-9.1081,6.801],[-9.1175,6.8495],[-9.1042,6.8543],[-9.1156,6.8762],[-9.1073,6.883],[-9.1236,6.9062],[-9.1427,6.9102],[-9.1548,6.9474],[-9.1802,6.9584],[-9.1931,6.984],[-9.164,7.0053],[-9.1745,7.0267],[-9.158,7.0449],[-9.1686,7.0611],[-9.1328,7.0931],[-9.107,7.1799],[-9.1046,7.2366],[-9.1256,7.2566],[-9.1234,7.2738],[-9.1542,7.2723],[-9.1976,7.3136],[-9.2041,7.3875],[-9.2364,7.3921],[-9.2835,7.3755],[-9.2919,7.4234],[-9.3194,7.4351],[-9.3282,7.426],[-9.3646,7.4301],[-9.3642,7.4121],[-9.4012,7.388],[-9.4167,7.4279],[-9.4667,7.3965],[-9.4963,7.3397],[-9.6516,7.2757],[-9.6609,7.2081],[-9.7202,7.1994],[-9.7207,7.1835],[-9.74,7.1761],[-9.7493,7.186],[-9.7897,7.1819],[-9.8166,7.2057],[-9.8789,7.1598],[-9.906,7.1541],[-9.901,7.1434],[-9.9246,7.1271],[-9.946,7.137],[-10.0106,7.1098],[-10.0124,7.0954],[-10.0642,7.0771],[-10.0774,7.0505],[-10.1004,7.0384],[-10.1165,7.0532],[-10.1065,7.0592],[-10.1253,7.0997],[-10.1098,7.1111],[-10.114,7.1476],[-10.1637,7.1536],[-10.2196,7.1395],[-10.235,7.1254],[-10.2355,7.0874],[-10.3363,6.9863],[-10.3616,6.9641],[-10.417,6.9646],[-10.44,6.939],[-10.4322,6.9266],[-10.4494,6.9026],[-10.5027,6.8655],[-10.5093,6.8268]]]}},{"type":"Feature","properties":{"name":"Gbarpolu","code":"1627179B68944354302681","iso":"LBR"},"geometry":{"type":"Polygon","coordinates":[[[-10.5042,6.8612],[-10.4494,6.9026],[-10.4322,6.9266],[-10.44,6.939],[-10.417,6.9646],[-10.3616,6.9641],[-10.3363,6.9863],[-10.2355,7.0874],[-10.235,7.1254],[-10.2196,7.1395],[-10.1637,7.1536],[-10.114,7.1476],[-10.1098,7.1111],[-10.1253,7.0997],[-10.1065,7.0592],[-10.1165,7.0532],[-10.1004,7.0384],[-10.0774,7.0505],[-10.0642,7.0771],[-10.0124,7.0954],[-10.0106,7.1098],[-9.946,7.137],[-9.9246,7.1271],[-9.901,7.1434],[-9.906,7.1541],[-9.8789,7.1598],[-9.8026,7.2109],[-9.7908,7.246],[-9.7632,7.2546],[-9.7913,7.2781],[-9.7652,7.2996],[-9.7534,7.3454],[-9.7287,7.3729],[-9.7204,7.3666],[-9.7236,7.3859],[-9.6858,7.3981],[-9.6987,7.4026],[-9.7154,7.4528],[-9.6874,7.4731],[-9.6951,7.4855],[-9.6847,7.5013],[-9.6586,7.504],[-9.6363,7.5327],[-9.6894,7.6219],[-9.924,7.7477],[-9.9916,7.7338],[-10.023,7.7332],[-10.0283,7.7474],[-10.0447,7.7476],[-10.0461,7.7375],[-10.175,7.7325],[-10.1647,7.764],[-10.1904,7.7801],[-10.1868,7.8191],[-10.2244,7.8038],[-10.2404,7.8242],[-10.231,7.8384],[-10.2539,7.8434],[-10.2864,7.8203],[-10.279,7.8508],[-10.3172,7.8673],[-10.293,7.926],[-10.312,7.9183],[-10.3266,7.9283],[-10.2923,8.0002],[-10.3269,8.0135],[-10.3343,7.9983],[-10.3974,7.9759],[-10.3988,7.9891],[-10.4378,7.991],[-10.5446,7.9509],[-10.5476,7.9635],[-10.6061,7.9206],[-10.6055,7.7754],[-10.6428,7.7699],[-10.6973,7.7383],[-10.7479,7.6611],[-10.7752,7.6507],[-10.7981,7.5925],[-10.8161,7.595],[-10.8266,7.5644],[-10.8743,7.5318],[-10.8033,7.4691],[-10.7945,7.438],[-10.7291,7.4325],[-10.7046,7.4029],[-10.6258,7.3582],[-10.5696,7.3424],[-10.5154,7.3532],[-10.5154,7.3228],[-10.6797,7.1976],[-10.7101,7.1888],[-10.7657,7.1232],[-10.83,7.1023],[-10.8333,7.0877],[-10.8947,7.0564],[-10.922,7.0155],[-10.9548,7.0068],[-10.9361,6.9847],[-10.8656,6.9697],[-10.8275,6.9777],[-10.7607,6.9391],[-10.7527,6.8434],[-10.7194,6.8575],[-10.6723,6.8438],[-10.649,6.8521],[-10.6407,6.8747],[-10.5832,6.8809],[-10.5042,6.8612]]]}},{"type":"Feature","properties":{"name":"Grand Bassa","code":"1627179B88241484252267","iso":"LBR"},"geometry":{"type":"Polygon","coordinates":[[[-9.8732,6.6231],[-9.878,6.5837],[-9.9377,6.5006],[-9.9481,6.4572],[-9.9808,6.4395],[-10.0744,6.4899],[-10.098,6.4942],[-10.1055,6.4822],[-10.1259,6.504],[-10.1499,6.5079],[-10.1684,6.5329],[-10.1626,6.548],[-10.1766,6.5541],[-10.1904,6.5421],[-10.2105,6.556],[-10.2507,6.5372],[-10.2519,6.5173],[-10.234,6.5027],[-10.2399,6.4859],[-10.2204,6.4882],[-10.2373,6.442],[-10.2711,6.4257],[-10.2607,6.3979],[-10.269,6.3705],[-10.2999,6.3408],[-10.3137,6.3451],[-10.3015,6.3269],[-10.3132,6.3146],[-10.2969,6.2989],[-10.3465,6.2557],[-10.3555,6.2326],[-10.3403,6.1982],[-10.3577,6.1779],[-10.3553,6.1551],[-10.3822,6.1436],[-10.3634,6.1049],[-10.2256,6.0439],[-10.1782,5.9779],[-10.0678,5.9138],[-10.0532,5.8895],[-10.058,5.8662],[-10.0225,5.8377],[-10.0196,5.8192],[-9.8593,5.6953],[-9.7818,5.6072],[-9.7287,5.5686],[-9.7332,5.5974],[-9.7078,5.605],[-9.7079,5.6251],[-9.6663,5.662],[-9.674,5.7064],[-9.6932,5.7243],[-9.678,5.7692],[-9.6998,5.8225],[-9.6548,5.8903],[-9.668,5.9036],[-9.67,5.9334],[-9.6592,5.9376],[-9.6699,5.959],[-9.6487,5.9817],[-9.6518,6.0402],[-9.6051,6.0708],[-9.6118,6.099],[-9.5827,6.1169],[-9.5392,6.0995],[-9.5277,6.0691],[-9.5062,6.1282],[-9.4813,6.1577],[-9.4149,6.1628],[-9.4056,6.1839],[-9.4138,6.2768],[-9.3979,6.3314],[-9.3654,6.3086],[-9.3419,6.3072],[-9.3292,6.3524],[-9.2844,6.3502],[-9.2362,6.3648],[-9.1774,6.4116],[-9.182,6.4537],[-9.1583,6.5277],[-9.162,6.5995],[-9.1872,6.6309],[-9.197,6.6186],[-9.2083,6.6348],[-9.2134,6.6211],[-9.3179,6.5915],[-9.3127,6.6091],[-9.3365,6.6223],[-9.3355,6.6052],[-9.368,6.5894],[-9.3921,6.5549],[-9.404,6.5635],[-9.4383,6.5182],[-9.4527,6.5218],[-9.4527,6.5068],[-9.4673,6.5124],[-9.4854,6.4929],[-9.5047,6.5025],[-9.5018,6.4838],[-9.524,6.4659],[-9.5834,6.4751],[-9.5847,6.4596],[-9.6662,6.4029],[-9.6585,6.4362],[-9.6669,6.4564],[-9.6186,6.5428],[-9.5984,6.6188],[-9.7079,6.677],[-9.7509,6.7458],[-9.8152,6.7164],[-9.8732,6.6231]]]}},{"type":"Feature","properties":{"name":"Grand Cape Mount","code":"1627179B74258959251724","iso":"LBR"},"geometry":{"type":"Polygon","coordinates":[[[-10.9361,6.9847],[-10.9548,7.0068],[-10.9481,7.0155],[-10.922,7.0155],[-10.8873,7.0622],[-10.8333,7.0877],[-10.8126,7.1128],[-10.7657,7.1232],[-10.7101,7.1888],[-10.6797,7.1976],[-10.5476,7.2893],[-10.517,7.317],[-10.5154,7.3532],[-10.5696,7.3424],[-10.6258,7.3582],[-10.7046,7.4029],[-10.7291,7.4325],[-10.7945,7.438],[-10.8033,7.4691],[-10.8743,7.5318],[-10.924,7.4997],[-10.9336,7.5134],[-11.0613,7.4032],[-11.102,7.3915],[-11.1548,7.313],[-11.1731,7.3063],[-11.1876,7.2619],[-11.2503,7.2336],[-11.2747,7.2399],[-11.2896,7.198],[-11.3105,7.2112],[-11.3307,7.1477],[-11.3521,7.142],[-11.3339,7.1124],[-11.3341,7.0781],[-11.362,7.082],[-11.3766,7.0715],[-11.3644,7.051],[-11.3715,7.0193],[-11.4009,6.9874],[-11.4123,6.9916],[-11.4177,6.9716],[-11.4315,6.9722],[-11.4197,6.9415],[-11.5004,6.9267],[-11.4018,6.8512],[-11.3649,6.7591],[-11.3259,6.7579],[-11.2613,6.7853],[-11.2298,6.7823],[-11.2076,6.7515],[-11.2146,6.7353],[-11.1819,6.708],[-11.2002,6.6733],[-11.2549,6.6878],[-11.3357,6.7282],[-11.3405,6.7484],[-11.3677,6.7554],[-11.3705,6.7673],[-11.3857,6.739],[-11.3644,6.7081],[-11.0679,6.5729],[-11.0861,6.6398],[-11.063,6.6578],[-11.0274,6.6629],[-11.0238,6.7025],[-11.0105,6.7158],[-10.9822,6.7159],[-10.9722,6.7366],[-10.9777,6.7895],[-10.9654,6.7961],[-10.9886,6.8458],[-10.9656,6.8753],[-10.9361,6.9847]]]}},{"type":"Feature","properties":{"name":"Grand Gedeh","code":"1627179B37296174914995","iso":"LBR"},"geometry":{"type":"Polygon","coordinates":[[[-7.4007,5.514],[-7.3979,5.5851],[-7.3845,5.5898],[-7.403,5.622],[-7.4394,5.7683],[-7.4632,5.7885],[-7.4654,5.8349],[-7.4824,5.8421],[-7.491,5.817],[-7.5202,5.8383],[-7.5091,5.8473],[-7.519,5.8575],[-7.5473,5.8344],[-7.5723,5.8673],[-7.5523,5.8701],[-7.576,5.8963],[-7.5989,5.8896],[-7.6131,5.9067],[-7.6566,5.914],[-7.661,5.9505],[-7.6817,5.9277],[-7.6748,5.9059],[-7.6843,5.8998],[-7.7597,5.952],[-7.7656,5.9755],[-7.7918,5.9882],[-7.7905,6.0216],[-7.7712,6.0344],[-7.7978,6.0573],[-7.7943,6.0831],[-7.8277,6.0978],[-7.85,6.0787],[-7.8506,6.149],[-7.8329,6.164],[-7.8434,6.1919],[-7.8227,6.1974],[-7.8907,6.2546],[-7.9008,6.2837],[-7.9135,6.2726],[-7.9191,6.2925],[-7.9283,6.2804],[-7.9466,6.2995],[-7.9594,6.2849],[-7.9717,6.299],[-7.9914,6.2959],[-8.0058,6.3207],[-8.1746,6.2786],[-8.2015,6.3073],[-8.2451,6.3235],[-8.2819,6.3211],[-8.2696,6.3355],[-8.2841,6.3492],[-8.3095,6.349],[-8.343,6.3757],[-8.3914,6.3512],[-8.4155,6.3686],[-8.3875,6.3822],[-8.4041,6.4322],[-8.4131,6.4271],[-8.3991,6.4453],[-8.4431,6.4854],[-8.4597,6.4845],[-8.4738,6.4582],[-8.566,6.5044],[-8.6167,6.496],[-8.6158,6.4641],[-8.6561,6.4006],[-8.6576,6.3616],[-8.7155,6.2839],[-8.7415,6.2072],[-8.7867,6.1872],[-8.7926,6.1959],[-8.8086,6.1696],[-8.8306,6.1776],[-8.8352,6.1607],[-8.8238,6.1544],[-8.8409,6.1201],[-8.8503,6.1252],[-8.8353,6.0983],[-8.8524,6.0412],[-8.9467,6.0076],[-8.9128,5.9777],[-8.9467,5.9366],[-8.9387,5.9069],[-8.9223,5.9247],[-8.9069,5.9197],[-8.9154,5.9134],[-8.8961,5.9153],[-8.9056,5.8849],[-8.891,5.8772],[-8.9339,5.8263],[-8.9719,5.8363],[-8.9917,5.8215],[-9.0137,5.837],[-9.046,5.8193],[-9.072,5.844],[-9.0959,5.8227],[-9.0282,5.782],[-8.9932,5.7369],[-8.802,5.685],[-8.7417,5.6807],[-8.7364,5.7138],[-8.7574,5.7232],[-8.7554,5.7468],[-8.5597,5.7752],[-8.5247,5.817],[-8.4888,5.8249],[-8.4876,5.852],[-8.454,5.8568],[-8.3686,5.8091],[-8.3607,5.7941],[-8.3548,5.6999],[-8.3779,5.673],[-8.3817,5.6484],[-8.4099,5.6453],[-8.4247,5.6175],[-8.361,5.5102],[-8.2943,5.5093],[-8.2885,5.5182],[-8.245,5.4938],[-8.2412,5.5341],[-8.0567,5.5543],[-8.0479,5.5748],[-8.063,5.5831],[-8.042,5.6058],[-7.8046,5.5969],[-7.7724,5.5353],[-7.5019,5.5308],[-7.4907,5.5166],[-7.4007,5.514]]]}},{"type":"Feature","properties":{"name":"Grand Kru","code":"1627179B73218899246114","iso":"LBR"},"geometry":{"type":"Polygon","coordinates":[[[-8.0091,5.065],[-8.0416,5.118],[-8.0852,5.1022],[-8.1154,5.0747],[-8.1948,5.1454],[-8.2474,5.1681],[-8.3069,5.0569],[-8.3768,5.0279],[-8.3992,4.9949],[-8.5601,4.9872],[-8.6049,4.9052],[-8.7087,4.8075],[-8.5168,4.735],[-8.4506,4.675],[-8.3243,4.6301],[-8.2501,4.5718],[-7.9881,4.521],[-7.8176,4.4495],[-7.8412,4.4888],[-7.8052,4.5292],[-7.7975,4.5949],[-7.8169,4.6094],[-7.8009,4.7532],[-7.8377,4.7819],[-7.9854,4.7992],[-8.0877,4.8491],[-8.0494,4.94],[-8.0328,5.0269],[-8.0091,5.065]]]}},{"type":"Feature","properties":{"name":"Lofa","code":"1627179B56799731812869","iso":"LBR"},"geometry":{"type":"Polygon","coordinates":[[[-9.4824,7.3666],[-9.4647,7.4373],[-9.4253,7.4726],[-9.3587,7.6178],[-9.3797,7.659],[-9.347,7.7523],[-9.3682,7.8081],[-9.3903,7.8109],[-9.4308,7.8921],[-9.4336,7.9459],[-9.411,7.9743],[-9.4176,7.9985],[-9.3993,8.0286],[-9.4037,8.0502],[-9.4299,8.0636],[-9.4595,8.0465],[-9.442,8.0827],[-9.4617,8.1351],[-9.4608,8.1755],[-9.515,8.189],[-9.5022,8.2175],[-9.5,8.2393],[-9.5091,8.2418],[-9.4873,8.2696],[-9.5019,8.2824],[-9.5014,8.3067],[-9.5204,8.3178],[-9.481,8.3413],[-9.4812,8.3565],[-9.5157,8.3802],[-9.5508,8.3797],[-9.5925,8.4256],[-9.593,8.4114],[-9.6481,8.3971],[-9.6598,8.4105],[-9.6204,8.4543],[-9.6299,8.4726],[-9.6528,8.4726],[-9.6475,8.4914],[-9.6627,8.4988],[-9.6969,8.4861],[-9.7014,8.4518],[-9.7251,8.4416],[-9.7149,8.4576],[-9.7343,8.4721],[-9.7502,8.5452],[-9.7686,8.5525],[-9.8014,8.5278],[-9.7909,8.5071],[-9.8322,8.5009],[-9.8427,8.4825],[-9.8539,8.4996],[-9.916,8.4987],[-9.9897,8.4449],[-10.0515,8.4262],[-10.0592,8.4469],[-10.0481,8.5014],[-10.0832,8.5209],[-10.102,8.5147],[-10.1193,8.5346],[-10.1286,8.521],[-10.163,8.5257],[-10.1595,8.5161],[-10.192,8.5014],[-10.2051,8.4806],[-10.2298,8.4823],[-10.23,8.4949],[-10.275,8.4924],[-10.2835,8.4654],[-10.2706,8.4439],[-10.2956,8.359],[-10.2893,8.3381],[-10.3009,8.2975],[-10.32,8.2846],[-10.2963,8.2279],[-10.3011,8.1971],[-10.3184,8.195],[-10.3509,8.1502],[-10.3719,8.1652],[-10.3881,8.1498],[-10.4612,8.1587],[-10.5259,8.1294],[-10.5739,8.0507],[-10.6053,8.0408],[-10.6061,7.9206],[-10.5476,7.9635],[-10.5446,7.9509],[-10.4378,7.991],[-10.3988,7.9891],[-10.3974,7.9759],[-10.3343,7.9983],[-10.3269,8.0135],[-10.2996,8.0084],[-10.2964,7.9801],[-10.3266,7.9283],[-10.312,7.9183],[-10.293,7.926],[-10.3172,7.8673],[-10.279,7.8508],[-10.2864,7.8203],[-10.2539,7.8434],[-10.231,7.8384],[-10.2404,7.8242],[-10.2244,7.8038],[-10.1868,7.8191],[-10.1904,7.7801],[-10.1647,7.764],[-10.175,7.7325],[-10.0461,7.7375],[-10.0447,7.7476],[-10.0283,7.7474],[-10.023,7.7332],[-9.9916,7.7338],[-9.924,7.7477],[-9.6894,7.6219],[-9.6363,7.5327],[-9.6586,7.504],[-9.6847,7.5013],[-9.6951,7.4855],[-9.6874,7.4731],[-9.7154,7.4528],[-9.6987,7.4026],[-9.6858,7.3981],[-9.7236,7.3859],[-9.7204,7.3666],[-9.7412,7.3623],[-9.7335,7.3567],[-9.7534,7.3454],[-9.7652,7.2996],[-9.7913,7.2781],[-9.7632,7.2546],[-9.7806,7.2564],[-9.8026,7.2109],[-9.8172,7.2067],[-9.7897,7.1819],[-9.7493,7.186],[-9.74,7.1761],[-9.7207,7.1835],[-9.7202,7.1994],[-9.6609,7.2081],[-9.6516,7.2757],[-9.5026,7.336],[-9.4824,7.3666]]]}},{"type":"Feature","properties":{"name":"Margibi","code":"1627179B42027709959095","iso":"LBR"},"geometry":{"type":"Polygon","coordinates":[[[-10.3777,6.7721],[-10.3756,6.7225],[-10.3972,6.6872],[-10.4318,6.6744],[-10.4366,6.6514],[-10.4323,6.6298],[-10.4141,6.6255],[-10.3787,6.578],[-10.3679,6.5249],[-10.392,6.4799],[-10.4051,6.3677],[-10.4114,6.3921],[-10.4463,6.3696],[-10.5517,6.3879],[-10.5773,6.3809],[-10.5924,6.3596],[-10.6521,6.3418],[-10.6471,6.3015],[-10.6591,6.2582],[-10.6226,6.2397],[-10.6287,6.2162],[-10.3958,6.1461],[-10.3723,6.1244],[-10.3808,6.1474],[-10.3553,6.1551],[-10.3577,6.1779],[-10.3403,6.1982],[-10.3555,6.2326],[-10.3465,6.2557],[-10.2964,6.3006],[-10.3132,6.3146],[-10.3015,6.3269],[-10.3137,6.3451],[-10.2999,6.3408],[-10.269,6.3705],[-10.2607,6.3979],[-10.2711,6.4257],[-10.2373,6.442],[-10.2204,6.4882],[-10.2399,6.4859],[-10.234,6.5027],[-10.2519,6.5173],[-10.2507,6.5372],[-10.2105,6.556],[-10.1904,6.5421],[-10.1766,6.5541],[-10.1626,6.548],[-10.1684,6.5329],[-10.1499,6.5079],[-10.1259,6.504],[-10.1055,6.4822],[-10.098,6.4942],[-10.0744,6.4899],[-9.9808,6.4395],[-9.9481,6.4572],[-9.9377,6.5006],[-9.878,6.5837],[-9.8732,6.6231],[-9.8906,6.6057],[-9.9226,6.6286],[-9.9147,6.6665],[-9.9254,6.6818],[-9.9563,6.6727],[-9.9777,6.6853],[-9.9995,6.6762],[-10.0351,6.6889],[-10.0823,6.6711],[-10.122,6.7013],[-10.1749,6.6967],[-10.171,6.7428],[-10.1495,6.7524],[-10.1502,6.7811],[-10.1219,6.8272],[-10.1468,6.897],[-10.2863,6.8211],[-10.3404,6.8115],[-10.3523,6.7858],[-10.3777,6.7721]]]}},{"type":"Feature","properties":{"name":"Maryland","code":"1627179B42926997018975","iso":"LBR"},"geometry":{"type":"Polygon","coordinates":[[[-7.832,4.4565],[-7.8174,4.4332],[-7.8284,4.4194],[-7.7863,4.4038],[-7.7852,4.3921],[-7.7293,4.3798],[-7.7293,4.365],[-7.682,4.3692],[-7.6109,4.354],[-7.5249,4.3605],[-7.567,4.4004],[-7.5395,4.4354],[-7.567,4.4609],[-7.5523,4.5119],[-7.5644,4.5335],[-7.557,4.5632],[-7.5737,4.5843],[-7.5485,4.6118],[-7.5616,4.6475],[-7.576,4.6546],[-7.5595,4.6677],[-7.5718,4.6866],[-7.5572,4.6939],[-7.5611,4.7829],[-7.5926,4.7995],[-7.5929,4.8233],[-7.619,4.8264],[-7.63,4.8504],[-7.6862,4.8656],[-7.7104,4.8865],[-7.7537,4.8799],[-7.7823,4.8575],[-7.8412,4.86],[-7.8479,4.894],[-7.8316,4.9787],[-7.8409,5.0068],[-7.8195,5.1249],[-7.8624,5.1417],[-7.9392,5.1017],[-7.9419,5.074],[-7.9838,5.0387],[-8.0063,5.068],[-8.0242,5.0473],[-8.0494,4.94],[-8.0877,4.8491],[-7.9854,4.7992],[-7.8377,4.7819],[-7.8009,4.7532],[-7.8169,4.6094],[-7.797,4.5833],[-7.8052,4.5292],[-7.8412,4.4888],[-7.8176,4.4495],[-7.832,4.4565]]]}},{"type":"Feature","properties":{"name":"Montserrado","code":"1627179B44982627598129","iso":"LBR"},"geometry":{"type":"Polygon","coordinates":[[[-10.9514,6.5528],[-10.9563,6.5217],[-10.8619,6.4596],[-10.8014,6.3818],[-10.7416,6.4101],[-10.7777,6.3878],[-10.772,6.3604],[-10.7748,6.3926],[-10.798,6.3791],[-10.8045,6.3228],[-10.7816,6.3311],[-10.7535,6.3266],[-10.7399,6.309],[-10.7289,6.3155],[-10.7136,6.2807],[-10.7424,6.2744],[-10.7413,6.2893],[-10.7662,6.3089],[-10.7777,6.3063],[-10.7716,6.2974],[-10.7915,6.2989],[-10.804,6.331],[-10.8182,6.3125],[-10.7132,6.2571],[-10.6957,6.2342],[-10.6287,6.2176],[-10.6226,6.2397],[-10.6591,6.2582],[-10.6471,6.3015],[-10.6521,6.3418],[-10.5949,6.3584],[-10.5773,6.3809],[-10.5517,6.3879],[-10.4874,6.3688],[-10.4695,6.3798],[-10.4463,6.3696],[-10.4114,6.3921],[-10.4131,6.368],[-10.3979,6.3811],[-10.3961,6.4624],[-10.3679,6.5249],[-10.3787,6.578],[-10.4141,6.6255],[-10.4323,6.6298],[-10.4366,6.6514],[-10.4318,6.6744],[-10.3972,6.6872],[-10.3756,6.7225],[-10.3717,6.7654],[-10.4547,6.7756],[-10.5115,6.8292],[-10.5542,6.8111],[-10.5742,6.7678],[-10.5739,6.7279],[-10.5978,6.7118],[-10.5876,6.6894],[-10.6112,6.6479],[-10.5907,6.6186],[-10.5969,6.6082],[-10.7082,6.587],[-10.7139,6.5636],[-10.7721,6.5232],[-10.793,6.5408],[-10.7763,6.5514],[-10.7832,6.5828],[-10.8286,6.5892],[-10.8426,6.5692],[-10.836,6.5274],[-10.8087,6.5195],[-10.8067,6.5075],[-10.8085,6.491],[-10.8249,6.4916],[-10.8392,6.4742],[-10.8804,6.4801],[-10.8747,6.5152],[-10.8961,6.5226],[-10.9141,6.5579],[-10.9514,6.5528]],[[-10.7461,6.39],[-10.756,6.3603],[-10.7789,6.3464],[-10.7461,6.39]]]}},{"type":"Feature","properties":{"name":"Nimba","code":"1627179B84371361469065","iso":"LBR"},"geometry":{"type":"Polygon","coordinates":[[[-9.1796,6.6242],[-9.162,6.5995],[-9.1665,6.4992],[-9.1576,6.4874],[-9.129,6.4884],[-9.1314,6.4327],[-9.1201,6.4071],[-9.0676,6.3496],[-9.071,6.336],[-9.1034,6.3275],[-9.0885,6.2638],[-9.0748,6.2509],[-9.1042,6.2357],[-9.1598,6.2318],[-9.1476,6.1751],[-9.1146,6.169],[-9.1218,6.1451],[-9.0966,6.1107],[-9.0955,6.0875],[-9.1737,6.1142],[-9.2203,6.0742],[-9.0938,6.0247],[-9.0745,6.0019],[-9.1,5.9853],[-9.1043,5.9683],[-9.0769,5.943],[-9.0932,5.9202],[-9.0723,5.8848],[-9.0917,5.8287],[-9.072,5.844],[-9.046,5.8193],[-9.0137,5.837],[-8.9917,5.8215],[-8.9719,5.8363],[-8.9339,5.8263],[-8.8912,5.8801],[-8.9056,5.8849],[-8.8961,5.9153],[-8.9175,5.9144],[-8.9093,5.923],[-8.9387,5.9069],[-8.9467,5.9366],[-8.9128,5.9777],[-8.9444,6.0121],[-8.8524,6.0412],[-8.8353,6.0983],[-8.8503,6.1252],[-8.8409,6.1201],[-8.8238,6.1544],[-8.8352,6.1607],[-8.8306,6.1776],[-8.8086,6.1696],[-8.7926,6.1959],[-8.7867,6.1872],[-8.7415,6.2072],[-8.7155,6.2839],[-8.6576,6.3616],[-8.6561,6.4006],[-8.6158,6.4641],[-8.6215,6.4905],[-8.5974,6.525],[-8.5723,6.5232],[-8.556,6.5517],[-8.5685,6.555],[-8.5611,6.5694],[-8.5389,6.5609],[-8.5297,6.5772],[-8.5382,6.6079],[-8.5148,6.5971],[-8.5056,6.6175],[-8.4878,6.6145],[-8.4884,6.6325],[-8.4515,6.6422],[-8.453,6.6618],[-8.4373,6.6583],[-8.4283,6.6793],[-8.4213,6.6723],[-8.4048,6.6846],[-8.4102,6.7103],[-8.3917,6.7168],[-8.3962,6.7264],[-8.3831,6.7195],[-8.3862,6.736],[-8.3653,6.7442],[-8.3597,6.7675],[-8.343,6.7627],[-8.3496,6.7975],[-8.3199,6.8147],[-8.33,6.8339],[-8.3085,6.863],[-8.3197,6.8578],[-8.3363,6.8839],[-8.3275,6.9037],[-8.3066,6.9126],[-8.3256,6.9706],[-8.283,6.9887],[-8.2755,7.006],[-8.2902,7.0189],[-8.3059,7.0868],[-8.2977,7.1404],[-8.2783,7.154],[-8.2795,7.1835],[-8.3199,7.1929],[-8.3187,7.2052],[-8.3358,7.208],[-8.3387,7.2247],[-8.3686,7.2483],[-8.3569,7.2715],[-8.3951,7.326],[-8.4007,7.4108],[-8.4135,7.4325],[-8.4069,7.4667],[-8.4587,7.5016],[-8.5185,7.5186],[-8.5039,7.584],[-8.5578,7.6253],[-8.5515,7.7013],[-8.6746,7.7002],[-8.6806,7.6734],[-8.7129,7.6387],[-8.7053,7.6254],[-8.7227,7.5555],[-8.7121,7.5533],[-8.7079,7.5124],[-8.7752,7.4518],[-8.7808,7.4132],[-8.8139,7.4103],[-8.8531,7.3483],[-8.837,7.3102],[-8.8384,7.2743],[-8.8663,7.2576],[-8.8935,7.2649],[-8.9039,7.2566],[-8.916,7.2961],[-8.9442,7.2864],[-8.9432,7.2686],[-8.961,7.2737],[-8.9698,7.2537],[-9.0269,7.247],[-9.0734,7.1988],[-9.0936,7.2126],[-9.1036,7.2059],[-9.1328,7.0931],[-9.1686,7.0611],[-9.158,7.0449],[-9.1745,7.0267],[-9.164,7.0053],[-9.1931,6.984],[-9.1802,6.9584],[-9.1548,6.9474],[-9.1427,6.9102],[-9.1236,6.9062],[-9.1073,6.883],[-9.1156,6.8762],[-9.1042,6.8543],[-9.1175,6.8495],[-9.1081,6.801],[-9.1393,6.7779],[-9.122,6.7492],[-9.16,6.7179],[-9.1496,6.6906],[-9.1734,6.6784],[-9.1586,6.6612],[-9.1796,6.6242]]]}},{"type":"Feature","properties":{"name":"River Gee","code":"1627179B79218106656993","iso":"LBR"},"geometry":{"type":"Polygon","coordinates":[[[-8.245,5.4938],[-8.1761,5.4436],[-8.1205,5.4417],[-8.0787,5.4226],[-8.0714,5.3825],[-8.0958,5.3343],[-8.1245,5.3514],[-8.1724,5.3284],[-8.2235,5.3381],[-8.243,5.3036],[-8.2351,5.2828],[-8.2479,5.2524],[-8.2528,5.164],[-8.2379,5.1706],[-8.1948,5.1454],[-8.1154,5.0747],[-8.0852,5.1022],[-8.0395,5.1171],[-7.9838,5.0387],[-7.9419,5.074],[-7.9392,5.1017],[-7.8898,5.1319],[-7.8434,5.139],[-7.8195,5.1249],[-7.8409,5.0068],[-7.8316,4.9787],[-7.8479,4.894],[-7.8412,4.86],[-7.7823,4.8575],[-7.7537,4.8799],[-7.7104,4.8865],[-7.6862,4.8656],[-7.63,4.8504],[-7.619,4.8264],[-7.5835,4.8274],[-7.5937,4.9072],[-7.5252,4.9254],[-7.5328,4.9537],[-7.5599,4.9746],[-7.5408,4.9997],[-7.555,5.021],[-7.5453,5.0418],[-7.5603,5.0837],[-7.5181,5.1104],[-7.5098,5.0947],[-7.4862,5.1229],[-7.469,5.1993],[-7.4845,5.2174],[-7.4643,5.2412],[-7.4744,5.2803],[-7.462,5.2752],[-7.4167,5.2998],[-7.4288,5.2831],[-7.4218,5.2587],[-7.3916,5.2906],[-7.392,5.3152],[-7.3686,5.3326],[-7.3845,5.3448],[-7.3764,5.3883],[-7.4015,5.3668],[-7.4489,5.4313],[-7.4409,5.4444],[-7.4206,5.4306],[-7.4237,5.4765],[-7.4007,5.514],[-7.4907,5.5166],[-7.5019,5.5308],[-7.7724,5.5353],[-7.8046,5.5969],[-8.042,5.6058],[-8.063,5.5831],[-8.0479,5.5748],[-8.0567,5.5543],[-8.2412,5.5341],[-8.245,5.4938]]]}},{"type":"Feature","properties":{"name":"Rivercess","code":"1627179B71095179953326","iso":"LBR"},"geometry":{"type":"Polygon","coordinates":[[[-9.729,5.5731],[-9.5925,5.4741],[-9.5838,5.4471],[-9.595,5.4338],[-9.5049,5.3861],[-9.464,5.3087],[-9.416,5.2702],[-9.4254,5.3103],[-9.326,5.3719],[-9.3219,5.4242],[-9.2948,5.4329],[-9.3079,5.4683],[-9.292,5.5327],[-9.247,5.5573],[-9.2362,5.5773],[-9.2027,5.5816],[-9.1755,5.6055],[-9.0962,5.5991],[-9.1164,5.6505],[-9.092,5.7],[-9.1316,5.7538],[-9.1552,5.7622],[-9.1316,5.7846],[-9.1178,5.8215],[-9.0916,5.8229],[-9.0794,5.8515],[-9.0732,5.8913],[-9.0932,5.9202],[-9.0769,5.943],[-9.1043,5.9683],[-9.1,5.9853],[-9.0745,6.0019],[-9.0938,6.0247],[-9.2203,6.0742],[-9.1737,6.1142],[-9.0942,6.0916],[-9.1218,6.1451],[-9.1146,6.169],[-9.1476,6.1751],[-9.16,6.2077],[-9.1598,6.2318],[-9.1042,6.2357],[-9.0748,6.2509],[-9.0885,6.2638],[-9.1034,6.3275],[-9.071,6.336],[-9.0676,6.3496],[-9.1201,6.4071],[-9.1314,6.4327],[-9.129,6.4884],[-9.1576,6.4874],[-9.1665,6.4992],[-9.182,6.4537],[-9.1774,6.4116],[-9.2362,6.3648],[-9.2844,6.3502],[-9.3292,6.3524],[-9.3419,6.3072],[-9.3654,6.3086],[-9.3979,6.3314],[-9.4138,6.2768],[-9.4056,6.1839],[-9.4149,6.1628],[-9.4813,6.1577],[-9.5062,6.1282],[-9.5277,6.0691],[-9.5392,6.0995],[-9.5827,6.1169],[-9.6118,6.099],[-9.6051,6.0708],[-9.6518,6.0402],[-9.6487,5.9817],[-9.6699,5.959],[-9.6592,5.9376],[-9.67,5.9334],[-9.668,5.9036],[-9.6548,5.8903],[-9.6998,5.8225],[-9.678,5.7692],[-9.6932,5.7243],[-9.674,5.7064],[-9.6663,5.662],[-9.7079,5.6251],[-9.7078,5.605],[-9.7332,5.5974],[-9.729,5.5731]]]}},{"type":"Feature","properties":{"name":"Sinoe","code":"1627179B77023488056889","iso":"LBR"},"geometry":{"type":"Polygon","coordinates":[[[-9.0959,5.8227],[-9.1178,5.8215],[-9.1316,5.7846],[-9.1552,5.7622],[-9.1316,5.7538],[-9.092,5.7],[-9.1164,5.6505],[-9.0962,5.5991],[-9.1755,5.6055],[-9.2842,5.5406],[-9.3079,5.4683],[-9.2934,5.4373],[-9.3219,5.4242],[-9.326,5.3719],[-9.4254,5.3103],[-9.4258,5.2924],[-9.4128,5.2646],[-9.3738,5.2387],[-9.3764,5.227],[-9.2884,5.1716],[-9.2833,5.1599],[-9.2991,5.1506],[-9.2317,5.1241],[-9.1246,5.062],[-9.1163,5.0429],[-9.0441,5.0108],[-9.0376,4.9808],[-8.8628,4.9243],[-8.7923,4.8531],[-8.7269,4.8292],[-8.7161,4.8075],[-8.6049,4.9052],[-8.5601,4.9872],[-8.3992,4.9949],[-8.3768,5.0279],[-8.3069,5.0569],[-8.2556,5.1497],[-8.2479,5.2524],[-8.2351,5.2828],[-8.243,5.3036],[-8.2235,5.3381],[-8.1724,5.3284],[-8.1245,5.3514],[-8.0958,5.3343],[-8.0724,5.3708],[-8.0787,5.4226],[-8.1205,5.4417],[-8.1761,5.4436],[-8.2885,5.5182],[-8.2943,5.5093],[-8.361,5.5102],[-8.4247,5.6175],[-8.4099,5.6453],[-8.3817,5.6484],[-8.3779,5.673],[-8.3548,5.6999],[-8.3607,5.7941],[-8.3686,5.8091],[-8.454,5.8568],[-8.4876,5.852],[-8.4888,5.8249],[-8.5247,5.817],[-8.5597,5.7752],[-8.7554,5.7468],[-8.7574,5.7232],[-8.7364,5.7138],[-8.7417,5.6807],[-8.802,5.685],[-8.9932,5.7369],[-9.0282,5.782],[-9.0959,5.8227]]]}}]}