{"type":"FeatureCollection","features":[{"type":"Feature","properties":{"name":"Mokhotlong District","code":"63558799B62052207870559","iso":"LSO"},"geometry":{"type":"Polygon","coordinates":[[[28.7925,-28.9074],[28.755,-28.9429],[28.7581,-29.0402],[28.7682,-29.057],[28.7456,-29.0655],[28.7237,-29.1155],[28.6993,-29.1174],[28.6786,-29.1385],[28.6839,-29.146],[28.6537,-29.1535],[28.6368,-29.1805],[28.6134,-29.1889],[28.6061,-29.1782],[28.5811,-29.1958],[28.5863,-29.2091],[28.5572,-29.2304],[28.5566,-29.271],[28.6195,-29.2838],[28.6696,-29.2593],[28.6778,-29.2711],[28.6588,-29.3293],[28.737,-29.3628],[28.8071,-29.3729],[28.7841,-29.4769],[28.8431,-29.4778],[28.8971,-29.5126],[29.0325,-29.4988],[29.1269,-29.535],[29.2046,-29.5231],[29.3112,-29.5567],[29.2935,-29.4898],[29.3238,-29.4869],[29.3278,-29.4707],[29.3631,-29.4702],[29.4034,-29.4445],[29.4066,-29.4207],[29.4226,-29.4141],[29.4195,-29.3968],[29.4359,-29.3961],[29.447,-29.3763],[29.4414,-29.346],[29.4556,-29.3412],[29.4383,-29.3093],[29.4401,-29.2698],[29.4185,-29.2581],[29.426,-29.2498],[29.4069,-29.2288],[29.4083,-29.2123],[29.3628,-29.2051],[29.3446,-29.1875],[29.3439,-29.1535],[29.3571,-29.1352],[29.3494,-29.1187],[29.3078,-29.0766],[29.2542,-29.0891],[29.2119,-29.0461],[29.2153,-29.0261],[29.1245,-28.9803],[29.1267,-28.9639],[29.0933,-28.9367],[29.0739,-28.9377],[29.0778,-28.9181],[29.0413,-28.9151],[29.019,-28.8819],[28.9799,-28.9144],[28.962,-28.8688],[28.9398,-28.8624],[28.953,-28.8534],[28.9483,-28.8286],[28.922,-28.8128],[28.949,-28.8044],[28.9322,-28.7919],[28.9443,-28.7836],[28.9122,-28.7604],[28.8832,-28.7752],[28.8576,-28.756],[28.8172,-28.7757],[28.7978,-28.8102],[28.7974,-28.8396],[28.8162,-28.8921],[28.7925,-28.9074]]]}},{"type":"Feature","properties":{"name":"Maseru District","code":"63558799B83139219064193","iso":"LSO"},"geometry":{"type":"Polygon","coordinates":[[[27.2947,-29.5338],[27.3132,-29.5521],[27.3441,-29.5347],[27.3682,-29.544],[27.3699,-29.5819],[27.3917,-29.5912],[27.3872,-29.6109],[27.4044,-29.627],[27.4378,-29.6327],[27.4298,-29.6733],[27.4385,-29.6885],[27.4598,-29.6921],[27.5013,-29.6535],[27.534,-29.6475],[27.5467,-29.6641],[27.5277,-29.6652],[27.5348,-29.6945],[27.5566,-29.7176],[27.5816,-29.7186],[27.603,-29.6982],[27.6587,-29.6945],[27.6695,-29.7312],[27.6618,-29.7587],[27.689,-29.7557],[27.6832,-29.7819],[27.7193,-29.8214],[27.6988,-29.8287],[27.6607,-29.8116],[27.6576,-29.8257],[27.6358,-29.8257],[27.6434,-29.8433],[27.6267,-29.8412],[27.6212,-29.8611],[27.6771,-29.8588],[27.7557,-29.8309],[27.8248,-29.8353],[27.8189,-29.8225],[27.8398,-29.8118],[27.8568,-29.8244],[27.9415,-29.82],[27.9543,-29.8229],[27.9679,-29.8732],[27.9917,-29.8878],[28.0425,-29.8887],[28.0586,-29.8813],[28.0523,-29.8665],[28.0689,-29.8782],[28.0828,-29.9257],[28.1594,-29.9016],[28.224,-29.9102],[28.2939,-29.9627],[28.302,-29.9636],[28.2911,-29.9492],[28.3147,-29.9412],[28.2843,-29.8871],[28.2677,-29.8972],[28.2744,-29.8695],[28.2353,-29.8457],[28.2345,-29.8586],[28.2253,-29.8565],[28.2279,-29.8077],[28.2089,-29.7907],[28.2146,-29.7687],[28.1946,-29.755],[28.2326,-29.7339],[28.2093,-29.7238],[28.2065,-29.7097],[28.1823,-29.7138],[28.1913,-29.7032],[28.1796,-29.704],[28.1748,-29.6827],[28.1902,-29.67],[28.1611,-29.6704],[28.1872,-29.6643],[28.162,-29.6529],[28.1728,-29.6246],[28.1551,-29.6128],[28.1666,-29.6008],[28.1531,-29.5894],[28.163,-29.5926],[28.1573,-29.5807],[28.168,-29.5724],[28.1474,-29.5562],[28.1579,-29.5409],[28.1428,-29.5246],[28.1535,-29.5148],[28.1274,-29.5182],[28.1306,-29.4939],[28.1129,-29.4995],[28.1154,-29.4892],[28.0964,-29.4839],[28.1208,-29.4762],[28.0957,-29.4712],[28.1126,-29.4615],[28.0927,-29.4461],[28.1119,-29.4191],[28.1064,-29.4086],[28.158,-29.3971],[28.1547,-29.3869],[28.1664,-29.3884],[28.1726,-29.3712],[28.1856,-29.3769],[28.1811,-29.3644],[28.195,-29.3615],[28.1836,-29.3573],[28.2097,-29.3406],[28.1733,-29.3083],[28.106,-29.3155],[28.12,-29.3273],[28.109,-29.3304],[28.1152,-29.3402],[28.0837,-29.3506],[28.0538,-29.3963],[28.0413,-29.3938],[28.0396,-29.367],[28.0253,-29.3595],[28.0365,-29.3559],[28.025,-29.3522],[28.0351,-29.3344],[28.0244,-29.3352],[28.0266,-29.3169],[28.015,-29.3149],[28.0244,-29.2994],[28.0106,-29.288],[27.9661,-29.3349],[27.8867,-29.3587],[27.7967,-29.2939],[27.7356,-29.3219],[27.7384,-29.3501],[27.7245,-29.3417],[27.7019,-29.3559],[27.705,-29.3285],[27.6772,-29.335],[27.6525,-29.3156],[27.6401,-29.3342],[27.625,-29.2957],[27.5946,-29.3433],[27.561,-29.3467],[27.5357,-29.3324],[27.5529,-29.3055],[27.5409,-29.2963],[27.5305,-29.3092],[27.5117,-29.305],[27.512,-29.2828],[27.4947,-29.2841],[27.4891,-29.3019],[27.4546,-29.2977],[27.4723,-29.3203],[27.4358,-29.3346],[27.4323,-29.373],[27.4055,-29.3664],[27.4231,-29.4068],[27.3958,-29.4108],[27.3801,-29.4408],[27.3566,-29.4527],[27.361,-29.4858],[27.3294,-29.4807],[27.3064,-29.4968],[27.3064,-29.5329],[27.2947,-29.5338]]]}},{"type":"Feature","properties":{"name":"Butha-Buthe District","code":"63558799B80267127102175","iso":"LSO"},"geometry":{"type":"Polygon","coordinates":[[[28.8172,-28.7757],[28.8004,-28.7431],[28.8062,-28.7099],[28.7047,-28.6714],[28.7064,-28.6523],[28.6947,-28.6444],[28.7036,-28.6181],[28.6514,-28.5706],[28.5907,-28.6084],[28.5295,-28.6103],[28.5246,-28.6008],[28.5076,-28.6182],[28.503,-28.6076],[28.4725,-28.6053],[28.454,-28.6192],[28.4022,-28.624],[28.403,-28.6444],[28.3659,-28.6654],[28.3723,-28.684],[28.3497,-28.7036],[28.3426,-28.6934],[28.3284,-28.7057],[28.3051,-28.6923],[28.2821,-28.7148],[28.2338,-28.6947],[28.2233,-28.7042],[28.2478,-28.7351],[28.2407,-28.7683],[28.2586,-28.8056],[28.4046,-28.8532],[28.4333,-28.8865],[28.4661,-28.8777],[28.4877,-28.8896],[28.4987,-28.9134],[28.4891,-28.9365],[28.5117,-28.9553],[28.5094,-28.975],[28.4919,-28.9869],[28.4814,-29.0406],[28.5019,-29.0777],[28.5203,-29.086],[28.5364,-29.0378],[28.5775,-29.0414],[28.623,-29.0709],[28.6738,-29.0451],[28.7045,-29.0127],[28.6961,-28.9861],[28.7486,-28.9104],[28.7997,-28.9082],[28.8143,-28.8964],[28.7978,-28.8102],[28.8172,-28.7757]]]}},{"type":"Feature","properties":{"name":"Mohale's Hoek District","code":"63558799B8829159228001","iso":"LSO"},"geometry":{"type":"Polygon","coordinates":[[[28.0586,-29.8813],[28.055,-29.9437],[28.0345,-29.9284],[28.0014,-29.9293],[27.9757,-29.9081],[27.9627,-29.9194],[27.9148,-29.9178],[27.9244,-29.906],[27.9084,-29.8848],[27.8891,-29.9217],[27.8906,-29.9453],[27.86,-29.9168],[27.8617,-29.9035],[27.8339,-29.901],[27.8449,-29.919],[27.8339,-29.9302],[27.8526,-29.9298],[27.8296,-29.956],[27.8039,-29.9631],[27.7558,-29.937],[27.7361,-29.9665],[27.6921,-29.9864],[27.6201,-29.9257],[27.6012,-29.9643],[27.5735,-29.9316],[27.5538,-29.9264],[27.5226,-29.9415],[27.5201,-29.9757],[27.4862,-29.9874],[27.5034,-30.0024],[27.485,-30.0066],[27.4703,-30.0247],[27.4782,-30.0327],[27.4262,-30.0583],[27.3719,-30.002],[27.3605,-29.9707],[27.3592,-29.9274],[27.3824,-29.8861],[27.3786,-29.8539],[27.357,-29.8449],[27.3354,-29.8868],[27.2991,-29.9051],[27.1766,-29.9016],[27.2229,-29.9968],[27.2189,-30.01],[27.2695,-30.026],[27.2685,-30.043],[27.2965,-30.0561],[27.3269,-30.1481],[27.4073,-30.1445],[27.4091,-30.1555],[27.381,-30.1775],[27.3862,-30.1933],[27.3682,-30.1922],[27.3669,-30.2738],[27.3893,-30.2835],[27.3799,-30.3002],[27.3952,-30.3077],[27.3767,-30.3253],[27.3826,-30.3365],[27.4646,-30.314],[27.4894,-30.3734],[27.5021,-30.3718],[27.5069,-30.3876],[27.5338,-30.3842],[27.5663,-30.4148],[27.5976,-30.4004],[27.5735,-30.3997],[27.5666,-30.3782],[27.5807,-30.3633],[27.618,-30.3619],[27.6562,-30.3409],[27.7218,-30.3653],[27.7138,-30.3404],[27.7419,-30.3273],[27.7372,-30.2907],[27.7198,-30.2841],[27.7448,-30.2578],[27.7573,-30.2861],[27.8028,-30.2838],[27.8188,-30.2603],[27.8417,-30.2745],[27.8437,-30.2511],[27.8724,-30.2453],[27.8763,-30.2114],[27.8957,-30.2206],[27.9227,-30.1954],[27.8928,-30.1885],[27.9037,-30.1656],[27.8857,-30.1409],[27.9281,-30.1162],[27.9112,-30.0951],[27.9227,-30.0755],[27.9447,-30.0749],[27.9447,-30.1008],[27.9642,-30.1097],[27.9809,-30.0856],[27.9724,-30.0722],[27.9855,-30.0649],[28.0111,-30.0856],[28.0244,-30.0748],[28.0629,-30.09],[28.0777,-30.074],[28.1274,-30.0727],[28.1294,-30.0512],[28.1511,-30.0382],[28.1738,-30.0331],[28.1904,-30.0455],[28.2114,-30.0288],[28.2842,-30.027],[28.2843,-29.996],[28.3436,-30.0059],[28.3517,-30.0143],[28.3357,-30.019],[28.3538,-30.032],[28.3739,-30.0285],[28.3897,-30.0627],[28.4052,-30.0622],[28.4162,-30.0287],[28.4805,-29.9905],[28.4959,-29.9621],[28.5481,-29.9346],[28.5704,-29.9393],[28.5813,-29.8987],[28.5641,-29.8702],[28.5918,-29.8095],[28.5597,-29.7877],[28.5266,-29.7903],[28.5039,-29.8095],[28.4767,-29.8066],[28.4231,-29.827],[28.4006,-29.8537],[28.3727,-29.8407],[28.3367,-29.8486],[28.3394,-29.8784],[28.2843,-29.8871],[28.2949,-29.9209],[28.3136,-29.9345],[28.2911,-29.9492],[28.302,-29.9636],[28.2149,-29.9069],[28.1594,-29.9016],[28.0828,-29.9257],[28.0714,-29.8809],[28.0523,-29.8665],[28.0586,-29.8813]]]}},{"type":"Feature","properties":{"name":"Mafeteng District","code":"63558799B33254441338778","iso":"LSO"},"geometry":{"type":"Polygon","coordinates":[[[27.2947,-29.5338],[27.2577,-29.5331],[27.2442,-29.5545],[27.2213,-29.5448],[27.2027,-29.5687],[27.1542,-29.561],[27.1196,-29.5776],[27.0854,-29.6149],[27.0665,-29.5971],[27.0574,-29.637],[27.0341,-29.6133],[27.0201,-29.6157],[27.0283,-29.6391],[27.0118,-29.6484],[27.0135,-29.6608],[27.0966,-29.7299],[27.1766,-29.9016],[27.2991,-29.9051],[27.3354,-29.8868],[27.357,-29.8449],[27.3801,-29.8553],[27.3824,-29.8861],[27.3592,-29.9274],[27.3605,-29.9707],[27.3719,-30.002],[27.42,-30.0571],[27.4782,-30.0327],[27.4703,-30.0247],[27.485,-30.0066],[27.5034,-30.0024],[27.4862,-29.9874],[27.5201,-29.9757],[27.5226,-29.9415],[27.5538,-29.9264],[27.5735,-29.9316],[27.6012,-29.9643],[27.6201,-29.9257],[27.6921,-29.9864],[27.7361,-29.9665],[27.7558,-29.937],[27.8039,-29.9631],[27.8296,-29.956],[27.8526,-29.9298],[27.8339,-29.9302],[27.8449,-29.919],[27.8339,-29.901],[27.8617,-29.9035],[27.86,-29.9168],[27.8906,-29.9453],[27.8891,-29.9217],[27.9084,-29.8848],[27.9244,-29.906],[27.9148,-29.9178],[27.9627,-29.9194],[27.9757,-29.9081],[28.0014,-29.9293],[28.0581,-29.9389],[28.0644,-29.8853],[27.996,-29.8891],[27.9738,-29.8794],[27.9543,-29.8229],[27.9415,-29.82],[27.8568,-29.8244],[27.8398,-29.8118],[27.8189,-29.8225],[27.8248,-29.8353],[27.7557,-29.8309],[27.6771,-29.8588],[27.6212,-29.8611],[27.6267,-29.8412],[27.6434,-29.8433],[27.6358,-29.8257],[27.6576,-29.8257],[27.6607,-29.8116],[27.6988,-29.8287],[27.7193,-29.8214],[27.6832,-29.7819],[27.689,-29.7557],[27.6618,-29.7587],[27.6695,-29.7312],[27.6587,-29.6945],[27.603,-29.6982],[27.5816,-29.7186],[27.5566,-29.7176],[27.5348,-29.6945],[27.5277,-29.6652],[27.5467,-29.6641],[27.534,-29.6475],[27.5013,-29.6535],[27.4598,-29.6921],[27.4385,-29.6885],[27.4298,-29.6733],[27.4378,-29.6327],[27.4044,-29.627],[27.3872,-29.6109],[27.3917,-29.5912],[27.3699,-29.5819],[27.3682,-29.544],[27.3441,-29.5347],[27.3132,-29.5521],[27.2947,-29.5338]]]}},{"type":"Feature","properties":{"name":"Quthing District","code":"63558799B90026421394578","iso":"LSO"},"geometry":{"type":"Polygon","coordinates":[[[27.5595,-30.414],[27.5712,-30.4273],[27.5675,-30.4449],[27.6035,-30.4476],[27.6095,-30.4954],[27.69,-30.541],[27.6939,-30.5588],[27.7415,-30.604],[27.7951,-30.6192],[27.9151,-30.6014],[27.9401,-30.6442],[28.0038,-30.659],[28.0846,-30.654],[28.1136,-30.6756],[28.1238,-30.6592],[28.1132,-30.5999],[28.1512,-30.584],[28.1636,-30.5567],[28.157,-30.544],[28.1771,-30.5252],[28.1797,-30.4913],[28.1563,-30.4655],[28.1861,-30.4352],[28.2283,-30.4305],[28.2392,-30.4131],[28.2569,-30.4186],[28.2708,-30.3708],[28.2699,-30.3534],[28.2529,-30.3421],[28.2565,-30.3244],[28.2154,-30.3068],[28.2069,-30.2907],[28.2364,-30.2599],[28.3032,-30.2562],[28.3304,-30.2297],[28.3458,-30.2321],[28.3696,-30.1587],[28.2485,-30.1458],[28.2265,-30.1294],[28.2351,-30.0792],[28.256,-30.0826],[28.2761,-30.0592],[28.3239,-30.0775],[28.313,-30.0434],[28.2615,-30.0233],[28.2114,-30.0288],[28.1904,-30.0455],[28.1738,-30.0331],[28.1511,-30.0382],[28.1294,-30.0512],[28.1274,-30.0727],[28.0777,-30.074],[28.0629,-30.09],[28.0244,-30.0748],[28.0111,-30.0856],[27.9855,-30.0649],[27.9724,-30.0722],[27.9809,-30.0856],[27.9642,-30.1097],[27.9447,-30.1008],[27.9447,-30.0749],[27.9227,-30.0755],[27.9112,-30.0951],[27.9281,-30.1162],[27.8857,-30.1409],[27.9037,-30.1656],[27.8928,-30.1885],[27.9227,-30.1954],[27.8957,-30.2206],[27.8763,-30.2114],[27.8724,-30.2453],[27.8437,-30.2511],[27.8417,-30.2745],[27.8188,-30.2603],[27.8028,-30.2838],[27.7573,-30.2861],[27.7448,-30.2578],[27.7198,-30.2841],[27.7372,-30.2907],[27.7419,-30.3273],[27.7138,-30.3404],[27.7218,-30.3653],[27.6429,-30.3436],[27.618,-30.3619],[27.5747,-30.3653],[27.5735,-30.3997],[27.5976,-30.4004],[27.5595,-30.414]]]}},{"type":"Feature","properties":{"name":"Berea District","code":"63558799B64035332832072","iso":"LSO"},"geometry":{"type":"Polygon","coordinates":[[[28.2047,-29.3378],[28.2382,-29.2955],[28.2701,-29.2856],[28.2935,-29.2616],[28.2774,-29.2206],[28.2316,-29.1712],[28.2679,-29.1367],[28.2275,-29.1313],[28.134,-29.0711],[28.1084,-29.0834],[28.0944,-29.0771],[28.0808,-29.0149],[28.0353,-28.9839],[28.0317,-28.964],[27.9852,-28.9465],[27.9454,-28.9923],[27.9427,-29.0307],[27.8946,-29.0817],[27.8888,-29.0723],[27.8594,-29.0742],[27.8311,-29.0435],[27.8109,-29.0462],[27.8011,-29.0677],[27.7879,-29.0621],[27.781,-29.0831],[27.7687,-29.0729],[27.7523,-29.0783],[27.7177,-29.1173],[27.7,-29.0954],[27.68,-29.1092],[27.6735,-29.0971],[27.6484,-29.0964],[27.633,-29.1311],[27.6011,-29.1372],[27.6139,-29.164],[27.5804,-29.166],[27.5754,-29.1838],[27.5147,-29.2253],[27.521,-29.2402],[27.5479,-29.2474],[27.512,-29.2828],[27.5117,-29.305],[27.5305,-29.3092],[27.543,-29.2968],[27.5529,-29.3055],[27.5357,-29.3324],[27.561,-29.3467],[27.5946,-29.3433],[27.625,-29.2957],[27.6401,-29.3342],[27.6525,-29.3156],[27.6772,-29.335],[27.705,-29.3285],[27.7019,-29.3559],[27.7245,-29.3417],[27.7384,-29.3501],[27.7356,-29.3219],[27.7967,-29.2939],[27.8867,-29.3587],[27.9661,-29.3349],[28.0106,-29.288],[28.0244,-29.2994],[28.015,-29.3149],[28.0266,-29.3169],[28.0244,-29.3352],[28.0351,-29.3344],[28.025,-29.3522],[28.0365,-29.3559],[28.0253,-29.3595],[28.0396,-29.367],[28.0413,-29.3938],[28.0566,-29.3963],[28.0837,-29.3506],[28.1152,-29.3402],[28.109,-29.3304],[28.12,-29.3273],[28.106,-29.3155],[28.1733,-29.3083],[28.2047,-29.3378]]]}},{"type":"Feature","properties":{"name":"Thaba-Tseka District","code":"63558799B97764260128978","iso":"LSO"},"geometry":{"type":"Polygon","coordinates":[[[28.5629,-29.2744],[28.5658,-29.3041],[28.5753,-29.2953],[28.5974,-29.3406],[28.6093,-29.3498],[28.6223,-29.342],[28.6088,-29.3578],[28.6144,-29.3683],[28.6009,-29.359],[28.5894,-29.3705],[28.551,-29.3643],[28.5177,-29.3507],[28.5017,-29.3285],[28.3944,-29.3146],[28.4046,-29.3046],[28.3786,-29.2905],[28.3891,-29.2808],[28.362,-29.2498],[28.3586,-29.2029],[28.329,-29.1693],[28.3387,-29.1367],[28.2789,-29.1192],[28.2316,-29.1712],[28.2774,-29.2206],[28.2899,-29.2681],[28.2382,-29.2955],[28.2372,-29.3096],[28.2247,-29.3073],[28.2061,-29.3487],[28.1836,-29.3573],[28.195,-29.3615],[28.1811,-29.3644],[28.1856,-29.3769],[28.1726,-29.3712],[28.1444,-29.406],[28.1064,-29.4086],[28.1119,-29.4191],[28.0927,-29.4461],[28.1126,-29.4615],[28.0957,-29.4712],[28.1208,-29.4762],[28.0964,-29.4839],[28.1154,-29.4892],[28.1129,-29.4995],[28.1306,-29.4939],[28.1274,-29.5182],[28.1535,-29.5148],[28.1428,-29.5246],[28.1579,-29.5409],[28.1474,-29.5562],[28.168,-29.5724],[28.1573,-29.5807],[28.163,-29.5926],[28.1531,-29.5894],[28.1666,-29.6008],[28.1551,-29.6128],[28.1728,-29.6246],[28.162,-29.6529],[28.1872,-29.6643],[28.1611,-29.6704],[28.1902,-29.67],[28.1748,-29.6827],[28.1796,-29.704],[28.1913,-29.7032],[28.1823,-29.7138],[28.2065,-29.7097],[28.2093,-29.7238],[28.2326,-29.7339],[28.1947,-29.7564],[28.2146,-29.7687],[28.2089,-29.7907],[28.2279,-29.8077],[28.2253,-29.8565],[28.2345,-29.8586],[28.2353,-29.8457],[28.2744,-29.8695],[28.2677,-29.8972],[28.3394,-29.8784],[28.3367,-29.8486],[28.3564,-29.8405],[28.4006,-29.8537],[28.4231,-29.827],[28.4767,-29.8066],[28.5039,-29.8095],[28.5964,-29.7658],[28.7062,-29.8192],[28.7144,-29.8344],[28.7038,-29.8658],[28.7164,-29.8837],[28.7671,-29.8475],[28.8046,-29.8447],[28.7795,-29.8186],[28.7967,-29.8005],[28.8562,-29.8072],[28.97,-29.8746],[28.9691,-29.8424],[28.9517,-29.8112],[29.0172,-29.718],[29.0413,-29.7095],[29.0946,-29.7176],[29.1223,-29.7383],[29.1477,-29.7357],[29.1626,-29.677],[29.235,-29.6397],[29.2823,-29.6427],[29.2931,-29.6088],[29.2852,-29.5845],[29.3162,-29.5832],[29.325,-29.5701],[29.2046,-29.5231],[29.1269,-29.535],[29.0325,-29.4988],[28.8971,-29.5126],[28.8431,-29.4778],[28.7841,-29.4769],[28.8071,-29.3729],[28.737,-29.3628],[28.6588,-29.3293],[28.6778,-29.2711],[28.6696,-29.2593],[28.6195,-29.2838],[28.5629,-29.2744]]]}},{"type":"Feature","properties":{"name":"Qacha's Nek District","code":"63558799B57972026302791","iso":"LSO"},"geometry":{"type":"Polygon","coordinates":[[[28.2766,-30.027],[28.313,-30.0434],[28.3239,-30.0775],[28.2761,-30.0592],[28.256,-30.0826],[28.2351,-30.0792],[28.2265,-30.1294],[28.2485,-30.1458],[28.3696,-30.1587],[28.3709,-30.1697],[28.3998,-30.1437],[28.4725,-30.1556],[28.5506,-30.1206],[28.6662,-30.1408],[28.7498,-30.1065],[28.7912,-30.1094],[28.8564,-30.0897],[28.8575,-30.0776],[28.9031,-30.0659],[28.941,-30.0364],[28.9853,-30.0314],[29.0042,-30.005],[29.0712,-29.9654],[29.1037,-29.967],[29.109,-29.937],[29.1697,-29.9158],[29.1582,-29.906],[29.1626,-29.8835],[29.1012,-29.8482],[29.1302,-29.8296],[29.1236,-29.7674],[29.1398,-29.7592],[29.1356,-29.7402],[29.1498,-29.7369],[29.1223,-29.7383],[29.0946,-29.7176],[29.0413,-29.7095],[29.0172,-29.718],[28.9517,-29.8112],[28.9691,-29.8424],[28.97,-29.8746],[28.8562,-29.8072],[28.7967,-29.8005],[28.7795,-29.8186],[28.8046,-29.8447],[28.7671,-29.8475],[28.7164,-29.8837],[28.7038,-29.8658],[28.7144,-29.8344],[28.7062,-29.8192],[28.5964,-29.7658],[28.5579,-29.7892],[28.5918,-29.8095],[28.5641,-29.8702],[28.5813,-29.8987],[28.5704,-29.9393],[28.5481,-29.9346],[28.4959,-29.9621],[28.4805,-29.9905],[28.4162,-30.0287],[28.4052,-30.0622],[28.3897,-30.0627],[28.3739,-30.0285],[28.3538,-30.032],[28.3357,-30.019],[28.3517,-30.0143],[28.3436,-30.0059],[28.2843,-29.996],[28.2769,-30.0099],[28.2881,-30.0234],[28.2766,-30.027]]]}},{"type":"Feature","properties":{"name":"Leribe District","code":"63558799B58245420334254","iso":"LSO"},"geometry":{"type":"Polygon","coordinates":[[[28.7925,-28.9074],[28.7486,-28.9104],[28.6961,-28.9861],[28.7045,-29.0127],[28.6738,-29.0451],[28.623,-29.0709],[28.5775,-29.0414],[28.5364,-29.0378],[28.5333,-29.0619],[28.5208,-29.0603],[28.5226,-29.0849],[28.5067,-29.0816],[28.4814,-29.0406],[28.4919,-28.9869],[28.5094,-28.975],[28.5117,-28.9553],[28.4891,-28.9365],[28.4987,-28.9134],[28.4827,-28.8832],[28.4333,-28.8865],[28.4046,-28.8532],[28.2586,-28.8056],[28.2407,-28.7683],[28.2478,-28.7351],[28.2233,-28.7042],[28.1961,-28.7111],[28.1834,-28.6937],[28.1839,-28.7087],[28.1669,-28.7054],[28.1579,-28.7303],[28.1504,-28.7225],[28.1305,-28.7458],[28.1189,-28.7411],[28.1199,-28.7574],[28.0997,-28.7689],[28.0751,-28.815],[28.051,-28.8178],[28.0548,-28.8416],[28.0239,-28.8593],[28.029,-28.8787],[27.9952,-28.8719],[27.9902,-28.8829],[27.9385,-28.8483],[27.9181,-28.8614],[27.9201,-28.8773],[27.8931,-28.8794],[27.8878,-28.8882],[27.9001,-28.8939],[27.8878,-28.917],[27.8692,-28.92],[27.8506,-28.903],[27.8394,-28.9153],[27.8301,-28.9039],[27.8155,-28.9214],[27.7542,-28.8973],[27.7666,-28.9173],[27.7619,-28.938],[27.7229,-28.9492],[27.7233,-28.9743],[27.7071,-28.9822],[27.7135,-29.0101],[27.6851,-29.0036],[27.688,-29.0236],[27.6704,-29.0268],[27.6723,-29.0442],[27.641,-29.0457],[27.6766,-29.0733],[27.6395,-29.0856],[27.68,-29.1092],[27.7,-29.0954],[27.7177,-29.1173],[27.7523,-29.0783],[27.7687,-29.0729],[27.781,-29.0831],[27.7879,-29.0621],[27.8011,-29.0677],[27.8109,-29.0462],[27.8311,-29.0435],[27.8594,-29.0742],[27.8888,-29.0723],[27.8946,-29.0817],[27.9427,-29.0307],[27.9454,-28.9923],[27.9852,-28.9465],[28.0317,-28.964],[28.0353,-28.9839],[28.0808,-29.0149],[28.1019,-29.0817],[28.134,-29.0711],[28.2471,-29.1364],[28.2789,-29.1192],[28.3387,-29.1367],[28.329,-29.1693],[28.3586,-29.2029],[28.362,-29.2498],[28.3891,-29.2808],[28.3786,-29.2905],[28.4046,-29.3046],[28.3944,-29.3146],[28.5017,-29.3285],[28.5177,-29.3507],[28.551,-29.3643],[28.5894,-29.3705],[28.6009,-29.359],[28.6144,-29.3683],[28.6088,-29.3578],[28.6223,-29.342],[28.6093,-29.3498],[28.5845,-29.3233],[28.5945,-29.3188],[28.5877,-29.3097],[28.5753,-29.3111],[28.5753,-29.2953],[28.5658,-29.3041],[28.5572,-29.2304],[28.5863,-29.2091],[28.5782,-29.2086],[28.5905,-29.1872],[28.6368,-29.1805],[28.6537,-29.1535],[28.6839,-29.146],[28.6786,-29.1385],[28.6993,-29.1174],[28.7237,-29.1155],[28.7456,-29.0655],[28.7682,-29.057],[28.7581,-29.0402],[28.755,-28.9429],[28.7925,-28.9074]]]}}]}