{"type":"FeatureCollection","features":[{"type":"Feature","properties":{"name":"Bamako","code":"92416918B70420899930674","iso":"MLI"},"geometry":{"type":"Polygon","coordinates":[[[-7.9294,12.6817],[-7.943,12.7114],[-7.9821,12.6802],[-8.0174,12.6773],[-8.0211,12.6591],[-8.0448,12.6803],[-8.0699,12.5935],[-8.0815,12.5924],[-8.0785,12.5637],[-8.0419,12.5676],[-8.0369,12.5958],[-8.009,12.5752],[-7.9876,12.5243],[-7.9348,12.5029],[-7.9187,12.5165],[-7.927,12.5865],[-7.9123,12.6027],[-7.9128,12.6743],[-7.9294,12.6817]]]}},{"type":"Feature","properties":{"name":"Gao","code":"92416918B98496355207236","iso":"MLI"},"geometry":{"type":"Polygon","coordinates":[[[4.2428,18.0056],[3.217,18.0046],[2.4323,17.9672],[2.2475,18.0595],[1.9795,18.0605],[1.9326,17.756],[1.7305,17.7274],[1.6702,17.743],[1.1777,17.6996],[0.9765,17.8451],[0.7053,17.9567],[0.4635,17.9518],[0.3757,18.0563],[0.4712,18.1465],[0.276,18.4159],[0.0725,18.8066],[-0.8885,19.0366],[-0.9445,18.0005],[-1.1237,17.8903],[-1.5236,17.8786],[-1.5919,17.5976],[-1.4713,17.3377],[-1.4885,17.2617],[-1.572,17.187],[-1.6095,17.1224],[-1.583,17.0438],[-1.6047,17.012],[-1.5594,16.9643],[-0.7712,16.9023],[-0.7101,16.8602],[-0.6875,16.7354],[-0.7579,16.356],[-0.904,16.1913],[-0.8695,16.0772],[-0.7526,15.9531],[-0.6922,15.8185],[-0.7074,15.6864],[-0.7563,15.5631],[-0.8615,15.459],[-0.8562,15.3982],[-0.8084,15.3627],[-0.7075,15.35],[-0.7022,15.2943],[-0.7393,15.2208],[-0.7014,15.0798],[-0.445,15.0785],[-0.3848,14.9987],[-0.2423,15.0737],[0.0505,14.9726],[0.1558,14.9743],[0.2276,14.9935],[0.3967,14.9595],[0.5199,14.9944],[0.7023,14.9406],[0.7504,14.9581],[0.9668,14.9759],[1.3112,15.2738],[2.5952,15.3408],[3.0177,15.3328],[3.029,15.4239],[3.4946,15.3533],[3.5353,15.3949],[3.5375,15.4816],[3.5996,15.5215],[3.7046,15.6456],[3.8469,15.6761],[3.8902,15.7209],[3.9175,15.8075],[3.9291,15.9037],[3.9419,15.9327],[3.9905,15.9704],[3.9865,16.0793],[4.064,16.2219],[4.0992,16.3255],[4.1998,16.3935],[4.1964,16.8079],[4.2143,16.9979],[4.2447,16.9979],[4.2428,18.0056]]]}},{"type":"Feature","properties":{"name":"Kayes","code":"92416918B67011525583155","iso":"MLI"},"geometry":{"type":"Polygon","coordinates":[[[-9.1361,15.4972],[-9.3293,15.4968],[-9.3328,15.5658],[-9.3086,15.6892],[-9.3308,15.6988],[-9.4458,15.6],[-9.4016,15.4339],[-9.6941,15.422],[-9.7647,15.4388],[-9.9032,15.4378],[-9.954,15.4199],[-9.9832,15.4429],[-10.0049,15.434],[-10.1339,15.4644],[-10.2029,15.4555],[-10.258,15.4737],[-10.3483,15.4285],[-10.5079,15.4373],[-10.64,15.416],[-10.7211,15.4386],[-10.7294,15.4242],[-10.7165,15.3674],[-10.7371,15.3331],[-10.759,15.3317],[-10.7814,15.3016],[-10.8003,15.3051],[-10.8249,15.2825],[-10.8367,15.2116],[-10.8692,15.1887],[-10.879,15.1283],[-10.8984,15.1046],[-10.9199,15.1392],[-10.9528,15.1567],[-11.0016,15.2375],[-11.2021,15.3926],[-11.2528,15.416],[-11.3586,15.5291],[-11.3582,15.5527],[-11.409,15.6312],[-11.515,15.6363],[-11.4934,15.6075],[-11.5474,15.5917],[-11.5826,15.5444],[-11.6415,15.5223],[-11.6522,15.533],[-11.7112,15.5384],[-11.7088,15.489],[-11.7479,15.4498],[-11.7647,15.3463],[-11.7902,15.3199],[-11.8079,15.2656],[-11.8097,15.2088],[-11.8386,15.1775],[-11.8128,15.1306],[-11.8472,15.0934],[-11.8312,15.0658],[-11.8419,15.0333],[-11.8106,15.0418],[-11.7916,15.025],[-11.8175,14.9375],[-11.8006,14.8936],[-11.8255,14.891],[-11.8446,14.8544],[-11.8855,14.8277],[-11.9313,14.8171],[-11.9445,14.7734],[-12.0081,14.7577],[-12.0419,14.7652],[-12.0529,14.7192],[-12.1099,14.7481],[-12.1223,14.77],[-12.2135,14.7548],[-12.2392,14.7614],[-12.2336,14.7346],[-12.2088,14.7221],[-12.2127,14.701],[-12.1603,14.6835],[-12.1759,14.6589],[-12.144,14.6438],[-12.1495,14.6174],[-12.1725,14.6067],[-12.1872,14.5521],[-12.2163,14.5435],[-12.2203,14.4858],[-12.1992,14.4758],[-12.2067,14.4561],[-12.1903,14.4346],[-12.1998,14.4029],[-12.1555,14.3814],[-12.126,14.3898],[-12.1216,14.366],[-12.0934,14.3647],[-12.1007,14.3406],[-12.0882,14.3315],[-12.103,14.3251],[-12.0904,14.3209],[-12.1008,14.3075],[-12.0268,14.2835],[-12.0019,14.2136],[-11.9741,14.1807],[-11.9892,14.1191],[-11.9756,14.0975],[-11.9967,14.0823],[-11.9948,14.0605],[-12.01,14.0466],[-12.0103,13.9837],[-11.9346,13.9143],[-11.9505,13.8053],[-12.0079,13.748],[-12.0732,13.7154],[-12.0407,13.6605],[-12.0381,13.6191],[-11.9983,13.5846],[-11.9991,13.5673],[-11.9705,13.533],[-11.8694,13.4561],[-11.8668,13.4317],[-11.8871,13.3836],[-11.8444,13.3459],[-11.8295,13.3054],[-11.7993,13.3074],[-11.788,13.33],[-11.7712,13.3335],[-11.7419,13.3842],[-11.7441,13.4033],[-11.7272,13.412],[-11.7023,13.4091],[-11.6885,13.3867],[-11.6263,13.3894],[-11.6334,13.3585],[-11.5971,13.3621],[-11.588,13.3046],[-11.545,13.2842],[-11.5258,13.2536],[-11.5429,13.2191],[-11.5384,13.1966],[-11.5015,13.1895],[-11.5177,13.1473],[-11.4756,13.0966],[-11.4424,13.093],[-11.425,13.0763],[-11.434,13.0514],[-11.3976,13.0035],[-11.4154,12.9968],[-11.415,12.9667],[-11.3871,12.9637],[-11.3841,12.9908],[-11.3572,12.9782],[-11.3484,12.932],[-11.3986,12.9246],[-11.4013,12.9122],[-11.3873,12.902],[-11.4045,12.8772],[-11.3968,12.8529],[-11.4101,12.8446],[-11.4,12.825],[-11.3827,12.8285],[-11.3841,12.7752],[-11.4018,12.7698],[-11.3679,12.7341],[-11.4214,12.7223],[-11.4234,12.6951],[-11.4406,12.6942],[-11.4469,12.6666],[-11.4123,12.6454],[-11.4097,12.6182],[-11.4244,12.6062],[-11.4031,12.5886],[-11.4183,12.561],[-11.4401,12.5611],[-11.447,12.5457],[-11.4303,12.5435],[-11.4291,12.524],[-11.4173,12.5198],[-11.4098,12.5411],[-11.3883,12.535],[-11.3828,12.4898],[-11.3735,12.4829],[-11.3637,12.5067],[-11.35,12.4613],[-11.3728,12.4497],[-11.367,12.3915],[-11.4096,12.3785],[-11.4131,12.3915],[-11.4352,12.3794],[-11.4348,12.3575],[-11.4463,12.3509],[-11.4321,12.3354],[-11.4297,12.2855],[-11.4492,12.2741],[-11.4494,12.2489],[-11.4852,12.2258],[-11.4948,12.1845],[-11.4571,12.1336],[-11.368,12.1052],[-11.356,12.059],[-11.3094,12.0197],[-11.2356,11.9935],[-11.204,12.0147],[-11.1846,12.0104],[-11.1423,12.0482],[-11.141,12.0936],[-11.1107,12.0936],[-11.1023,12.1242],[-11.0734,12.1342],[-11.0669,12.1606],[-11.0534,12.1614],[-11.0587,12.1799],[-11.0431,12.2164],[-10.99,12.2097],[-10.9717,12.2259],[-10.9344,12.2273],[-10.8924,12.2031],[-10.8578,12.1394],[-10.7911,12.11],[-10.7847,12.0642],[-10.8007,12.037],[-10.7768,12.0076],[-10.764,11.9617],[-10.7731,11.9356],[-10.755,11.937],[-10.7079,11.903],[-10.6719,11.8939],[-10.6343,11.9098],[-10.615,11.97],[-10.5682,11.9882],[-10.5811,12.0192],[-10.5239,12.037],[-10.5228,12.0715],[-10.508,12.0902],[-10.5141,12.1208],[-10.4471,12.1197],[-10.4109,12.1418],[-10.4147,12.1729],[-10.396,12.1785],[-10.3792,12.1655],[-10.3605,12.174],[-10.3632,12.1925],[-10.3315,12.1907],[-10.3414,12.2211],[-10.3108,12.2171],[-10.2981,12.1884],[-10.2863,12.1925],[-10.2855,12.2095],[-10.2678,12.2029],[-10.2506,12.2131],[-10.2441,12.194],[-10.1945,12.2002],[-10.1886,12.1859],[-10.1399,12.1704],[-10.0917,12.1806],[-10.0964,12.1469],[-10.0705,12.1465],[-10.0678,12.1335],[-10.0635,12.1486],[-10.0225,12.126],[-10.0117,12.1326],[-9.9712,12.0972],[-9.9144,12.097],[-9.904,12.0701],[-9.8723,12.0509],[-9.8167,12.0597],[-9.7811,12.0309],[-9.6976,12.0246],[-9.6881,12.0319],[-9.6942,12.0575],[-9.6741,12.0804],[-9.6798,12.1182],[-9.6358,12.1697],[-9.5747,12.1907],[-9.5356,12.1899],[-9.4739,12.2536],[-9.44,12.2488],[-9.4219,12.259],[-9.3422,12.2437],[-9.3491,12.2548],[-9.3217,12.2754],[-9.3249,12.3141],[-9.2988,12.3561],[-9.3397,12.3747],[-9.358,12.4157],[-9.382,12.4251],[-9.3822,12.444],[-9.3997,12.441],[-9.4076,12.4534],[-9.4049,12.4648],[-9.3687,12.4775],[-9.3653,12.4954],[-9.3407,12.4947],[-9.3344,12.4774],[-9.3155,12.5023],[-9.2856,12.4844],[-9.252,12.5038],[-9.1577,12.4876],[-9.0838,12.4373],[-9.0448,12.4264],[-8.9088,12.5254],[-8.9009,12.5153],[-8.8715,12.6003],[-8.8391,12.6078],[-8.8128,12.5878],[-8.7882,12.5889],[-8.7373,12.6427],[-8.7386,12.6579],[-8.6904,12.6867],[-8.6623,12.7334],[-8.6135,12.768],[-8.6097,12.8051],[-8.6325,12.8191],[-8.6575,12.8602],[-8.6465,12.8771],[-8.6214,12.8835],[-8.6372,12.9089],[-8.6323,12.926],[-8.6045,12.9296],[-8.5805,12.9836],[-8.5846,13.0214],[-8.574,13.0394],[-8.5981,13.0988],[-8.5715,13.1302],[-8.5852,13.1569],[-8.5761,13.2],[-8.5695,13.2228],[-8.5346,13.2477],[-8.5392,13.2611],[-8.526,13.2686],[-8.5215,13.2828],[-8.54,13.2965],[-8.5167,13.3125],[-8.522,13.3374],[-8.5017,13.3361],[-8.5135,13.3686],[-8.4859,13.3923],[-8.4532,13.3955],[-8.4505,13.4067],[-8.4616,13.4058],[-8.4533,13.4326],[-8.4751,13.4722],[-8.4697,13.4855],[-8.5063,13.5078],[-8.5158,13.5392],[-8.5587,13.57],[-8.5416,13.5829],[-8.5569,13.6745],[-8.547,13.7074],[-8.4931,13.7454],[-8.4983,13.78],[-8.4545,13.8151],[-8.4608,13.8607],[-8.4348,13.866],[-8.4607,13.8867],[-8.4522,13.9055],[-8.4809,13.9519],[-8.5082,13.9418],[-8.5327,13.9592],[-8.5897,13.9255],[-8.5709,13.9041],[-8.6024,13.8612],[-8.5726,13.8608],[-8.6016,13.8342],[-8.6312,13.8294],[-8.6639,13.8559],[-8.7036,13.8413],[-8.7158,13.8692],[-8.7392,13.8766],[-8.7493,13.8977],[-8.74,13.9158],[-8.7713,13.8985],[-8.7866,13.935],[-8.8162,13.9418],[-8.8244,13.9647],[-8.848,13.9617],[-8.8634,13.9963],[-8.8333,14.0153],[-8.8426,14.0304],[-8.814,14.0427],[-8.8253,14.109],[-8.7907,14.1075],[-8.7683,14.0924],[-8.7477,14.1039],[-8.7615,14.1448],[-8.7552,14.1978],[-8.7802,14.2123],[-8.7961,14.241],[-8.7923,14.2608],[-8.8202,14.2678],[-8.7993,14.2904],[-8.7223,14.2851],[-8.6503,14.3111],[-8.5713,14.4101],[-8.5293,14.3771],[-8.4723,14.2981],[-8.3263,14.3131],[-8.2723,14.3021],[-8.1623,14.3171],[-8.1323,14.3371],[-8.1603,14.4311],[-8.1503,14.4851],[-8.1643,14.5001],[-8.2373,14.5171],[-8.3613,14.6222],[-8.4715,14.6775],[-8.4853,14.7302],[-8.4753,14.8732],[-8.5073,14.9602],[-8.6773,14.9792],[-8.7254,15.0045],[-8.7883,15.1402],[-8.8043,15.2422],[-8.8493,15.2902],[-8.9887,15.3585],[-9.1223,15.4712],[-9.1361,15.4972]]]}},{"type":"Feature","properties":{"name":"Kidal","code":"92416918B67702032852187","iso":"MLI"},"geometry":{"type":"Polygon","coordinates":[[[4.2428,18.0056],[4.2425,19.1404],[3.3567,18.965],[3.3304,18.9932],[3.2951,18.9993],[3.2376,19.06],[3.1638,19.1114],[3.125,19.1229],[3.114,19.154],[3.1244,19.1859],[3.2083,19.2564],[3.2408,19.3308],[3.288,19.3552],[3.2979,19.3764],[3.251,19.4831],[3.2659,19.5237],[3.2301,19.5821],[3.2486,19.6287],[3.2297,19.6835],[3.2589,19.8166],[3.2528,19.8329],[3.1464,19.8545],[3.0789,19.9011],[3.0326,19.9133],[2.9718,19.9662],[2.904,19.9781],[2.8761,19.9717],[2.8541,19.9872],[2.7811,19.9903],[2.7549,20.0131],[2.7311,20.0107],[2.7094,20.04],[2.6991,20.1011],[2.6833,20.1151],[2.6649,20.0981],[2.6628,20.0701],[2.6318,20.0582],[2.6188,20.0691],[2.5868,20.0458],[2.549,20.0533],[2.5147,20.1089],[2.4762,20.0997],[2.4643,20.1134],[2.4039,20.0889],[2.3898,20.0525],[2.3687,20.0429],[2.3772,20.0777],[2.3694,20.1065],[2.3935,20.1361],[2.3847,20.162],[2.365,20.1607],[2.347,20.1805],[2.34,20.2188],[2.31,20.2322],[2.297,20.2669],[2.3023,20.2879],[2.2059,20.3346],[2.1823,20.3294],[2.1804,20.2941],[2.1554,20.275],[2.1284,20.2746],[2.1103,20.2523],[2.0699,20.2597],[2.031,20.2844],[1.9874,20.2531],[1.9804,20.2637],[1.9471,20.2564],[1.926,20.2213],[1.8987,20.2418],[1.9032,20.2628],[1.8864,20.2937],[1.8001,20.2951],[1.7663,20.3484],[1.7397,20.3513],[1.673,20.4018],[1.6759,20.4368],[1.6647,20.45],[1.679,20.4818],[1.663,20.4972],[1.6689,20.5284],[1.5937,20.5974],[1.4403,20.6497],[1.3844,20.6551],[1.3151,20.7395],[1.2548,20.7354],[1.2334,20.7206],[1.1703,20.7303],[1.167,20.7929],[1.1953,20.9435],[1.1951,21.0382],[1.1795,21.114],[0.8856,21.2955],[0.2447,21.7457],[-0.0143,21.9068],[-0.2375,21.2298],[-1.2925,20.3867],[-2.0565,19.9987],[-1.9819,19.7699],[-1.125,19.0742],[-0.8885,19.0366],[0.0725,18.8066],[0.276,18.4159],[0.4712,18.1465],[0.3757,18.0563],[0.4635,17.9518],[0.7053,17.9567],[0.9765,17.8451],[1.1546,17.7065],[1.1777,17.6996],[1.6702,17.743],[1.7305,17.7274],[1.9326,17.756],[1.9795,18.0605],[2.2475,18.0595],[2.4323,17.9672],[3.217,18.0046],[4.2428,18.0056]]]}},{"type":"Feature","properties":{"name":"Koulikouro","code":"92416918B61022065682725","iso":"MLI"},"geometry":{"type":"Polygon","coordinates":[[[-9.0448,12.4264],[-9.0119,12.4135],[-9.0052,12.3867],[-8.9531,12.3509],[-8.9328,12.3187],[-8.984,12.2453],[-8.9929,12.2128],[-8.9807,12.2173],[-8.9675,12.1809],[-8.9274,12.1843],[-8.9168,12.1958],[-8.8926,12.167],[-8.8836,12.1469],[-8.8962,12.1333],[-8.8978,12.0984],[-8.9103,12.0971],[-8.9087,12.0396],[-8.8803,12.0349],[-8.8648,12.0184],[-8.8504,12.0389],[-8.8404,12.0288],[-8.827,12.0403],[-8.7733,11.971],[-8.7901,11.8573],[-8.8315,11.7936],[-8.8191,11.7777],[-8.8483,11.6485],[-8.7711,11.6193],[-8.7596,11.6269],[-8.7456,11.6041],[-8.7011,11.6405],[-8.6783,11.5878],[-8.6401,11.5446],[-8.6589,11.5334],[-8.6543,11.5163],[-8.6138,11.4683],[-8.5652,11.4562],[-8.5158,11.4933],[-8.5245,11.5122],[-8.5091,11.5339],[-8.521,11.5536],[-8.5035,11.5723],[-8.5141,11.5764],[-8.494,11.5957],[-8.4749,11.5841],[-8.4729,11.5986],[-8.4426,11.6155],[-8.4566,11.6353],[-8.3966,11.6545],[-8.333,11.6525],[-8.2423,11.6835],[-8.216,11.7106],[-8.1746,11.6824],[-8.0908,11.6838],[-8.0353,11.7039],[-7.9683,11.7822],[-7.9372,11.784],[-7.8623,11.8399],[-7.7236,11.9143],[-7.6891,11.9538],[-7.6105,11.9482],[-7.5902,11.9646],[-7.596,11.9728],[-7.5472,11.9944],[-7.5203,12.029],[-7.5165,12.0749],[-7.529,12.0771],[-7.502,12.1433],[-7.4641,12.1613],[-7.4582,12.1786],[-7.4274,12.1787],[-7.4312,12.1922],[-7.4114,12.2014],[-7.3693,12.2017],[-7.3561,12.2216],[-7.3235,12.2244],[-7.3082,12.2587],[-7.2963,12.2529],[-7.2761,12.3244],[-7.2558,12.3277],[-7.2599,12.3401],[-7.2383,12.3529],[-7.1947,12.3547],[-7.1809,12.398],[-7.1667,12.4152],[-7.147,12.4163],[-7.1242,12.4483],[-7.144,12.38],[-7.121,12.3329],[-7.1324,12.3138],[-7.1174,12.2866],[-7.0885,12.2708],[-7.1201,12.2138],[-7.0761,12.1967],[-7.0711,12.1709],[-7.1079,12.1395],[-7.1386,12.1317],[-7.1289,12.1092],[-7.1026,12.1203],[-7.0888,12.1087],[-7.1192,12.0718],[-7.1617,12.0621],[-7.1608,12.0381],[-7.1385,12.0282],[-7.1172,12.037],[-7.0918,12.015],[-7.1115,11.9803],[-7.1006,11.9605],[-6.972,11.9741],[-6.9493,11.9519],[-6.9473,11.8589],[-6.8973,11.8679],[-6.8713,11.8589],[-6.8413,11.8219],[-6.728,11.7862],[-6.7099,11.7684],[-6.6914,11.7893],[-6.6623,11.7872],[-6.655,11.7736],[-6.5646,11.7498],[-6.5468,11.7308],[-6.5578,11.6933],[-6.5418,11.677],[-6.5546,11.6526],[-6.5473,11.6378],[-6.5011,11.6438],[-6.4862,11.6642],[-6.4856,11.7094],[-6.4669,11.7529],[-6.4396,11.7746],[-6.4133,11.8471],[-6.3571,11.9251],[-6.3792,12.0231],[-6.3309,12.0853],[-6.3004,12.1069],[-6.2367,12.1088],[-6.1978,12.0676],[-6.1683,12.0668],[-6.1521,12.0799],[-6.1582,12.1258],[-6.1335,12.1543],[-5.9685,12.1619],[-5.9643,12.2321],[-5.9801,12.232],[-5.9936,12.2541],[-5.9965,12.2819],[-5.9823,12.2819],[-5.9898,12.3166],[-6.0184,12.3289],[-6.0445,12.3135],[-6.0441,12.293],[-6.0645,12.302],[-6.0804,12.289],[-6.0853,12.3021],[-6.1252,12.3096],[-6.1292,12.3414],[-6.1708,12.3984],[-6.2353,12.4046],[-6.2674,12.3947],[-6.2669,12.416],[-6.2378,12.422],[-6.2347,12.436],[-6.2701,12.4732],[-6.2745,12.5017],[-6.254,12.4949],[-6.2478,12.5322],[-6.2969,12.5786],[-6.348,12.5622],[-6.3633,12.5845],[-6.3861,12.5903],[-6.3816,12.6042],[-6.394,12.6029],[-6.3944,12.6308],[-6.4198,12.6687],[-6.4094,12.7022],[-6.422,12.7183],[-6.4776,12.7224],[-6.5008,12.6918],[-6.5667,12.802],[-6.6254,12.806],[-6.7917,12.7835],[-6.8079,12.8207],[-6.8521,12.8226],[-6.8873,12.7955],[-6.8929,12.8348],[-6.978,12.8717],[-7.0371,12.8822],[-7.0371,12.9619],[-7.0813,13.013],[-7.0213,13.143],[-7.0506,13.2313],[-7.0002,13.2612],[-6.9742,13.3091],[-6.9326,13.339],[-6.8902,13.3565],[-6.8386,13.3458],[-6.8237,13.3993],[-6.7592,13.4662],[-6.7753,13.5221],[-6.8623,13.6238],[-6.8413,13.6881],[-6.9003,13.7461],[-6.9361,13.8218],[-6.9003,13.9951],[-6.7513,14.2621],[-6.6173,14.4671],[-6.5823,14.4771],[-6.4593,14.4431],[-6.4294,14.4621],[-6.3824,14.5332],[-6.3814,14.5992],[-6.4364,14.7782],[-6.5454,14.9412],[-6.5284,14.9952],[-6.4054,15.1652],[-6.3085,15.4962],[-9.1361,15.4972],[-9.1223,15.4712],[-8.9887,15.3585],[-8.8493,15.2902],[-8.8043,15.2422],[-8.7883,15.1402],[-8.7254,15.0045],[-8.6773,14.9792],[-8.5073,14.9602],[-8.4753,14.8732],[-8.4853,14.7302],[-8.4715,14.6775],[-8.3613,14.6222],[-8.2373,14.5171],[-8.1643,14.5001],[-8.1503,14.4851],[-8.1603,14.4311],[-8.1323,14.3371],[-8.1623,14.3171],[-8.2723,14.3021],[-8.3263,14.3131],[-8.4723,14.2981],[-8.5293,14.3771],[-8.5713,14.4101],[-8.6503,14.3111],[-8.7223,14.2851],[-8.7993,14.2904],[-8.8162,14.2761],[-8.8195,14.266],[-8.7923,14.2608],[-8.7961,14.241],[-8.7802,14.2123],[-8.7552,14.1978],[-8.7615,14.1448],[-8.7477,14.1039],[-8.7683,14.0924],[-8.7907,14.1075],[-8.8253,14.109],[-8.814,14.0427],[-8.8426,14.0304],[-8.8333,14.0153],[-8.8634,13.9963],[-8.848,13.9617],[-8.8244,13.9647],[-8.8162,13.9418],[-8.7866,13.935],[-8.7713,13.8985],[-8.74,13.9158],[-8.7493,13.8977],[-8.7392,13.8766],[-8.7158,13.8692],[-8.7036,13.8413],[-8.6639,13.8559],[-8.6312,13.8294],[-8.6016,13.8342],[-8.5726,13.8608],[-8.6024,13.8612],[-8.5709,13.9041],[-8.5897,13.9255],[-8.5327,13.9592],[-8.5082,13.9418],[-8.4809,13.9519],[-8.4522,13.9055],[-8.4607,13.8867],[-8.4348,13.866],[-8.4608,13.8607],[-8.4545,13.8151],[-8.4983,13.78],[-8.4961,13.7414],[-8.5095,13.7431],[-8.547,13.7074],[-8.5582,13.6543],[-8.5416,13.5829],[-8.5587,13.57],[-8.5158,13.5392],[-8.5063,13.5078],[-8.4697,13.4855],[-8.4751,13.4722],[-8.4533,13.4326],[-8.4616,13.4058],[-8.4505,13.4067],[-8.4532,13.3955],[-8.4859,13.3923],[-8.5135,13.3686],[-8.5017,13.3361],[-8.522,13.3374],[-8.5167,13.3125],[-8.54,13.2965],[-8.5215,13.2828],[-8.526,13.2686],[-8.5392,13.2611],[-8.5346,13.2477],[-8.5695,13.2228],[-8.5761,13.2],[-8.5852,13.1569],[-8.5715,13.1302],[-8.5981,13.0988],[-8.574,13.0394],[-8.5846,13.0214],[-8.5805,12.9836],[-8.6045,12.9296],[-8.6323,12.926],[-8.6372,12.9089],[-8.6214,12.8835],[-8.6465,12.8771],[-8.6575,12.8602],[-8.6325,12.8191],[-8.6097,12.8051],[-8.6135,12.768],[-8.6623,12.7334],[-8.6904,12.6867],[-8.7386,12.6579],[-8.7373,12.6427],[-8.7882,12.5889],[-8.8128,12.5878],[-8.8391,12.6078],[-8.8715,12.6003],[-8.9009,12.5153],[-8.9088,12.5254],[-9.0448,12.4264]],[[-7.9294,12.6817],[-7.9128,12.6743],[-7.9123,12.6027],[-7.927,12.5865],[-7.9187,12.5165],[-7.9348,12.5029],[-7.9876,12.5243],[-8.009,12.5752],[-8.0369,12.5958],[-8.0419,12.5676],[-8.0785,12.5637],[-8.0815,12.5924],[-8.0699,12.5935],[-8.0448,12.6803],[-8.0211,12.6591],[-8.0174,12.6773],[-7.9821,12.6802],[-7.943,12.7114],[-7.9294,12.6817]]]}},{"type":"Feature","properties":{"name":"Mopti","code":"92416918B29694163592634","iso":"MLI"},"geometry":{"type":"Polygon","coordinates":[[[-0.742,15.0641],[-0.9751,14.9989],[-1.0773,14.9963],[-1.161,15.0347],[-1.2145,15.1762],[-1.3055,15.2602],[-1.396,15.2888],[-1.5029,15.3516],[-1.6865,15.4282],[-1.8175,15.4232],[-1.9073,15.3994],[-2.0122,15.3277],[-2.1344,15.2727],[-2.3084,15.2804],[-2.5324,15.3192],[-2.5974,15.3662],[-2.728,15.4148],[-2.821,15.512],[-2.8382,15.5811],[-2.821,15.6656],[-2.8502,15.7091],[-2.9219,15.7654],[-2.9883,15.8924],[-3.0102,15.8961],[-3.0543,15.833],[-3.0853,15.8636],[-3.0981,15.8617],[-3.105,15.8257],[-3.1866,15.8178],[-3.1914,15.8575],[-3.2456,15.8589],[-3.2759,15.8956],[-3.2944,15.8952],[-3.2963,15.8695],[-3.2741,15.8538],[-3.3237,15.7906],[-3.3008,15.7767],[-3.2967,15.7238],[-3.3341,15.7232],[-3.3684,15.6989],[-3.4248,15.7268],[-3.4824,15.7303],[-3.5613,15.6158],[-3.5707,15.5752],[-3.5974,15.5363],[-3.658,15.4835],[-3.8635,15.5056],[-3.8733,15.5301],[-3.836,15.5749],[-3.8744,15.6164],[-3.8953,15.6691],[-4.0241,15.7343],[-4.0544,15.8173],[-4.1354,15.8073],[-4.1859,15.778],[-4.2138,15.7771],[-4.2302,15.752],[-4.2813,15.7274],[-4.3505,15.6498],[-4.3961,15.6951],[-4.4271,15.6924],[-4.4552,15.6272],[-4.5367,15.5891],[-4.6884,15.5783],[-4.8788,15.5893],[-4.8788,15.5985],[-4.9107,15.5831],[-4.9182,15.5939],[-4.9937,15.6042],[-5.1239,15.5915],[-5.2263,15.6749],[-5.354,15.5513],[-5.3455,15.5184],[-5.3395,15.497],[-5.2307,15.4929],[-5.1857,15.4741],[-5.1004,15.1932],[-5.2084,15.0212],[-5.2724,14.9702],[-5.439,14.9628],[-5.4981,14.9304],[-5.5431,14.9417],[-5.6074,14.7602],[-5.5944,14.6832],[-5.6134,14.6582],[-5.6214,14.5882],[-5.6618,14.5578],[-5.6656,14.5304],[-5.5124,14.4361],[-5.326,14.3619],[-5.1973,14.2608],[-5.1881,14.1635],[-5.1189,14.1153],[-5.1377,14.06],[-5.1264,13.9541],[-5.0514,13.9431],[-4.9831,13.9543],[-4.9886,14.0281],[-4.9354,14.1003],[-4.9138,14.1122],[-4.9052,14.1049],[-4.8698,14.0426],[-4.8676,13.9859],[-4.8424,13.9261],[-4.897,13.8725],[-4.8694,13.7746],[-4.8927,13.7209],[-4.8784,13.6911],[-4.8774,13.6341],[-4.688,13.6156],[-4.6059,13.6205],[-4.5557,13.6722],[-4.5783,13.6035],[-4.5519,13.6082],[-4.462,13.6607],[-4.4124,13.7063],[-4.3638,13.7912],[-4.3294,13.8161],[-4.3242,13.8367],[-4.2999,13.8409],[-4.3004,13.8743],[-4.0945,13.946],[-4.0929,13.8975],[-4.0414,13.8361],[-4.0104,13.6971],[-3.9584,13.5951],[-3.9627,13.4972],[-3.9395,13.4692],[-3.9406,13.4479],[-3.8958,13.4379],[-3.963,13.4027],[-3.9609,13.3754],[-3.8969,13.375],[-3.836,13.3551],[-3.7965,13.3665],[-3.7433,13.3211],[-3.7381,13.2982],[-3.6731,13.27],[-3.6123,13.2098],[-3.5515,13.1943],[-3.5479,13.1634],[-3.4525,13.1527],[-3.4223,13.1747],[-3.4486,13.2534],[-3.4379,13.2711],[-3.2332,13.2839],[-3.2788,13.5519],[-3.2507,13.5796],[-3.2464,13.6758],[-3.2751,13.6915],[-3.267,13.7076],[-3.2109,13.7011],[-3.1811,13.6742],[-3.1061,13.6856],[-3.0605,13.6538],[-3.0571,13.6237],[-3.0385,13.6104],[-3.0009,13.6558],[-2.9707,13.6484],[-2.9515,13.6206],[-2.8753,13.6499],[-2.907,13.7245],[-2.9068,13.8185],[-2.8791,13.8617],[-2.8362,13.9883],[-2.8553,14.0024],[-2.8312,14.0553],[-2.6769,14.1308],[-2.4737,14.2945],[-2.2952,14.2436],[-2.1041,14.1425],[-2.0531,14.1644],[-2.0312,14.1775],[-2.0026,14.2457],[-1.9793,14.4999],[-1.7097,14.5601],[-1.3397,14.7395],[-1.2193,14.7486],[-1.112,14.7752],[-1.0509,14.8375],[-0.742,15.0641]]]}},{"type":"Feature","properties":{"name":"Segou","code":"92416918B20164850262385","iso":"MLI"},"geometry":{"type":"Polygon","coordinates":[[[-6.2599,12.5494],[-6.2114,12.602],[-6.0633,12.6689],[-6.016,12.7618],[-5.9359,12.7651],[-5.927,12.7458],[-5.8932,12.7312],[-5.8317,12.7252],[-5.7437,12.7779],[-5.6114,12.8144],[-5.5868,12.8097],[-5.5669,12.7762],[-5.5171,12.7369],[-5.4936,12.6735],[-5.4389,12.6691],[-5.4234,12.6454],[-5.3856,12.6406],[-5.3798,12.6279],[-5.361,12.6978],[-5.2577,12.6798],[-5.2457,12.7059],[-5.2483,12.7444],[-5.2099,12.7933],[-5.1707,12.773],[-5.1174,12.7144],[-5.1021,12.5723],[-5.0864,12.5459],[-5.0541,12.5579],[-5.0415,12.6298],[-4.953,12.6316],[-4.9434,12.5907],[-4.7822,12.6718],[-4.7851,12.762],[-4.7276,12.8065],[-4.6894,12.7945],[-4.6603,12.7442],[-4.6095,12.7187],[-4.5748,12.7367],[-4.4324,12.712],[-4.3462,12.739],[-4.3241,12.7068],[-4.2667,12.7033],[-4.2349,12.7263],[-4.21,12.8149],[-4.2264,12.8592],[-4.2197,12.9594],[-4.2665,12.9872],[-4.2747,13.0346],[-4.3455,13.1084],[-4.3421,13.1357],[-4.2868,13.1849],[-4.2314,13.1765],[-4.2236,13.1878],[-4.259,13.2318],[-4.1396,13.2898],[-4.105,13.3361],[-4.0956,13.3894],[-4.0512,13.4034],[-4.0162,13.4333],[-3.9843,13.4301],[-3.982,13.4507],[-3.9602,13.4698],[-3.9643,13.4835],[-3.9825,13.4728],[-3.9627,13.4972],[-3.9584,13.5951],[-4.0104,13.6971],[-4.0414,13.8361],[-4.0929,13.8975],[-4.0945,13.946],[-4.3004,13.8743],[-4.2999,13.8409],[-4.3242,13.8367],[-4.3294,13.8161],[-4.3638,13.7912],[-4.4124,13.7063],[-4.462,13.6607],[-4.5519,13.6082],[-4.5783,13.6035],[-4.5557,13.6722],[-4.6059,13.6205],[-4.688,13.6156],[-4.8774,13.6341],[-4.8784,13.6911],[-4.8927,13.7209],[-4.8694,13.7746],[-4.897,13.8725],[-4.8424,13.9261],[-4.8676,13.9859],[-4.8698,14.0426],[-4.9052,14.1049],[-4.9138,14.1122],[-4.9354,14.1003],[-4.9886,14.0281],[-4.9831,13.9543],[-5.0514,13.9431],[-5.1264,13.9541],[-5.1377,14.06],[-5.1189,14.1153],[-5.1881,14.1635],[-5.1973,14.2608],[-5.326,14.3619],[-5.5124,14.4361],[-5.6656,14.5304],[-5.6618,14.5578],[-5.6214,14.5882],[-5.6134,14.6582],[-5.5944,14.6832],[-5.6074,14.7602],[-5.5431,14.9417],[-5.4981,14.9304],[-5.439,14.9628],[-5.2724,14.9702],[-5.2084,15.0212],[-5.1004,15.1932],[-5.1857,15.4741],[-5.2307,15.4929],[-5.3395,15.497],[-5.354,15.5513],[-5.5174,15.4999],[-6.3085,15.4962],[-6.4054,15.1652],[-6.5284,14.9952],[-6.5454,14.9412],[-6.4364,14.7782],[-6.3814,14.5992],[-6.3824,14.5332],[-6.4294,14.4621],[-6.4593,14.4431],[-6.5823,14.4771],[-6.6173,14.4671],[-6.7513,14.2621],[-6.9003,13.9951],[-6.9361,13.8218],[-6.9003,13.7461],[-6.8413,13.6881],[-6.8623,13.6238],[-6.7753,13.5221],[-6.7592,13.4662],[-6.8237,13.3993],[-6.8386,13.3458],[-6.8902,13.3565],[-6.9326,13.339],[-6.9742,13.3091],[-7.0002,13.2612],[-7.0506,13.2313],[-7.0213,13.143],[-7.0813,13.013],[-7.0371,12.9619],[-7.0371,12.8822],[-6.978,12.8717],[-6.8929,12.8348],[-6.8873,12.7955],[-6.8521,12.8226],[-6.8079,12.8207],[-6.7917,12.7835],[-6.6254,12.806],[-6.5667,12.802],[-6.5008,12.6918],[-6.4776,12.7224],[-6.422,12.7183],[-6.4094,12.7022],[-6.4198,12.6687],[-6.3944,12.6308],[-6.394,12.6029],[-6.3816,12.6042],[-6.3861,12.5903],[-6.3633,12.5845],[-6.348,12.5622],[-6.2969,12.5786],[-6.2599,12.5494]]]}},{"type":"Feature","properties":{"name":"Sikasso","code":"92416918B9364304684584","iso":"MLI"},"geometry":{"type":"Polygon","coordinates":[[[-8.531,11.4861],[-8.5016,11.413],[-8.4483,11.4097],[-8.4384,11.3967],[-8.3505,11.3706],[-8.3882,11.3646],[-8.4078,11.3451],[-8.398,11.3239],[-8.3556,11.322],[-8.355,11.312],[-8.3682,11.2801],[-8.3886,11.2739],[-8.4433,11.2921],[-8.4733,11.2888],[-8.4856,11.2681],[-8.4736,11.2261],[-8.5533,11.208],[-8.5624,11.1339],[-8.6041,11.1296],[-8.6022,11.0927],[-8.6312,11.0643],[-8.6331,11.0382],[-8.6795,10.9958],[-8.6706,10.9477],[-8.6131,10.9588],[-8.6045,10.9504],[-8.5926,10.9656],[-8.5806,10.9543],[-8.5132,10.9909],[-8.4982,11.0032],[-8.4774,11.0639],[-8.3581,11.0666],[-8.2866,11.012],[-8.2784,10.9436],[-8.2577,10.8923],[-8.3071,10.8472],[-8.3033,10.8155],[-8.3323,10.7782],[-8.3317,10.7679],[-8.2901,10.7522],[-8.3031,10.7193],[-8.2895,10.6919],[-8.3235,10.6643],[-8.3247,10.5864],[-8.2758,10.5789],[-8.2457,10.5065],[-8.2301,10.4165],[-8.1855,10.411],[-8.111,10.4509],[-8.0963,10.4386],[-8.1017,10.3826],[-8.0697,10.3335],[-8.052,10.3255],[-8.0281,10.34],[-7.9872,10.3403],[-7.9457,10.2464],[-7.9795,10.1663],[-7.9583,10.1527],[-7.921,10.1569],[-7.8948,10.1957],[-7.8559,10.1987],[-7.8078,10.2351],[-7.7858,10.2768],[-7.7517,10.3014],[-7.7732,10.306],[-7.7511,10.3228],[-7.7551,10.3402],[-7.7225,10.348],[-7.7222,10.3654],[-7.7407,10.3717],[-7.6797,10.403],[-7.6258,10.4577],[-7.5868,10.4227],[-7.5534,10.4139],[-7.5122,10.4548],[-7.4477,10.4402],[-7.4397,10.4185],[-7.4509,10.4136],[-7.4523,10.3885],[-7.4277,10.3549],[-7.4341,10.3364],[-7.4217,10.3312],[-7.3902,10.3491],[-7.3577,10.3289],[-7.3643,10.2707],[-7.3858,10.2604],[-7.3767,10.2432],[-7.3342,10.2342],[-7.2771,10.2623],[-7.1494,10.2471],[-7.1142,10.2148],[-7.078,10.2032],[-7.08,10.1569],[-7.0574,10.1428],[-7.0235,10.1463],[-6.9962,10.1663],[-6.9785,10.2093],[-7.0157,10.238],[-7.0133,10.2569],[-6.94,10.3509],[-6.8526,10.3426],[-6.8035,10.3821],[-6.7903,10.367],[-6.6999,10.3365],[-6.6793,10.3367],[-6.6452,10.3604],[-6.6536,10.3955],[-6.6274,10.4343],[-6.6786,10.463],[-6.672,10.4795],[-6.6818,10.4849],[-6.6721,10.5034],[-6.6797,10.5298],[-6.6603,10.5331],[-6.6742,10.6042],[-6.6681,10.6225],[-6.6435,10.6326],[-6.6549,10.6376],[-6.6409,10.6693],[-6.613,10.6674],[-6.5889,10.6188],[-6.5648,10.6174],[-6.5342,10.5873],[-6.4281,10.5576],[-6.3986,10.5941],[-6.4141,10.6964],[-6.3914,10.7051],[-6.3202,10.6799],[-6.2495,10.7347],[-6.2121,10.7218],[-6.2292,10.699],[-6.2331,10.6563],[-6.1839,10.6315],[-6.2251,10.613],[-6.206,10.5795],[-6.2493,10.5254],[-6.2337,10.5111],[-6.217,10.5221],[-6.1994,10.4937],[-6.1695,10.4913],[-6.163,10.4834],[-6.1861,10.4679],[-6.1864,10.444],[-6.1569,10.4151],[-6.1819,10.4092],[-6.1901,10.3857],[-6.163,10.3604],[-6.1933,10.3387],[-6.1799,10.3174],[-6.1903,10.2999],[-6.2036,10.3144],[-6.2319,10.3038],[-6.2199,10.2596],[-6.1938,10.2559],[-6.1987,10.2359],[-6.1317,10.2039],[-5.9859,10.1923],[-5.9537,10.2427],[-5.9552,10.2736],[-5.9278,10.2742],[-5.8995,10.257],[-5.8844,10.2636],[-5.889,10.2956],[-5.8702,10.3112],[-5.87,10.3627],[-5.8216,10.3862],[-5.7875,10.4249],[-5.7028,10.4252],[-5.6493,10.4629],[-5.6163,10.4436],[-5.5602,10.4569],[-5.5105,10.423],[-5.5031,10.4639],[-5.4558,10.5517],[-5.4653,10.5818],[-5.458,10.5985],[-5.4787,10.6191],[-5.4607,10.6392],[-5.4548,10.7454],[-5.4678,10.7604],[-5.4334,10.7672],[-5.4029,10.8502],[-5.4535,10.8956],[-5.4525,10.9689],[-5.463,10.979],[-5.4908,10.9707],[-5.4766,11.0056],[-5.4903,11.0775],[-5.3825,11.1016],[-5.3315,11.1358],[-5.3224,11.2046],[-5.256,11.2403],[-5.2492,11.3778],[-5.1979,11.4304],[-5.2082,11.4544],[-5.1996,11.5261],[-5.2158,11.5759],[-5.2421,11.6043],[-5.2754,11.601],[-5.292,11.6128],[-5.2652,11.677],[-5.2604,11.7597],[-5.2856,11.7591],[-5.2913,11.7832],[-5.3456,11.8049],[-5.3541,11.7951],[-5.4035,11.8245],[-5.3802,11.8367],[-5.3554,11.8146],[-5.3218,11.8411],[-5.3044,11.8299],[-5.2869,11.8469],[-5.2661,11.8291],[-5.248,11.8341],[-5.2444,11.8581],[-5.187,11.8923],[-5.1486,11.9442],[-5.0735,11.9774],[-4.9885,11.9792],[-4.9318,12.0002],[-4.8719,11.9964],[-4.8325,12.0148],[-4.8208,12.0017],[-4.736,11.9965],[-4.7016,12.0565],[-4.6307,12.0535],[-4.6284,12.1095],[-4.6075,12.1329],[-4.5434,12.1373],[-4.5809,12.1955],[-4.4716,12.2799],[-4.4749,12.3276],[-4.4408,12.3304],[-4.4153,12.2988],[-4.3967,12.3063],[-4.4407,12.406],[-4.4224,12.4846],[-4.3674,12.53],[-4.4029,12.5551],[-4.4123,12.6044],[-4.4547,12.6201],[-4.4837,12.6542],[-4.4755,12.7151],[-4.5748,12.7367],[-4.6216,12.7226],[-4.6603,12.7442],[-4.6894,12.7945],[-4.7276,12.8065],[-4.7851,12.762],[-4.7822,12.6718],[-4.9434,12.5907],[-4.953,12.6316],[-5.0415,12.6298],[-5.0541,12.5579],[-5.0864,12.5459],[-5.1021,12.5723],[-5.1174,12.7144],[-5.1707,12.773],[-5.2099,12.7933],[-5.2483,12.7444],[-5.2457,12.7059],[-5.2577,12.6798],[-5.361,12.6978],[-5.3798,12.6279],[-5.3856,12.6406],[-5.4234,12.6454],[-5.4389,12.6691],[-5.4936,12.6735],[-5.5171,12.7369],[-5.5669,12.7762],[-5.5868,12.8097],[-5.6114,12.8144],[-5.7437,12.7779],[-5.8317,12.7252],[-5.8932,12.7312],[-5.927,12.7458],[-5.9359,12.7651],[-6.016,12.7618],[-6.0633,12.6689],[-6.2114,12.602],[-6.2599,12.5494],[-6.2439,12.5226],[-6.254,12.4949],[-6.2745,12.5017],[-6.2701,12.4732],[-6.2347,12.436],[-6.2378,12.422],[-6.2669,12.416],[-6.2674,12.3947],[-6.2353,12.4046],[-6.1708,12.3984],[-6.1292,12.3414],[-6.1252,12.3096],[-6.0853,12.3021],[-6.0804,12.289],[-6.0645,12.302],[-6.0441,12.293],[-6.0445,12.3135],[-6.0184,12.3289],[-5.9898,12.3166],[-5.9823,12.2819],[-5.9965,12.2819],[-5.9936,12.2541],[-5.9801,12.232],[-5.9643,12.2321],[-5.9685,12.1619],[-6.1335,12.1543],[-6.1582,12.1258],[-6.1521,12.0799],[-6.1683,12.0668],[-6.1978,12.0676],[-6.2367,12.1088],[-6.3004,12.1069],[-6.3309,12.0853],[-6.3792,12.0231],[-6.3571,11.9251],[-6.4133,11.8471],[-6.4396,11.7746],[-6.4669,11.7529],[-6.4856,11.7094],[-6.4831,11.672],[-6.5011,11.6438],[-6.5524,11.6458],[-6.5418,11.677],[-6.5578,11.6933],[-6.5468,11.7308],[-6.5646,11.7498],[-6.655,11.7736],[-6.6623,11.7872],[-6.6914,11.7893],[-6.7099,11.7684],[-6.728,11.7862],[-6.8413,11.8219],[-6.8713,11.8589],[-6.8973,11.8679],[-6.9473,11.8589],[-6.9493,11.9519],[-6.972,11.9741],[-7.0153,11.9629],[-7.1006,11.9605],[-7.1116,11.9694],[-7.0918,12.015],[-7.1172,12.037],[-7.1532,12.0324],[-7.1641,12.0552],[-7.0977,12.0886],[-7.0955,12.1162],[-7.1289,12.1092],[-7.1386,12.1317],[-7.1079,12.1395],[-7.0711,12.1709],[-7.0761,12.1967],[-7.1201,12.2138],[-7.0885,12.2708],[-7.1174,12.2866],[-7.1324,12.3138],[-7.121,12.3329],[-7.144,12.38],[-7.1242,12.4483],[-7.147,12.4163],[-7.1667,12.4152],[-7.1809,12.398],[-7.1947,12.3547],[-7.2383,12.3529],[-7.2599,12.3401],[-7.2558,12.3277],[-7.2761,12.3244],[-7.2963,12.2529],[-7.3082,12.2587],[-7.3235,12.2244],[-7.3561,12.2216],[-7.3693,12.2017],[-7.4114,12.2014],[-7.4312,12.1922],[-7.4274,12.1787],[-7.4582,12.1786],[-7.4641,12.1613],[-7.502,12.1433],[-7.529,12.0771],[-7.5165,12.0749],[-7.5203,12.029],[-7.5472,11.9944],[-7.596,11.9728],[-7.5902,11.9646],[-7.6105,11.9482],[-7.6891,11.9538],[-7.7236,11.9143],[-7.8623,11.8399],[-7.9372,11.784],[-7.9683,11.7822],[-8.0353,11.7039],[-8.0908,11.6838],[-8.1746,11.6824],[-8.216,11.7106],[-8.2423,11.6835],[-8.333,11.6525],[-8.3966,11.6545],[-8.4566,11.6353],[-8.4426,11.6155],[-8.4729,11.5986],[-8.4749,11.5841],[-8.494,11.5957],[-8.5141,11.5764],[-8.5035,11.5723],[-8.521,11.5536],[-8.5091,11.5339],[-8.5245,11.5122],[-8.5158,11.4933],[-8.531,11.4861]]]}},{"type":"Feature","properties":{"name":"Tombouctou","code":"92416918B34817349162892","iso":"MLI"},"geometry":{"type":"Polygon","coordinates":[[[-0.8885,19.0366],[-1.125,19.0742],[-1.9819,19.7699],[-2.0565,19.9987],[-1.2925,20.3867],[-0.2375,21.2298],[-0.0143,21.9068],[-1.6679,22.9948],[-4.8335,24.9995],[-6.572,24.996],[-6.3417,23.0727],[-5.6085,16.4953],[-5.3334,16.3288],[-5.506,15.5061],[-5.5174,15.4999],[-5.354,15.5513],[-5.2263,15.6749],[-5.1239,15.5915],[-4.9937,15.6042],[-4.9182,15.5939],[-4.9107,15.5831],[-4.8788,15.5985],[-4.8788,15.5893],[-4.6884,15.5783],[-4.5367,15.5891],[-4.4552,15.6272],[-4.4271,15.6924],[-4.3961,15.6951],[-4.3505,15.6498],[-4.2813,15.7274],[-4.2302,15.752],[-4.2138,15.7771],[-4.1859,15.778],[-4.1354,15.8073],[-4.0544,15.8173],[-4.0241,15.7343],[-3.8953,15.6691],[-3.8744,15.6164],[-3.836,15.5749],[-3.8733,15.5301],[-3.8635,15.5056],[-3.658,15.4835],[-3.5974,15.5363],[-3.5707,15.5752],[-3.5613,15.6158],[-3.4824,15.7303],[-3.4248,15.7268],[-3.3684,15.6989],[-3.3341,15.7232],[-3.2967,15.7238],[-3.3008,15.7767],[-3.3237,15.7906],[-3.2741,15.8538],[-3.2963,15.8695],[-3.2944,15.8952],[-3.2759,15.8956],[-3.2456,15.8589],[-3.1914,15.8575],[-3.1866,15.8178],[-3.105,15.8257],[-3.0981,15.8617],[-3.0853,15.8636],[-3.0543,15.833],[-3.0102,15.8961],[-2.9883,15.8924],[-2.9597,15.854],[-2.9219,15.7654],[-2.8502,15.7091],[-2.821,15.6656],[-2.8382,15.5811],[-2.821,15.512],[-2.728,15.4148],[-2.5974,15.3662],[-2.5324,15.3192],[-2.3084,15.2804],[-2.1344,15.2727],[-2.0122,15.3277],[-1.9073,15.3994],[-1.8175,15.4232],[-1.6865,15.4282],[-1.5029,15.3516],[-1.396,15.2888],[-1.3055,15.2602],[-1.2145,15.1762],[-1.161,15.0347],[-1.0773,14.9963],[-0.9751,14.9989],[-0.7014,15.0798],[-0.7393,15.2208],[-0.7022,15.2943],[-0.7075,15.35],[-0.8084,15.3627],[-0.8562,15.3982],[-0.8615,15.459],[-0.7563,15.5631],[-0.7074,15.6864],[-0.6922,15.8185],[-0.7526,15.9531],[-0.8695,16.0772],[-0.904,16.1913],[-0.7579,16.356],[-0.6875,16.7354],[-0.7101,16.8602],[-0.7712,16.9023],[-1.5594,16.9643],[-1.6047,17.012],[-1.583,17.0438],[-1.6095,17.1224],[-1.572,17.187],[-1.4885,17.2617],[-1.4713,17.3377],[-1.5919,17.5976],[-1.5236,17.8786],[-1.1237,17.8903],[-0.9445,18.0005],[-0.8885,19.0366]]]}}]}