{"type":"FeatureCollection","features":[{"type":"Feature","properties":{"name":"Cabo Delgado","code":"27363107B79734749620930","iso":"MOZ"},"geometry":{"type":"MultiPolygon","coordinates":[[[[40.5851,-12.231],[40.5912,-12.2533],[40.6153,-12.2313],[40.6073,-12.1988],[40.5797,-12.1821],[40.5596,-12.1962],[40.5851,-12.231]]],[[[40.6098,-12.5944],[40.5979,-12.6013],[40.6212,-12.6098],[40.6098,-12.5944]]],[[[40.5903,-12.5656],[40.6084,-12.5509],[40.6032,-12.5301],[40.579,-12.5466],[40.5903,-12.5656]]],[[[40.6084,-12.4627],[40.6164,-12.4213],[40.5954,-12.4042],[40.5886,-12.4247],[40.6084,-12.4627]]],[[[40.6,-12.3277],[40.5811,-12.3451],[40.6175,-12.3637],[40.6144,-12.3373],[40.6,-12.3277]]],[[[40.6531,-11.1854],[40.6972,-11.1652],[40.6932,-11.1478],[40.6723,-11.1489],[40.6531,-11.1854]]],[[[40.6644,-10.8667],[40.6836,-10.8476],[40.6557,-10.8292],[40.6672,-10.8587],[40.6523,-10.8445],[40.6436,-10.8795],[40.6644,-10.8667]]],[[[38.4668,-11.4188],[38.4548,-11.4679],[38.4189,-11.514],[38.3841,-11.691],[38.3903,-11.7544],[38.4396,-11.8222],[38.4432,-11.8877],[38.4633,-11.9409],[38.4272,-11.9821],[38.3609,-12.023],[38.3304,-12.1101],[38.235,-12.2068],[38.1913,-12.3583],[38.0637,-12.4939],[38.0746,-12.561],[38.0527,-12.645],[38.0619,-12.71],[38.0172,-12.8111],[38.0055,-12.972],[37.9817,-13.0839],[38.0506,-13.1081],[38.0638,-13.1254],[38.1326,-13.1435],[38.1625,-13.1234],[38.2213,-13.1123],[38.1666,-13.2716],[38.1011,-13.3515],[38.0599,-13.3774],[38.0466,-13.4312],[38.0654,-13.4891],[38.1033,-13.4663],[38.1114,-13.482],[38.1389,-13.6355],[38.1644,-13.6647],[38.1664,-13.7344],[38.2156,-13.8424],[38.2718,-13.9164],[38.2775,-13.9471],[38.3165,-14.0036],[38.4151,-14.1278],[38.4683,-14.1196],[38.5386,-14.1576],[38.711,-14.1539],[38.779,-14.1151],[38.8489,-14.1024],[38.9954,-14.0216],[39.04,-14.0172],[39.0585,-13.9694],[39.1084,-13.9409],[39.206,-13.9514],[39.2373,-13.9441],[39.2736,-13.9039],[39.4353,-13.8526],[39.503,-13.7719],[39.672,-13.7241],[39.7289,-13.6889],[39.8538,-13.6829],[39.9563,-13.5721],[40.054,-13.5026],[40.1624,-13.4583],[40.2174,-13.4873],[40.3178,-13.474],[40.3583,-13.4547],[40.4135,-13.455],[40.4494,-13.4737],[40.4525,-13.504],[40.4699,-13.5199],[40.5264,-13.5135],[40.5401,-13.4397],[40.5758,-13.4008],[40.584,-13.3624],[40.56,-13.289],[40.561,-13.1489],[40.5501,-13.0996],[40.5874,-12.9722],[40.5711,-12.9605],[40.5415,-12.9718],[40.4986,-12.951],[40.4807,-12.9635],[40.5129,-12.9837],[40.5057,-13.0325],[40.4405,-13.0298],[40.4034,-12.9493],[40.4114,-12.9231],[40.4667,-12.8814],[40.5002,-12.8869],[40.5111,-12.9287],[40.5431,-12.8584],[40.5404,-12.8361],[40.5629,-12.8258],[40.5598,-12.8054],[40.5717,-12.8022],[40.5803,-12.8164],[40.6102,-12.8028],[40.6299,-12.7466],[40.6151,-12.7645],[40.6141,-12.7482],[40.602,-12.7567],[40.6123,-12.7183],[40.5974,-12.7047],[40.5782,-12.7166],[40.5686,-12.6911],[40.5775,-12.6477],[40.6146,-12.6719],[40.6183,-12.6586],[40.6058,-12.6364],[40.5858,-12.6423],[40.5704,-12.6299],[40.5497,-12.5857],[40.5692,-12.5316],[40.4981,-12.5327],[40.4731,-12.5028],[40.4998,-12.4263],[40.5142,-12.4245],[40.5158,-12.3972],[40.4516,-12.4056],[40.4592,-12.3795],[40.4845,-12.3943],[40.4849,-12.3705],[40.5141,-12.3273],[40.4879,-12.2755],[40.5092,-12.2297],[40.5016,-12.2155],[40.5159,-12.2046],[40.4881,-12.1415],[40.5118,-12.0908],[40.5017,-12.0403],[40.5195,-12.0149],[40.5526,-11.9987],[40.5258,-11.9916],[40.4953,-11.9587],[40.4832,-11.8919],[40.515,-11.8541],[40.4707,-11.8315],[40.4603,-11.8116],[40.4653,-11.7434],[40.4458,-11.743],[40.4352,-11.726],[40.4446,-11.6571],[40.428,-11.6442],[40.4611,-11.6117],[40.4267,-11.5855],[40.4178,-11.5554],[40.452,-11.528],[40.4373,-11.5055],[40.4557,-11.4873],[40.4558,-11.4468],[40.4753,-11.4088],[40.4142,-11.3875],[40.389,-11.3518],[40.3705,-11.3557],[40.3596,-11.3307],[40.3738,-11.319],[40.3804,-11.3299],[40.4044,-11.3052],[40.4321,-11.2332],[40.5084,-11.1971],[40.4927,-11.1826],[40.49,-11.1496],[40.5584,-11.0643],[40.5644,-11.0292],[40.5038,-11.0079],[40.5024,-11.0166],[40.5001,-10.998],[40.483,-11.0028],[40.4943,-10.9434],[40.5125,-10.9147],[40.5898,-10.8656],[40.6176,-10.8317],[40.5703,-10.8184],[40.4968,-10.7748],[40.4906,-10.7916],[40.483,-10.7796],[40.4976,-10.7377],[40.5699,-10.692],[40.6289,-10.7058],[40.6395,-10.6926],[40.6259,-10.6726],[40.5726,-10.6567],[40.5693,-10.6204],[40.5841,-10.6022],[40.5339,-10.5774],[40.5304,-10.5512],[40.5456,-10.5396],[40.5331,-10.4921],[40.5194,-10.4807],[40.4236,-10.478],[40.3573,-10.5617],[40.3385,-10.5714],[40.2948,-10.5666],[40.2332,-10.5962],[40.1996,-10.6421],[40.1817,-10.6466],[40.1733,-10.6706],[40.1344,-10.6899],[40.0779,-10.7513],[40.0554,-10.7544],[39.9991,-10.8069],[39.8651,-10.8497],[39.8063,-10.8965],[39.7636,-10.914],[39.5985,-10.95],[39.5231,-10.981],[39.4379,-11.0484],[39.3483,-11.0872],[39.2467,-11.1751],[39.1242,-11.1434],[39.0097,-11.1705],[38.883,-11.1718],[38.8496,-11.2084],[38.7692,-11.2485],[38.7524,-11.2732],[38.7067,-11.2652],[38.6364,-11.2861],[38.5758,-11.3491],[38.5282,-11.3711],[38.4892,-11.4167],[38.4668,-11.4188]]],[[[40.5879,-11.9753],[40.5685,-11.9738],[40.5786,-12.0022],[40.5879,-11.9753]]],[[[40.699,-11.0053],[40.6446,-11.0325],[40.5972,-11.0249],[40.6452,-11.0432],[40.711,-11.0195],[40.7162,-11.0029],[40.699,-11.0053]]],[[[40.5932,-11.179],[40.583,-11.1758],[40.6148,-11.1965],[40.6452,-11.1907],[40.5932,-11.179]]],[[[40.6495,-10.7909],[40.653,-10.8014],[40.6571,-10.7718],[40.6313,-10.7714],[40.6495,-10.7909]]]]}},{"type":"Feature","properties":{"name":"Nampula","code":"27363107B75878915981920","iso":"MOZ"},"geometry":{"type":"MultiPolygon","coordinates":[[[[38.4151,-14.1278],[38.3538,-14.1573],[38.2811,-14.1573],[38.1618,-14.2295],[38.0155,-14.2643],[37.9398,-14.3089],[37.8861,-14.2865],[37.8769,-14.2624],[37.8405,-14.2361],[37.8095,-14.2361],[37.7519,-14.2807],[37.6341,-14.2851],[37.6115,-14.3572],[37.5747,-14.3894],[37.4876,-14.3929],[37.4793,-14.4099],[37.442,-14.4296],[37.4376,-14.4559],[37.403,-14.5009],[37.3584,-14.5317],[37.2382,-14.5993],[37.1599,-14.6105],[37.0389,-14.6841],[36.9984,-14.6901],[36.9659,-14.7266],[36.8668,-14.793],[36.8104,-14.9063],[36.7706,-14.9547],[36.7266,-14.9774],[36.7246,-14.9966],[37.2122,-15.0104],[37.315,-15.1373],[37.3106,-15.152],[37.3598,-15.2156],[37.4713,-15.1732],[37.4923,-15.146],[37.5332,-15.1354],[37.6201,-15.2116],[37.6974,-15.2395],[37.7378,-15.213],[37.772,-15.2158],[37.8089,-15.2001],[37.8798,-15.233],[37.9378,-15.2274],[37.971,-15.2507],[37.9955,-15.2881],[38.0455,-15.3023],[38.141,-15.3648],[38.2056,-15.4437],[38.2774,-15.4758],[38.3359,-15.4535],[38.4545,-15.5533],[38.5277,-15.5864],[38.5411,-15.6326],[38.5685,-15.6568],[38.6743,-15.6828],[38.6813,-15.7047],[38.7742,-15.7793],[38.8705,-15.9552],[38.8655,-15.9988],[38.9318,-16.0826],[38.9393,-16.1146],[38.9253,-16.1735],[38.9433,-16.2504],[39.0491,-16.4835],[39.0511,-16.5229],[38.9931,-16.5483],[38.9766,-16.6219],[38.9955,-16.6497],[39.0303,-16.6596],[39.0682,-16.7257],[39.0765,-16.7649],[39.1276,-16.8077],[39.142,-16.8326],[39.1283,-16.8535],[39.149,-16.8846],[39.1768,-16.8512],[39.2676,-16.7874],[39.4736,-16.683],[39.5349,-16.6454],[39.5497,-16.6207],[39.6101,-16.5952],[39.7888,-16.4865],[39.8046,-16.4637],[39.9101,-16.4095],[39.9067,-16.3685],[39.9512,-16.304],[39.9316,-16.3051],[39.9056,-16.2686],[39.8241,-16.298],[39.8072,-16.2764],[39.8555,-16.2639],[39.8698,-16.2398],[39.8835,-16.248],[39.8934,-16.2181],[39.9065,-16.2456],[39.9631,-16.2417],[40.0285,-16.1897],[40.0498,-16.13],[40.1044,-16.0764],[40.1071,-16.0435],[40.1357,-16.0013],[40.1354,-15.9711],[40.1707,-15.9194],[40.3498,-15.7464],[40.427,-15.6177],[40.5064,-15.5601],[40.5655,-15.4963],[40.5893,-15.3972],[40.6327,-15.3513],[40.6344,-15.3285],[40.677,-15.265],[40.6568,-15.1845],[40.6192,-15.1464],[40.5852,-15.1645],[40.596,-15.1831],[40.5671,-15.2028],[40.5233,-15.192],[40.5161,-15.1595],[40.5269,-15.1273],[40.5622,-15.1253],[40.5811,-15.1428],[40.6249,-15.0905],[40.7087,-15.0816],[40.6952,-15.0333],[40.6742,-15.0251],[40.657,-14.9903],[40.637,-14.9894],[40.6492,-14.9773],[40.6425,-14.9681],[40.6641,-14.9692],[40.6783,-14.9893],[40.7206,-14.9934],[40.7494,-14.9826],[40.7459,-15.0005],[40.7653,-15.0025],[40.7655,-15.015],[40.7715,-15.008],[40.7385,-14.9357],[40.6748,-14.9337],[40.6469,-14.907],[40.7541,-14.8732],[40.7718,-14.8513],[40.8063,-14.8462],[40.8194,-14.8265],[40.8307,-14.8382],[40.8337,-14.8042],[40.8288,-14.8162],[40.8164,-14.8014],[40.8289,-14.768],[40.8358,-14.7799],[40.837,-14.6824],[40.7987,-14.6278],[40.8326,-14.5527],[40.8212,-14.5298],[40.8016,-14.5262],[40.7886,-14.5604],[40.7598,-14.555],[40.7853,-14.5261],[40.8255,-14.5197],[40.8253,-14.4534],[40.8045,-14.4095],[40.6752,-14.4587],[40.6826,-14.4811],[40.6706,-14.5008],[40.6722,-14.5558],[40.6235,-14.5933],[40.6254,-14.5535],[40.646,-14.5256],[40.62,-14.52],[40.6596,-14.4793],[40.6351,-14.4915],[40.6233,-14.4636],[40.6699,-14.4681],[40.6435,-14.4415],[40.6381,-14.411],[40.6492,-14.3867],[40.6209,-14.3303],[40.6394,-14.3302],[40.6772,-14.3833],[40.7341,-14.3328],[40.7387,-14.2754],[40.7145,-14.2552],[40.7186,-14.2072],[40.7045,-14.189],[40.681,-14.2028],[40.6654,-14.1924],[40.6382,-14.2177],[40.6209,-14.2171],[40.615,-14.267],[40.5989,-14.2765],[40.6012,-14.2549],[40.586,-14.2372],[40.5971,-14.2207],[40.5857,-14.2061],[40.5695,-14.2119],[40.5734,-14.2309],[40.5587,-14.2241],[40.5571,-14.2392],[40.5456,-14.2299],[40.5572,-14.2193],[40.5271,-14.1796],[40.5383,-14.1558],[40.61,-14.1426],[40.6078,-14.108],[40.5858,-14.0951],[40.6271,-14.0816],[40.6381,-14.0259],[40.622,-13.9984],[40.5923,-14.0086],[40.5755,-13.9964],[40.5865,-13.9762],[40.6227,-13.9808],[40.6159,-13.9281],[40.5876,-13.8863],[40.573,-13.7146],[40.5428,-13.6904],[40.5351,-13.6385],[40.5622,-13.5949],[40.5932,-13.581],[40.5992,-13.5535],[40.576,-13.5701],[40.5416,-13.5451],[40.5264,-13.5135],[40.4592,-13.5142],[40.4494,-13.4737],[40.4205,-13.4564],[40.3583,-13.4547],[40.3178,-13.474],[40.2174,-13.4873],[40.1624,-13.4583],[40.054,-13.5026],[39.9563,-13.5721],[39.8538,-13.6829],[39.7289,-13.6889],[39.672,-13.7241],[39.503,-13.7719],[39.4353,-13.8526],[39.2736,-13.9039],[39.2373,-13.9441],[39.206,-13.9514],[39.1084,-13.9409],[39.0585,-13.9694],[39.04,-14.0172],[38.9954,-14.0216],[38.8489,-14.1024],[38.779,-14.1151],[38.711,-14.1539],[38.5386,-14.1576],[38.4683,-14.1196],[38.4151,-14.1278]]],[[[40.823,-14.854],[40.8107,-14.8493],[40.8246,-14.8571],[40.8174,-14.8731],[40.8291,-14.8486],[40.823,-14.854]]]]}},{"type":"Feature","properties":{"name":"Niassa","code":"27363107B36451567951769","iso":"MOZ"},"geometry":{"type":"Polygon","coordinates":[[[38.4668,-11.4188],[38.4309,-11.3919],[38.3687,-11.3737],[38.3336,-11.3314],[38.2841,-11.3287],[38.2688,-11.2894],[38.2157,-11.2712],[38.1859,-11.2774],[38.1117,-11.2606],[38.0588,-11.2776],[38.0184,-11.2754],[38.0046,-11.2616],[37.9638,-11.2716],[37.9371,-11.2589],[37.8303,-11.3112],[37.8275,-11.3723],[37.7881,-11.4229],[37.7773,-11.4573],[37.7866,-11.5064],[37.7528,-11.5468],[37.6569,-11.5755],[37.6088,-11.6174],[37.5814,-11.6262],[37.5009,-11.6144],[37.4426,-11.6384],[37.4149,-11.6854],[37.3818,-11.6917],[37.3323,-11.678],[37.3008,-11.6412],[37.2697,-11.6343],[37.2196,-11.6553],[37.1575,-11.6316],[37.08,-11.6251],[37.0283,-11.5861],[36.9855,-11.58],[36.925,-11.605],[36.9034,-11.6032],[36.8897,-11.5869],[36.8675,-11.5954],[36.8363,-11.584],[36.8141,-11.5505],[36.7679,-11.6486],[36.6272,-11.7378],[36.5733,-11.6985],[36.5193,-11.7613],[36.5029,-11.7438],[36.5177,-11.6983],[36.4918,-11.681],[36.4011,-11.6896],[36.3868,-11.6785],[36.3558,-11.7131],[36.3274,-11.7071],[36.307,-11.7197],[36.2855,-11.7196],[36.2702,-11.6904],[36.2159,-11.7077],[36.1832,-11.6709],[36.1869,-11.6009],[36.1998,-11.5821],[36.1754,-11.5668],[36.1834,-11.548],[36.1541,-11.5704],[36.131,-11.554],[36.12,-11.5128],[36.1006,-11.5319],[36.0629,-11.5406],[36.0422,-11.4945],[36.0083,-11.4869],[35.9855,-11.4577],[35.9579,-11.4656],[35.9438,-11.4229],[35.9313,-11.4388],[35.9135,-11.4382],[35.8827,-11.4251],[35.8558,-11.4291],[35.8434,-11.4112],[35.8109,-11.4198],[35.8148,-11.4295],[35.7917,-11.4409],[35.7746,-11.4707],[35.7685,-11.4603],[35.7696,-11.4718],[35.7116,-11.4775],[35.7035,-11.4963],[35.7115,-11.5067],[35.6448,-11.5629],[35.5746,-11.5488],[35.5501,-11.5697],[35.5281,-11.5587],[35.5278,-11.5762],[35.5152,-11.5822],[35.5023,-11.5612],[35.4779,-11.5596],[35.4784,-11.5765],[35.4466,-11.5731],[35.4419,-11.5842],[35.4201,-11.5819],[35.4154,-11.5621],[35.4113,-11.5773],[35.3874,-11.5851],[35.3759,-11.5718],[35.3423,-11.5689],[34.6369,-11.5736],[34.6344,-11.7392],[34.5908,-11.856],[34.4839,-11.9724],[34.3782,-12.1717],[34.4173,-12.2654],[34.4557,-12.5708],[34.5206,-12.6823],[34.535,-12.7364],[34.5324,-12.9074],[34.5761,-13.2322],[34.5615,-13.3482],[34.6072,-13.4831],[34.8669,-13.4831],[35.0896,-13.6993],[35.2274,-13.881],[35.4868,-14.1707],[35.5206,-14.2592],[35.8721,-14.6756],[35.8721,-14.8954],[35.9186,-14.8954],[35.7901,-15.17],[35.8514,-15.446],[36.1859,-15.4493],[36.2797,-15.5005],[36.3138,-15.4762],[36.2948,-15.4616],[36.3144,-15.4499],[36.3261,-15.4215],[36.3194,-15.3831],[36.3378,-15.3634],[36.3445,-15.33],[36.3635,-15.3192],[36.4112,-15.2453],[36.445,-15.2369],[36.5122,-15.2628],[36.5878,-15.2193],[36.5939,-15.1944],[36.6596,-15.1518],[36.7266,-14.9774],[36.7706,-14.9547],[36.8104,-14.9063],[36.8668,-14.793],[36.9659,-14.7266],[36.9984,-14.6901],[37.0389,-14.6841],[37.1599,-14.6105],[37.2382,-14.5993],[37.3584,-14.5317],[37.403,-14.5009],[37.4376,-14.4559],[37.442,-14.4296],[37.4793,-14.4099],[37.4876,-14.3929],[37.5747,-14.3894],[37.6115,-14.3572],[37.6341,-14.2851],[37.7519,-14.2807],[37.8095,-14.2361],[37.8405,-14.2361],[37.8769,-14.2624],[37.8861,-14.2865],[37.9398,-14.3089],[38.0155,-14.2643],[38.1618,-14.2295],[38.2811,-14.1573],[38.3538,-14.1573],[38.4151,-14.1278],[38.3165,-14.0036],[38.2775,-13.9471],[38.2718,-13.9164],[38.2156,-13.8424],[38.1664,-13.7344],[38.1644,-13.6647],[38.1389,-13.6355],[38.1114,-13.482],[38.1033,-13.4663],[38.0654,-13.4891],[38.0466,-13.4312],[38.0599,-13.3774],[38.1011,-13.3515],[38.1666,-13.2716],[38.2213,-13.1123],[38.1625,-13.1234],[38.1326,-13.1435],[38.0638,-13.1254],[38.0506,-13.1081],[37.9817,-13.0839],[38.0055,-12.972],[38.0172,-12.8111],[38.0619,-12.71],[38.0527,-12.645],[38.0746,-12.561],[38.0637,-12.4939],[38.1913,-12.3583],[38.235,-12.2068],[38.3304,-12.1101],[38.3609,-12.023],[38.4272,-11.9821],[38.4633,-11.9409],[38.4432,-11.8877],[38.4396,-11.8222],[38.3903,-11.7544],[38.3841,-11.691],[38.4189,-11.514],[38.4548,-11.4679],[38.4668,-11.4188]]]}},{"type":"Feature","properties":{"name":"Gaza","code":"27363107B41711230736845","iso":"MOZ"},"geometry":{"type":"Polygon","coordinates":[[[32.48,-21.3281],[32.4527,-21.3109],[32.4056,-21.3154],[31.5745,-22.1819],[31.3815,-22.3718],[31.3074,-22.4241],[31.5636,-23.1982],[31.5507,-23.4103],[31.561,-23.482],[31.69,-23.6255],[31.6974,-23.7219],[31.7678,-23.8849],[31.8806,-23.9525],[31.9082,-24.1818],[31.963,-24.2685],[32.0477,-24.2085],[32.087,-24.2115],[32.2334,-24.2432],[32.3152,-24.2781],[32.3537,-24.2699],[32.4243,-24.2914],[32.4906,-24.3583],[32.5313,-24.3765],[32.5735,-24.3884],[32.6483,-24.38],[32.7039,-24.3979],[32.7212,-24.4657],[32.7104,-24.4966],[32.7307,-24.5544],[32.8095,-24.6425],[32.8555,-24.7429],[32.9367,-24.7761],[32.9142,-24.8667],[32.9385,-24.9027],[32.9197,-24.9394],[32.9267,-25.0539],[32.9835,-25.0574],[32.9968,-25.073],[33.0018,-25.2015],[33.1042,-25.2156],[33.1264,-25.2431],[33.1402,-25.2769],[33.1388,-25.3796],[33.3622,-25.2682],[33.7307,-25.1184],[34.4849,-24.8605],[34.4493,-24.8031],[34.3237,-24.7858],[34.2976,-24.7107],[34.4665,-24.6215],[34.378,-24.5296],[34.4249,-24.4599],[34.3046,-24.484],[34.1407,-24.5386],[34.0034,-24.3327],[33.9924,-24.0864],[33.948,-24.0764],[33.9252,-24.087],[33.9121,-24.0317],[33.9351,-23.9486],[33.9247,-23.7898],[33.955,-23.6733],[33.9088,-23.6409],[33.937,-23.6034],[33.9496,-23.5313],[33.931,-23.4944],[33.8934,-23.4991],[33.8446,-23.3749],[33.9215,-23.3629],[33.8763,-23.3254],[33.8462,-23.2062],[33.7953,-23.1211],[33.7454,-23.0959],[33.7396,-23.0768],[33.6835,-23.0244],[33.6858,-22.9888],[33.6111,-22.8769],[33.5729,-22.8393],[33.4732,-22.79],[33.3446,-22.6369],[33.2986,-22.5493],[33.3189,-22.3991],[33.3287,-22.3786],[33.3662,-22.3741],[33.3474,-22.2398],[33.3761,-22.1178],[33.3061,-21.9871],[33.264,-21.9542],[33.1542,-21.8099],[33.1657,-21.779],[33.148,-21.7028],[33.1801,-21.6367],[33.2554,-21.5672],[33.266,-21.5156],[33.25,-21.5274],[33.2337,-21.494],[33.1677,-21.5011],[33.0548,-21.5917],[32.9938,-21.5727],[32.9447,-21.4969],[32.8066,-21.4977],[32.6685,-21.4001],[32.5374,-21.3831],[32.48,-21.3281]]]}},{"type":"Feature","properties":{"name":"Inhambane","code":"27363107B61969177237563","iso":"MOZ"},"geometry":{"type":"MultiPolygon","coordinates":[[[[35.5219,-22.1579],[35.5304,-22.1608],[35.5267,-22.1338],[35.5219,-22.1579]]],[[[35.4269,-23.8126],[35.4189,-23.8064],[35.4262,-23.822],[35.4269,-23.8126]]],[[[34.4849,-24.8605],[34.8224,-24.7446],[35.0213,-24.6585],[35.1505,-24.5803],[35.2029,-24.5218],[35.201,-24.4985],[35.2253,-24.4621],[35.4694,-24.1688],[35.5002,-24.1057],[35.502,-23.9858],[35.5551,-23.867],[35.5374,-23.8357],[35.5381,-23.7925],[35.4761,-23.7778],[35.5147,-23.798],[35.5067,-23.8074],[35.4891,-23.7961],[35.4948,-23.8467],[35.468,-23.8548],[35.4748,-23.88],[35.45,-23.8735],[35.4389,-23.8438],[35.4269,-23.8445],[35.4464,-23.8641],[35.4385,-23.8676],[35.3893,-23.8343],[35.3985,-23.8666],[35.378,-23.8617],[35.3934,-23.9167],[35.3291,-24.0057],[35.3228,-23.9529],[35.3455,-23.9112],[35.3367,-23.8847],[35.3507,-23.8643],[35.3495,-23.8122],[35.3776,-23.6976],[35.3689,-23.6876],[35.3379,-23.6972],[35.3372,-23.688],[35.3521,-23.6728],[35.3954,-23.675],[35.3953,-23.7339],[35.4065,-23.7346],[35.4325,-23.6542],[35.421,-23.602],[35.4252,-23.499],[35.4945,-23.2929],[35.4858,-23.1767],[35.5115,-23.0967],[35.5906,-22.9725],[35.6033,-22.926],[35.5541,-22.9007],[35.5871,-22.938],[35.553,-22.9244],[35.5377,-22.9401],[35.5505,-22.9221],[35.5219,-22.8509],[35.5438,-22.8928],[35.5201,-22.8429],[35.5132,-22.7871],[35.5029,-22.5925],[35.5399,-22.427],[35.544,-22.3247],[35.5288,-22.2507],[35.547,-22.1368],[35.5225,-22.239],[35.4919,-22.1143],[35.475,-22.0973],[35.4607,-22.0983],[35.4436,-22.1239],[35.4492,-22.1535],[35.4138,-22.176],[35.4169,-22.1986],[35.404,-22.1995],[35.3988,-22.2162],[35.3849,-22.2092],[35.3727,-22.2341],[35.3729,-22.2126],[35.3459,-22.1855],[35.333,-22.1423],[35.3239,-21.9836],[35.3122,-21.9709],[35.3215,-21.9124],[35.2843,-21.8173],[35.2845,-21.7341],[35.2685,-21.7085],[35.2727,-21.6415],[35.2508,-21.585],[35.2113,-21.545],[35.1333,-21.4082],[35.112,-21.3326],[35.1147,-21.2574],[35.083,-21.3113],[35.0671,-21.27],[35.0835,-21.2565],[35.0512,-21.2509],[35.0824,-21.2361],[35.096,-21.2427],[35.1023,-21.1868],[35.1029,-21.2096],[35.0952,-21.1996],[35.0841,-21.2135],[35.0702,-21.1931],[35.0781,-21.1843],[35.0523,-21.1634],[35.0653,-21.1502],[35.0622,-21.1283],[35.0437,-21.1309],[35.0206,-21.1055],[35.0333,-21.082],[35.051,-21.0903],[35.0734,-21.0778],[35.0864,-21.0881],[35.0922,-21.0568],[35.077,-21.0222],[35.1012,-21.0212],[35.1025,-21.036],[35.127,-20.9607],[35.1116,-20.9621],[35.1121,-20.9501],[35.1286,-20.9449],[35.1051,-20.9003],[34.8155,-21.0642],[34.7492,-21.1329],[34.6572,-21.0865],[34.5865,-21.1304],[34.4455,-21.1736],[34.3302,-21.3178],[34.2529,-21.2726],[34.2247,-21.2726],[34.2106,-21.2957],[34.1481,-21.3261],[34.1311,-21.3066],[34.0893,-21.2933],[33.9835,-21.32],[33.9612,-21.3084],[33.9436,-21.3298],[33.9465,-21.3537],[33.9142,-21.3936],[33.8613,-21.419],[33.8222,-21.3912],[33.7399,-21.415],[33.6706,-21.398],[33.5379,-21.3922],[33.5065,-21.401],[33.3848,-21.4811],[33.266,-21.5156],[33.2554,-21.5672],[33.1801,-21.6367],[33.148,-21.7028],[33.1657,-21.779],[33.1542,-21.8099],[33.264,-21.9542],[33.3061,-21.9871],[33.3761,-22.1178],[33.3474,-22.2398],[33.3662,-22.3741],[33.3287,-22.3786],[33.3189,-22.3991],[33.2986,-22.5493],[33.3446,-22.6369],[33.4732,-22.79],[33.5729,-22.8393],[33.6111,-22.8769],[33.6858,-22.9888],[33.6835,-23.0244],[33.7396,-23.0768],[33.7454,-23.0959],[33.7953,-23.1211],[33.8462,-23.2062],[33.8763,-23.3254],[33.9215,-23.3629],[33.8446,-23.3749],[33.8934,-23.4991],[33.931,-23.4944],[33.9496,-23.5313],[33.937,-23.6034],[33.9088,-23.6409],[33.955,-23.6733],[33.9247,-23.7898],[33.9351,-23.9486],[33.9121,-24.0317],[33.9252,-24.087],[33.948,-24.0764],[33.9924,-24.0864],[34.0034,-24.3327],[34.1407,-24.5386],[34.3046,-24.484],[34.4249,-24.4599],[34.378,-24.5296],[34.4665,-24.6215],[34.3187,-24.6947],[34.2992,-24.722],[34.3237,-24.7858],[34.4493,-24.8031],[34.4849,-24.8605]]],[[[35.4205,-21.9796],[35.4349,-21.9793],[35.4329,-21.9606],[35.4205,-21.9796]]],[[[35.4241,-21.8864],[35.4263,-21.9043],[35.4461,-21.9127],[35.4654,-21.8087],[35.4572,-21.8449],[35.412,-21.8633],[35.4241,-21.8864]]],[[[35.4606,-21.7458],[35.4961,-21.6484],[35.4869,-21.6288],[35.4973,-21.5635],[35.4837,-21.5159],[35.4477,-21.5035],[35.4796,-21.5239],[35.4614,-21.5648],[35.4644,-21.6277],[35.4319,-21.658],[35.4469,-21.7049],[35.4251,-21.7261],[35.4544,-21.7941],[35.466,-21.7797],[35.4606,-21.7458]]]]}},{"type":"Feature","properties":{"name":"Manica","code":"27363107B35306436132920","iso":"MOZ"},"geometry":{"type":"Polygon","coordinates":[[[33.266,-21.5156],[33.3848,-21.4811],[33.5065,-21.401],[33.5379,-21.3922],[33.6706,-21.398],[33.7399,-21.415],[33.8222,-21.3912],[33.8613,-21.419],[33.9142,-21.3936],[33.9465,-21.3537],[33.9436,-21.3298],[33.9612,-21.3084],[33.9835,-21.32],[34.0324,-21.2313],[34.038,-21.1742],[34.109,-21.1085],[34.1172,-21.0696],[34.0677,-21.0094],[34.0018,-20.9781],[33.8871,-20.9699],[33.8921,-20.7129],[33.7452,-20.6726],[33.4913,-20.4236],[33.4891,-20.3427],[33.515,-20.2761],[33.4968,-20.2592],[33.4398,-20.035],[33.4662,-20.0363],[33.4914,-20.0017],[33.5821,-19.9545],[33.6735,-19.9376],[33.705,-19.9866],[33.7516,-19.9987],[33.8966,-19.9016],[33.9229,-19.8686],[34.0058,-19.8366],[33.9251,-19.7997],[33.9123,-19.7779],[33.87,-19.7813],[33.889,-19.6769],[33.8557,-19.6417],[33.8474,-19.5827],[33.9,-19.5849],[33.9298,-19.5467],[33.9755,-19.1368],[34.0044,-19.0736],[34.0206,-18.9778],[34.0113,-18.9399],[33.9267,-18.8855],[33.8997,-18.8315],[33.8178,-18.7923],[33.7865,-18.7388],[33.7604,-18.7291],[33.7156,-18.6834],[33.7519,-18.6094],[33.8095,-18.5333],[33.8553,-18.5083],[33.8676,-18.4628],[33.8278,-18.3931],[33.834,-18.3245],[33.808,-18.2898],[33.9208,-18.1899],[33.9337,-18.1561],[33.9977,-18.1701],[34.0165,-18.1622],[34.0562,-18.2359],[34.0892,-18.2606],[34.1176,-18.2574],[34.1622,-18.2085],[34.2555,-18.22],[34.2726,-18.1928],[34.2663,-18.1167],[34.2904,-18.0087],[34.278,-17.9307],[34.2464,-17.8989],[34.1998,-17.8874],[34.1442,-17.852],[34.1425,-17.8234],[34.1633,-17.7782],[34.1611,-17.6958],[34.1229,-17.5916],[34.1497,-17.5533],[34.1582,-17.5048],[34.1878,-17.4737],[34.171,-17.4491],[34.1722,-17.4108],[34.2417,-17.1425],[34.2956,-17.0541],[34.4717,-16.9912],[34.5221,-16.9306],[34.5732,-16.8242],[34.3815,-16.7321],[34.1864,-16.6807],[34.1243,-16.6289],[34.0451,-16.6373],[34.0098,-16.6259],[33.9807,-16.5863],[33.9493,-16.5807],[33.9023,-16.5376],[33.7999,-16.4101],[33.7482,-16.4118],[33.7123,-16.4306],[33.5374,-16.4376],[33.4977,-16.4758],[33.4675,-16.487],[33.4541,-16.5231],[33.4339,-16.529],[33.4459,-16.5838],[33.392,-16.6405],[33.3956,-16.6586],[33.3683,-16.6935],[33.3305,-16.7045],[33.3132,-16.7456],[33.3223,-16.7948],[33.263,-16.9004],[33.2238,-17.002],[33.1242,-17.0591],[33.0881,-17.1531],[33.083,-17.2366],[33.0513,-17.2619],[33.0424,-17.2861],[33.0517,-17.3475],[33.0044,-17.3987],[33.011,-17.4198],[33.0001,-17.4537],[32.9654,-17.4799],[32.9836,-17.5595],[33.0297,-17.576],[33.0541,-17.6048],[33.0157,-17.6886],[33.0291,-17.7222],[33.0114,-17.7192],[33.0073,-17.7315],[33.0163,-17.7535],[33.0296,-17.7483],[33.0167,-17.7668],[33.0224,-17.7825],[33.0115,-17.7854],[33.0183,-17.8028],[32.9746,-17.7984],[32.9606,-17.8149],[32.9681,-17.845],[32.9511,-17.8816],[32.953,-17.9132],[32.9834,-17.918],[32.973,-17.9197],[32.9683,-17.9624],[32.952,-17.9614],[32.9376,-17.9849],[32.9557,-18],[32.936,-18.0326],[32.9509,-18.0294],[32.9578,-18.0841],[32.9821,-18.1121],[32.9722,-18.1368],[32.9822,-18.1564],[32.9991,-18.1595],[33.0031,-18.2011],[33.0217,-18.2286],[33.0162,-18.2985],[33.0354,-18.3208],[33.0551,-18.3191],[33.0517,-18.3334],[33.0683,-18.3487],[33.0578,-18.3824],[33.0403,-18.3822],[33.0186,-18.4211],[33.0205,-18.4976],[32.9846,-18.5034],[32.9789,-18.4733],[32.887,-18.5144],[32.8956,-18.5578],[32.8859,-18.5791],[32.9541,-18.6902],[32.9278,-18.7663],[32.8924,-18.7963],[32.8137,-18.7813],[32.7119,-18.8336],[32.7047,-18.8568],[32.7351,-18.9279],[32.6989,-18.9388],[32.7137,-19.0251],[32.8335,-19.0164],[32.8774,-19.0979],[32.8488,-19.2337],[32.8498,-19.2936],[32.7764,-19.3613],[32.7857,-19.3867],[32.7772,-19.4599],[32.7958,-19.4749],[32.8366,-19.473],[32.8454,-19.4836],[32.8409,-19.5141],[32.8586,-19.5464],[32.8459,-19.6068],[32.8574,-19.6185],[32.8344,-19.6735],[32.851,-19.6852],[32.8921,-19.6841],[32.9756,-19.6513],[32.985,-19.6733],[32.9587,-19.7231],[33.0628,-19.7768],[33.0296,-19.9243],[33.0288,-20.0346],[32.9987,-20.0278],[32.9495,-20.0386],[32.9417,-20.0566],[32.9506,-20.0768],[32.9236,-20.1267],[32.8671,-20.1244],[32.8628,-20.155],[32.8755,-20.1873],[32.8478,-20.1956],[32.8464,-20.2219],[32.8715,-20.2346],[32.864,-20.2871],[32.8078,-20.3392],[32.8007,-20.3714],[32.6681,-20.5562],[32.5671,-20.5609],[32.492,-20.6185],[32.4856,-20.6745],[32.5168,-20.9144],[32.4684,-21.0118],[32.3667,-21.1367],[32.4058,-21.1699],[32.3993,-21.2066],[32.48,-21.3281],[32.5374,-21.3831],[32.6685,-21.4001],[32.8066,-21.4977],[32.9447,-21.4969],[32.9938,-21.5727],[33.0548,-21.5917],[33.1677,-21.5011],[33.2337,-21.494],[33.25,-21.5274],[33.266,-21.5156]]]}},{"type":"Feature","properties":{"name":"Maputo","code":"27363107B47421408423272","iso":"MOZ"},"geometry":{"type":"MultiPolygon","coordinates":[[[[32.6892,-25.9281],[32.6965,-25.9056],[32.6787,-25.9366],[32.6892,-25.9281]]],[[[32.9431,-26.0472],[32.9554,-26.0791],[32.9935,-25.9707],[32.9789,-25.9705],[32.9758,-25.9873],[32.9449,-26.0068],[32.9381,-25.9926],[32.9143,-26.0033],[32.8961,-26.0517],[32.9045,-26.0702],[32.9259,-26.0445],[32.9193,-26.0332],[32.9157,-26.0458],[32.9119,-26.0213],[32.9374,-26.0313],[32.9431,-26.0472]]],[[[32.9142,-25.9827],[32.9222,-25.9703],[32.9111,-25.9664],[32.9009,-25.9737],[32.9142,-25.9827]]],[[[31.963,-24.2685],[31.9871,-24.3022],[32.0091,-24.4558],[31.9983,-24.6897],[32.0337,-25.1325],[32.0153,-25.3825],[31.9774,-25.4747],[31.9813,-25.5238],[31.9958,-25.5263],[32.0061,-25.6452],[31.9786,-25.6937],[31.9306,-25.8408],[32.0063,-26.0004],[32.0871,-26.0089],[32.1053,-26.1617],[32.0744,-26.3057],[32.0774,-26.4056],[32.135,-26.5272],[32.1346,-26.8403],[32.1863,-26.863],[32.2197,-26.8328],[32.2573,-26.8486],[32.3206,-26.8527],[32.331,-26.8639],[32.3424,-26.8552],[32.3468,-26.8641],[32.6829,-26.8681],[32.8917,-26.8579],[32.8863,-26.8281],[32.9052,-26.7105],[32.8933,-26.6584],[32.9296,-26.4532],[32.9225,-26.3989],[32.9608,-26.0834],[32.9067,-26.1202],[32.9032,-26.1581],[32.891,-26.1596],[32.8712,-26.2035],[32.8657,-26.2592],[32.8913,-26.276],[32.8961,-26.3385],[32.8686,-26.2786],[32.8366,-26.2885],[32.8154,-26.2792],[32.7967,-26.2442],[32.7214,-26.1831],[32.6793,-26.1919],[32.6646,-26.1203],[32.6017,-26.0266],[32.5696,-26.0133],[32.555,-25.9741],[32.5346,-25.9893],[32.5127,-25.9746],[32.5027,-25.9883],[32.5039,-26.0303],[32.4574,-26.0737],[32.4855,-26.0999],[32.4344,-26.1434],[32.4403,-26.1193],[32.4619,-26.1065],[32.4319,-26.0748],[32.4374,-26.0561],[32.4218,-26.0333],[32.4137,-26.0258],[32.4049,-26.0379],[32.4135,-26.0351],[32.4061,-26.0263],[32.4447,-26.027],[32.4363,-26.0001],[32.4691,-25.9903],[32.4797,-25.9656],[32.5052,-25.96],[32.5238,-25.9367],[32.5532,-25.9669],[32.5933,-25.9839],[32.6723,-25.8879],[32.7524,-25.8729],[32.7349,-25.7864],[32.7594,-25.7054],[32.8036,-25.6217],[32.9019,-25.5237],[33.1388,-25.3796],[33.1402,-25.2769],[33.1042,-25.2156],[33.0018,-25.2015],[32.9968,-25.073],[32.9835,-25.0574],[32.9267,-25.0539],[32.9197,-24.9394],[32.9385,-24.9027],[32.9142,-24.8667],[32.9367,-24.7761],[32.8555,-24.7429],[32.8095,-24.6425],[32.7307,-24.5544],[32.7104,-24.4966],[32.7212,-24.4657],[32.7039,-24.3979],[32.6483,-24.38],[32.5735,-24.3884],[32.5313,-24.3765],[32.4906,-24.3583],[32.4243,-24.2914],[32.3537,-24.2699],[32.3152,-24.2781],[32.2334,-24.2432],[32.087,-24.2115],[32.0477,-24.2085],[31.963,-24.2685]]]]}},{"type":"Feature","properties":{"name":"Sofala","code":"27363107B69852241850831","iso":"MOZ"},"geometry":{"type":"MultiPolygon","coordinates":[[[[36.4172,-18.664],[36.4077,-18.6844],[36.4236,-18.6547],[36.4172,-18.664]]],[[[34.7103,-19.74],[34.7584,-19.7511],[34.7319,-19.7336],[34.7103,-19.74]]],[[[34.7726,-19.7699],[34.7856,-19.8056],[34.7996,-19.8035],[34.8027,-19.7938],[34.7726,-19.7699]]],[[[34.7699,-19.7837],[34.7722,-19.7687],[34.7564,-19.7624],[34.7699,-19.7837]]],[[[35.0838,-20.908],[35.0583,-20.9081],[35.0584,-20.8826],[35.026,-20.8213],[35.0025,-20.8152],[35.0242,-20.7905],[35.0048,-20.7534],[35.0013,-20.7133],[34.985,-20.7158],[34.9504,-20.6902],[34.9608,-20.6662],[34.9443,-20.6446],[34.89,-20.618],[34.8872,-20.6461],[34.8497,-20.6358],[34.7839,-20.5622],[34.7496,-20.5444],[34.742,-20.5139],[34.6849,-20.5203],[34.7184,-20.4738],[34.7045,-20.4355],[34.6724,-20.4452],[34.6752,-20.4241],[34.6568,-20.4082],[34.7064,-20.3758],[34.6882,-20.3367],[34.7415,-20.228],[34.7397,-20.2153],[34.7087,-20.2012],[34.7058,-20.1605],[34.7458,-20.1577],[34.7616,-20.1721],[34.781,-20.1406],[34.7483,-20.0174],[34.7607,-19.902],[34.7373,-19.8829],[34.7715,-19.859],[34.7748,-19.8373],[34.7527,-19.7835],[34.6799,-19.738],[34.7337,-19.7293],[34.8078,-19.7686],[34.8327,-19.8019],[34.8389,-19.8484],[34.8858,-19.8514],[34.9507,-19.8048],[34.9717,-19.8068],[35.0638,-19.7291],[35.1303,-19.6939],[35.3367,-19.5202],[35.7772,-19.0459],[35.9015,-18.9701],[35.9507,-18.9556],[35.957,-18.9403],[36.1143,-18.9147],[36.1471,-18.8979],[36.2786,-18.8848],[36.3158,-18.8597],[36.3885,-18.7825],[36.3803,-18.7541],[36.3885,-18.7256],[36.3368,-18.7702],[36.336,-18.7403],[36.4287,-18.6202],[36.4492,-18.6219],[36.4871,-18.5936],[36.4638,-18.5687],[36.4364,-18.5663],[36.418,-18.5734],[36.4219,-18.6018],[36.4017,-18.5933],[36.3647,-18.6224],[36.3386,-18.5936],[36.3179,-18.6096],[36.2672,-18.6094],[36.2286,-18.5608],[36.1871,-18.552],[36.1463,-18.5216],[36.0798,-18.3735],[36.0548,-18.3497],[36.0299,-18.3463],[35.994,-18.2948],[35.9649,-18.2883],[35.9377,-18.2576],[35.8847,-18.2511],[35.886,-18.2019],[35.8505,-18.1795],[35.82,-18.1087],[35.7057,-18.0422],[35.6914,-18.0523],[35.6319,-18.0245],[35.5889,-18.0219],[35.5818,-18.0048],[35.5269,-17.9971],[35.515,-17.9567],[35.5262,-17.9457],[35.4662,-17.9049],[35.4481,-17.8423],[35.3657,-17.7873],[35.3583,-17.7743],[35.37,-17.7432],[35.3449,-17.6923],[35.2901,-17.6985],[35.1569,-17.6246],[35.0657,-17.4772],[35.0255,-17.3728],[34.9792,-17.3179],[34.9694,-17.2566],[34.9291,-17.2039],[34.8874,-17.0457],[34.8554,-17.0249],[34.7868,-16.9313],[34.7055,-16.8808],[34.5999,-16.8475],[34.5732,-16.8242],[34.5221,-16.9306],[34.4717,-16.9912],[34.2956,-17.0541],[34.2417,-17.1425],[34.1722,-17.4108],[34.171,-17.4491],[34.1878,-17.4737],[34.1582,-17.5048],[34.1497,-17.5533],[34.1229,-17.5916],[34.1611,-17.6958],[34.1633,-17.7782],[34.1425,-17.8234],[34.1442,-17.852],[34.1998,-17.8874],[34.2464,-17.8989],[34.278,-17.9307],[34.2904,-18.0087],[34.2663,-18.1167],[34.2726,-18.1928],[34.2555,-18.22],[34.1622,-18.2085],[34.1176,-18.2574],[34.0892,-18.2606],[34.0562,-18.2359],[34.0165,-18.1622],[33.9977,-18.1701],[33.9337,-18.1561],[33.9208,-18.1899],[33.808,-18.2898],[33.834,-18.3245],[33.8278,-18.3931],[33.8676,-18.4628],[33.8553,-18.5083],[33.8095,-18.5333],[33.7519,-18.6094],[33.7156,-18.6834],[33.7604,-18.7291],[33.7865,-18.7388],[33.8178,-18.7923],[33.8997,-18.8315],[33.9267,-18.8855],[34.0113,-18.9399],[34.0206,-18.9778],[34.0044,-19.0736],[33.9755,-19.1368],[33.9298,-19.5467],[33.9,-19.5849],[33.8474,-19.5827],[33.8557,-19.6417],[33.889,-19.6769],[33.87,-19.7813],[33.9123,-19.7779],[33.9251,-19.7997],[34.0058,-19.8366],[33.9229,-19.8686],[33.8966,-19.9016],[33.7516,-19.9987],[33.705,-19.9866],[33.6735,-19.9376],[33.5821,-19.9545],[33.4914,-20.0017],[33.4662,-20.0363],[33.4398,-20.035],[33.4968,-20.2592],[33.515,-20.2761],[33.4891,-20.3427],[33.4913,-20.4236],[33.7452,-20.6726],[33.8921,-20.7129],[33.8871,-20.9699],[34.0018,-20.9781],[34.0677,-21.0094],[34.1172,-21.0696],[34.109,-21.1085],[34.038,-21.1742],[34.0324,-21.2313],[33.9835,-21.32],[34.0893,-21.2933],[34.1311,-21.3066],[34.1481,-21.3261],[34.2106,-21.2957],[34.2247,-21.2726],[34.2529,-21.2726],[34.3302,-21.3178],[34.4455,-21.1736],[34.5865,-21.1304],[34.6572,-21.0865],[34.7492,-21.1329],[34.8155,-21.0642],[35.0838,-20.908]]]]}},{"type":"Feature","properties":{"name":"Tete","code":"27363107B76405592745796","iso":"MOZ"},"geometry":{"type":"Polygon","coordinates":[[[34.5732,-16.8242],[34.5999,-16.8475],[34.7055,-16.8808],[34.8068,-16.9495],[34.8554,-17.0249],[34.8874,-17.0457],[34.9291,-17.2039],[34.9694,-17.2566],[34.9792,-17.3179],[35.0255,-17.3728],[35.0657,-17.4772],[35.1569,-17.6246],[35.2901,-17.6985],[35.3313,-17.6904],[35.3376,-17.6531],[35.3233,-17.5789],[35.3494,-17.514],[35.3106,-17.3936],[35.3301,-17.3854],[35.298,-17.2806],[35.2957,-17.1278],[35.0974,-17.1295],[35.0782,-17.1075],[35.1085,-17.0872],[35.0565,-17.0494],[35.0637,-17.0216],[35.051,-17.0105],[35.0629,-16.994],[35.1354,-16.9713],[35.1477,-16.9406],[35.1715,-16.9379],[35.1462,-16.8739],[35.1612,-16.8452],[35.1358,-16.8181],[35.0726,-16.8195],[35.064,-16.8356],[35.0418,-16.8288],[35.0308,-16.8078],[34.9901,-16.789],[34.9847,-16.7489],[34.9674,-16.7392],[34.9197,-16.7474],[34.9101,-16.6937],[34.8583,-16.6759],[34.8425,-16.6072],[34.7725,-16.5859],[34.7772,-16.5492],[34.7524,-16.5128],[34.718,-16.4964],[34.6823,-16.503],[34.681,-16.4385],[34.6521,-16.4532],[34.6421,-16.4367],[34.5939,-16.4179],[34.5897,-16.3697],[34.5688,-16.345],[34.5704,-16.3144],[34.5439,-16.3053],[34.524,-16.2799],[34.4902,-16.2964],[34.4758,-16.2791],[34.4538,-16.2819],[34.4309,-16.2643],[34.3977,-16.1853],[34.4055,-16.1219],[34.4364,-16.0691],[34.4234,-16.0504],[34.4302,-16.0433],[34.3883,-16.026],[34.3554,-15.9642],[34.328,-15.9641],[34.3261,-15.9447],[34.308,-15.931],[34.2601,-15.9207],[34.2515,-15.8966],[34.2637,-15.887],[34.2514,-15.8785],[34.2598,-15.8695],[34.2491,-15.8441],[34.2554,-15.8238],[34.2736,-15.8146],[34.272,-15.7968],[34.3263,-15.7443],[34.3645,-15.7425],[34.3914,-15.686],[34.4352,-15.6647],[34.4334,-15.6191],[34.458,-15.6089],[34.439,-15.5858],[34.4417,-15.5348],[34.4264,-15.4933],[34.4254,-15.4753],[34.4444,-15.4553],[34.4411,-15.4233],[34.4723,-15.4303],[34.4944,-15.4083],[34.5107,-15.4141],[34.5189,-15.3537],[34.5407,-15.3286],[34.5564,-15.3405],[34.5747,-15.3262],[34.5709,-15.3094],[34.5984,-15.2871],[34.6033,-15.2654],[34.6032,-15.2362],[34.5778,-15.2007],[34.5804,-15.1399],[34.5688,-15.1248],[34.5919,-15.0962],[34.5714,-15.0807],[34.6224,-15.0027],[34.6164,-14.9793],[34.5923,-14.9597],[34.58,-14.9082],[34.5653,-14.8989],[34.5771,-14.8738],[34.5723,-14.826],[34.584,-14.8113],[34.5206,-14.6872],[34.5515,-14.6479],[34.5436,-14.6055],[34.5158,-14.5547],[34.4979,-14.5536],[34.4646,-14.5195],[34.3926,-14.3951],[34.3576,-14.3864],[34.3125,-14.4061],[34.3,-14.3992],[34.2644,-14.4313],[34.2347,-14.4249],[34.2126,-14.4419],[34.0849,-14.4586],[34.087,-14.4896],[33.9402,-14.4797],[33.936,-14.4706],[33.8838,-14.4995],[33.8856,-14.5165],[33.8579,-14.5116],[33.8245,-14.546],[33.8016,-14.552],[33.7397,-14.5003],[33.7168,-14.5012],[33.7027,-14.5378],[33.718,-14.5779],[33.6917,-14.5915],[33.6852,-14.6132],[33.6651,-14.6158],[33.6662,-14.604],[33.6342,-14.5872],[33.6079,-14.4921],[33.5623,-14.4785],[33.5284,-14.4197],[33.5125,-14.4239],[33.4704,-14.4013],[33.4479,-14.3621],[33.4451,-14.3284],[33.3833,-14.2381],[33.3851,-14.2197],[33.3647,-14.2101],[33.3604,-14.2209],[33.3416,-14.2166],[33.3342,-14.1843],[33.2961,-14.1424],[33.3222,-14.0844],[33.3003,-14.0319],[33.2683,-14.0283],[33.2423,-13.9983],[32.3728,-14.3083],[32.1317,-14.3592],[32.0506,-14.4019],[31.9294,-14.4297],[31.8511,-14.4681],[31.6931,-14.5044],[31.4847,-14.6197],[30.8606,-14.7583],[30.5047,-14.8847],[30.3436,-14.9678],[30.2167,-14.9966],[30.2348,-15.036],[30.2132,-15.0691],[30.2382,-15.1159],[30.2324,-15.1314],[30.2468,-15.1364],[30.2578,-15.1639],[30.2753,-15.2511],[30.3083,-15.2898],[30.3632,-15.3223],[30.3653,-15.3464],[30.3848,-15.3696],[30.3773,-15.449],[30.4047,-15.4765],[30.3608,-15.5536],[30.4058,-15.5896],[30.4061,-15.6085],[30.4251,-15.628],[30.4246,-15.9998],[30.9225,-15.9998],[30.9498,-16.0161],[30.9662,-16.0491],[30.9923,-16.0605],[31.0169,-16.0514],[31.0259,-16.0279],[31.059,-16.0133],[31.0632,-15.9968],[31.0724,-16.016],[31.1404,-15.9836],[31.1823,-15.9898],[31.1882,-16.0071],[31.2794,-16.0059],[31.3446,-16.0473],[31.3554,-16.0802],[31.4044,-16.1184],[31.4045,-16.1371],[31.4346,-16.1437],[31.4275,-16.1606],[31.4902,-16.1564],[31.501,-16.1716],[31.5187,-16.1646],[31.5644,-16.1859],[31.6301,-16.1796],[31.644,-16.1962],[31.6924,-16.1972],[31.7331,-16.2284],[31.7708,-16.2367],[31.8359,-16.3126],[31.8938,-16.3365],[31.9135,-16.4129],[32.0375,-16.4424],[32.2744,-16.4342],[32.3442,-16.4492],[32.4877,-16.4994],[32.7092,-16.6],[32.7092,-16.6855],[32.7709,-16.7083],[32.838,-16.6965],[32.888,-16.7192],[32.9231,-16.696],[32.9787,-16.7069],[32.9667,-16.7725],[32.9122,-16.8942],[32.8361,-16.927],[32.938,-17.0686],[32.9665,-17.1316],[32.99,-17.1972],[32.9974,-17.3086],[33.0494,-17.3355],[33.0424,-17.2861],[33.0513,-17.2619],[33.083,-17.2366],[33.0881,-17.1531],[33.1242,-17.0591],[33.2238,-17.002],[33.263,-16.9004],[33.3223,-16.7948],[33.3132,-16.7456],[33.3305,-16.7045],[33.3683,-16.6935],[33.3956,-16.6586],[33.392,-16.6405],[33.4459,-16.5838],[33.4339,-16.529],[33.4541,-16.5231],[33.4675,-16.487],[33.4977,-16.4758],[33.5374,-16.4376],[33.7123,-16.4306],[33.7482,-16.4118],[33.7999,-16.4101],[33.9023,-16.5376],[33.9493,-16.5807],[33.9807,-16.5863],[34.0098,-16.6259],[34.0451,-16.6373],[34.1243,-16.6289],[34.1864,-16.6807],[34.3815,-16.7321],[34.5732,-16.8242]]]}},{"type":"Feature","properties":{"name":"Zambézia","code":"27363107B53339704098913","iso":"MOZ"},"geometry":{"type":"Polygon","coordinates":[[[36.7246,-14.9966],[36.6596,-15.1518],[36.5939,-15.1944],[36.5878,-15.2193],[36.5122,-15.2628],[36.445,-15.2369],[36.4112,-15.2453],[36.3635,-15.3192],[36.3445,-15.33],[36.3378,-15.3634],[36.3194,-15.3831],[36.3261,-15.4215],[36.3144,-15.4499],[36.2948,-15.4616],[36.3138,-15.4762],[36.2797,-15.5005],[36.1859,-15.4493],[35.8514,-15.446],[35.8052,-15.9647],[35.8166,-16.0297],[35.7123,-16.1012],[35.6823,-16.1054],[35.673,-16.0957],[35.5939,-16.1337],[35.5791,-16.1244],[35.5698,-16.1342],[35.5575,-16.1216],[35.5436,-16.1554],[35.524,-16.1681],[35.4967,-16.1546],[35.4863,-16.1205],[35.4331,-16.1135],[35.4055,-16.1249],[35.3887,-16.1536],[35.2961,-16.2321],[35.2991,-16.2656],[35.2783,-16.3258],[35.3029,-16.3457],[35.2632,-16.3987],[35.2619,-16.475],[35.2129,-16.4999],[35.2116,-16.5164],[35.1869,-16.5191],[35.1772,-16.5401],[35.1439,-16.5607],[35.1601,-16.6097],[35.1726,-16.6084],[35.167,-16.6196],[35.2059,-16.6375],[35.2147,-16.6543],[35.2285,-16.6465],[35.2357,-16.6705],[35.2886,-16.7103],[35.2895,-16.7963],[35.3147,-16.8305],[35.2706,-16.8937],[35.285,-16.9015],[35.2631,-16.94],[35.2741,-16.9506],[35.2676,-16.96],[35.2941,-16.9616],[35.3049,-16.9816],[35.292,-17.0345],[35.2974,-17.0599],[35.3139,-17.0634],[35.301,-17.0973],[35.3091,-17.1232],[35.2892,-17.1386],[35.2955,-17.2488],[35.3301,-17.3854],[35.3106,-17.3936],[35.3171,-17.4267],[35.3494,-17.514],[35.3233,-17.5789],[35.3376,-17.6531],[35.3313,-17.6904],[35.3515,-17.6996],[35.37,-17.7432],[35.3583,-17.7743],[35.3657,-17.7873],[35.4481,-17.8423],[35.4662,-17.9049],[35.5262,-17.9457],[35.515,-17.9567],[35.5269,-17.9971],[35.5818,-18.0048],[35.5889,-18.0219],[35.6319,-18.0245],[35.6914,-18.0523],[35.7057,-18.0422],[35.82,-18.1087],[35.8505,-18.1795],[35.886,-18.2019],[35.8847,-18.2511],[35.9377,-18.2576],[35.9649,-18.2883],[35.994,-18.2948],[36.0299,-18.3463],[36.0548,-18.3497],[36.0798,-18.3735],[36.1313,-18.5026],[36.1628,-18.5386],[36.2286,-18.5608],[36.2672,-18.6094],[36.3179,-18.6096],[36.3386,-18.5936],[36.3606,-18.6224],[36.4017,-18.5933],[36.4219,-18.6018],[36.4239,-18.5681],[36.4638,-18.5687],[36.4698,-18.558],[36.5029,-18.5672],[36.5096,-18.529],[36.5294,-18.5246],[36.5383,-18.4912],[36.5473,-18.4977],[36.6214,-18.4155],[36.6965,-18.3553],[36.814,-18.2361],[36.848,-18.1816],[36.8779,-18.1865],[36.8811,-18.1582],[36.9652,-18.0665],[36.964,-18.0382],[36.9777,-18.0176],[37.1059,-17.8595],[37.1977,-17.7652],[37.2178,-17.761],[37.2987,-17.6881],[37.3194,-17.69],[37.3289,-17.6727],[37.3547,-17.6686],[37.8454,-17.4066],[38.0072,-17.3377],[38.0848,-17.3217],[38.1124,-17.2938],[38.1353,-17.288],[38.1502,-17.2987],[38.249,-17.232],[38.4391,-17.1594],[38.6881,-17.081],[38.8473,-17.0572],[38.986,-17.0115],[39.0729,-17.0125],[39.149,-16.8846],[39.1283,-16.8535],[39.142,-16.8326],[39.1276,-16.8077],[39.0765,-16.7649],[39.0682,-16.7257],[39.0303,-16.6596],[38.9955,-16.6497],[38.9766,-16.6219],[38.9931,-16.5483],[39.0511,-16.5229],[39.0491,-16.4835],[38.9433,-16.2504],[38.9253,-16.1735],[38.9393,-16.1146],[38.9318,-16.0826],[38.8655,-15.9988],[38.8705,-15.9552],[38.7742,-15.7793],[38.6813,-15.7047],[38.6743,-15.6828],[38.5685,-15.6568],[38.5411,-15.6326],[38.5277,-15.5864],[38.4545,-15.5533],[38.3359,-15.4535],[38.2774,-15.4758],[38.2056,-15.4437],[38.141,-15.3648],[38.0455,-15.3023],[37.9955,-15.2881],[37.971,-15.2507],[37.9378,-15.2274],[37.8798,-15.233],[37.8089,-15.2001],[37.772,-15.2158],[37.7378,-15.213],[37.6974,-15.2395],[37.6201,-15.2116],[37.5332,-15.1354],[37.4923,-15.146],[37.4713,-15.1732],[37.3598,-15.2156],[37.3106,-15.152],[37.315,-15.1373],[37.2122,-15.0104],[36.7246,-14.9966]]]}}]}