{"type":"FeatureCollection","features":[{"type":"Feature","properties":{"name":"Adrar","code":"64602211B19416274064143","iso":"MRT"},"geometry":{"type":"Polygon","coordinates":[[[-6.3548,23.1581],[-6.4855,24.3067],[-6.4989,24.2808],[-10.7878,21.52],[-12.378,21.3517],[-13.03,21.5814],[-13.0018,21.3308],[-14.3012,21.3417],[-14.1544,21.1181],[-14.2196,19.4286],[-14.2217,19.0006],[-13.2442,19.0006],[-12.669,18.5571],[-12.3421,18.8996],[-11.6779,19.3199],[-11.4506,19.2031],[-11.4225,19.4089],[-11.0348,19.7114],[-7.9877,19.7255],[-6.3548,23.1581]]]}},{"type":"Feature","properties":{"name":"Assaba","code":"64602211B24757493091095","iso":"MRT"},"geometry":{"type":"Polygon","coordinates":[[[-11.0794,17.7229],[-10.9706,18.311],[-11.0164,18.2827],[-11.0341,18.2959],[-11.0584,18.291],[-11.135,18.2472],[-11.2045,18.1549],[-11.1684,18.1583],[-11.2005,18.128],[-11.204,18.0874],[-11.2697,18.0985],[-11.344,18.0532],[-11.3484,18.0734],[-11.3833,18.0713],[-11.4072,18.0903],[-11.4825,18.0835],[-11.5001,18.0526],[-11.4958,18.0318],[-11.5117,18.0454],[-11.5607,18.0449],[-11.5484,17.9977],[-11.5741,17.9933],[-11.5982,17.9457],[-11.5709,17.9387],[-11.5415,17.8809],[-11.4864,17.8464],[-11.4945,17.8159],[-11.5238,17.8233],[-11.5267,17.8079],[-11.4827,17.7499],[-11.4865,17.7388],[-11.4723,17.7383],[-11.4246,17.6711],[-11.43,17.6606],[-11.404,17.6139],[-11.4895,17.5658],[-11.507,17.5848],[-11.509,17.5541],[-11.5203,17.5605],[-11.5182,17.5374],[-11.4978,17.5424],[-11.4886,17.5327],[-11.4882,17.5483],[-11.4597,17.5536],[-11.4476,17.538],[-11.4621,17.5273],[-11.4617,17.5053],[-11.484,17.5079],[-11.4959,17.5259],[-11.5045,17.5172],[-11.4964,17.4951],[-11.5214,17.5026],[-11.5047,17.4748],[-11.5184,17.4641],[-11.4787,17.4201],[-11.5182,17.3854],[-11.5271,17.1773],[-11.5675,17.1238],[-11.7525,17.1392],[-11.9175,17.0804],[-12.2541,17.1977],[-12.2871,17.2234],[-12.3102,17.2755],[-12.3366,17.2597],[-12.3401,17.2286],[-12.37,17.2292],[-12.4234,17.2066],[-12.4331,17.1908],[-12.4863,17.1759],[-12.5123,17.1214],[-12.5722,17.1081],[-12.6049,17.0819],[-12.6828,17.072],[-12.6947,17.0516],[-12.7386,17.0463],[-12.7534,17.0142],[-12.797,16.9766],[-12.8199,16.9255],[-12.8241,16.8649],[-12.8077,16.8313],[-12.8303,16.7705],[-12.839,16.6824],[-12.7836,16.65],[-12.7515,16.5655],[-12.7336,16.5519],[-12.7491,16.5047],[-12.7684,16.493],[-12.7645,16.4607],[-12.7176,16.4517],[-12.6635,16.4897],[-12.4293,16.4429],[-12.4358,16.4228],[-12.4169,16.3944],[-12.4235,16.3603],[-12.4095,16.3132],[-12.4185,16.2656],[-12.4338,16.2559],[-12.4215,16.1971],[-12.3075,16.2583],[-12.2515,16.2383],[-12.2392,16.2132],[-12.2401,16.1558],[-12.2219,16.1211],[-12.1557,16.1065],[-12.1433,16.1186],[-12.1103,16.111],[-12.053,16.0541],[-12.0102,16.0567],[-12.0156,15.9459],[-11.9702,15.9343],[-11.9479,15.9013],[-11.879,15.916],[-11.8304,15.9075],[-11.8347,15.9455],[-11.8066,15.9491],[-11.7944,15.967],[-11.818,16.0078],[-11.8206,16.0562],[-11.7853,16.0282],[-11.7553,16.0505],[-11.7192,16.0294],[-11.6771,16.0311],[-11.6779,16.0136],[-11.6616,15.9987],[-11.5003,15.9694],[-11.5577,15.9108],[-11.5583,15.8751],[-11.5721,15.8509],[-11.5957,15.8405],[-11.5967,15.7982],[-11.6562,15.7183],[-11.6673,15.6313],[-11.7048,15.5511],[-11.7027,15.5325],[-11.6693,15.5362],[-11.6463,15.5208],[-11.5878,15.5325],[-11.5712,15.5426],[-11.5675,15.5764],[-11.5023,15.6188],[-11.511,15.6378],[-11.4288,15.6454],[-11.371,15.5745],[-11.3627,15.5258],[-11.3186,15.4973],[-11.2537,15.4202],[-11.2003,15.3942],[-10.9985,15.2382],[-10.9029,15.1036],[-10.8796,15.1304],[-10.8739,15.1891],[-10.8351,15.2178],[-10.8293,15.269],[-10.7982,15.3052],[-10.7805,15.3033],[-10.7759,15.3199],[-10.7269,15.3492],[-10.7178,15.3676],[-10.7242,15.4366],[-10.6877,15.4336],[-10.6643,15.4046],[-10.5846,15.4277],[-10.6685,15.9482],[-10.7786,16.0449],[-10.7746,16.086],[-10.7604,16.1031],[-10.7595,16.1928],[-10.7813,16.228],[-10.8439,16.2582],[-10.8316,16.2808],[-10.8465,16.3059],[-10.8288,16.3346],[-10.8352,16.3573],[-10.8281,16.3717],[-10.8095,16.3735],[-10.8027,16.4042],[-10.831,16.4125],[-10.8287,16.4267],[-10.8739,16.4572],[-10.8518,16.4825],[-10.8232,16.4766],[-10.7684,16.5094],[-10.7314,16.5452],[-10.7363,16.5664],[-10.7041,16.5679],[-10.6984,16.5946],[-10.7073,16.6054],[-10.7362,16.5955],[-10.7477,16.6085],[-10.7724,16.5934],[-10.8266,16.6032],[-10.872,16.6631],[-10.8721,16.7131],[-10.889,16.7347],[-10.9122,16.7531],[-10.9416,16.7522],[-10.951,16.7852],[-10.9778,16.8017],[-10.9713,16.8146],[-10.9983,16.82],[-10.9789,16.8685],[-10.9932,16.8893],[-10.984,16.9115],[-10.9965,17.0002],[-10.9799,17.1174],[-11.0122,17.1689],[-10.9804,17.284],[-10.9939,17.3202],[-10.9833,17.3785],[-11.0719,17.5551],[-11.0742,17.6298],[-11.0958,17.6635],[-11.0794,17.7229]]]}},{"type":"Feature","properties":{"name":"Brakna","code":"64602211B32818049823770","iso":"MRT"},"geometry":{"type":"Polygon","coordinates":[[[-12.3102,17.2755],[-12.4095,17.3556],[-12.5448,17.4919],[-12.4787,18.2743],[-12.669,18.5571],[-13.7336,17.8001],[-13.9587,17.6036],[-14.3201,17.0881],[-14.5692,16.9094],[-14.5949,16.8695],[-14.887,16.7262],[-14.9526,16.6632],[-14.9536,16.6478],[-14.9358,16.6305],[-14.9123,16.6481],[-14.8975,16.6303],[-14.8811,16.6598],[-14.8605,16.6358],[-14.8283,16.6341],[-14.8131,16.6536],[-14.7873,16.6292],[-14.7651,16.6553],[-14.7355,16.6185],[-14.7258,16.6466],[-14.7139,16.6383],[-14.6459,16.6494],[-14.6407,16.6359],[-14.6518,16.6288],[-14.6388,16.6167],[-14.6171,16.6287],[-14.6031,16.6172],[-14.5562,16.617],[-14.5443,16.6435],[-14.4975,16.6138],[-14.4476,16.6232],[-14.4207,16.6522],[-14.4061,16.6323],[-14.3325,16.6402],[-14.3299,16.5657],[-14.2793,16.5846],[-14.2609,16.5217],[-14.247,16.5457],[-14.2,16.5314],[-14.2007,16.5096],[-14.1517,16.472],[-14.1331,16.4768],[-14.1384,16.4537],[-14.0746,16.4089],[-14.0311,16.3521],[-13.9683,16.3311],[-13.9579,16.3083],[-13.9909,16.3042],[-13.9872,16.2753],[-13.9519,16.2693],[-13.9741,16.2236],[-13.9206,16.23],[-13.9101,16.1942],[-13.8764,16.1957],[-13.8676,16.1823],[-13.878,16.1533],[-13.8464,16.1059],[-13.7982,16.1423],[-13.7473,16.15],[-13.7178,16.1814],[-13.7043,16.1783],[-13.7031,16.1644],[-13.6516,16.1944],[-13.6318,16.2928],[-13.1649,16.4209],[-13.1555,16.5406],[-13.1172,16.5748],[-12.9516,16.6015],[-12.9287,16.6193],[-12.8997,16.7065],[-12.8379,16.7761],[-12.8242,16.8127],[-12.8127,16.9504],[-12.7386,17.0463],[-12.6947,17.0516],[-12.6828,17.072],[-12.6049,17.0819],[-12.5722,17.1081],[-12.5123,17.1214],[-12.4863,17.1759],[-12.4331,17.1908],[-12.4234,17.2066],[-12.37,17.2292],[-12.3401,17.2286],[-12.3366,17.2597],[-12.3102,17.2755]]]}},{"type":"Feature","properties":{"name":"Dakhlet Nouadhibou","code":"64602211B42879511039945","iso":"MRT"},"geometry":{"type":"MultiPolygon","coordinates":[[[[-14.3012,21.3417],[-15.9046,21.341],[-16.9397,21.3266],[-17.0031,21.1046],[-17.0398,21.0403],[-17.0664,20.923],[-17.0665,20.8398],[-17.0518,20.7742],[-17.0279,20.8538],[-17.0579,20.8896],[-17.046,20.9099],[-17.0171,20.9149],[-17.0049,20.9682],[-17.0029,21.0182],[-17.0201,21.0115],[-17.0126,21.0218],[-17.0226,21.0224],[-17.0263,21.0432],[-17.004,21.0393],[-17.0015,21.0254],[-16.9868,21.039],[-16.9646,21.0976],[-16.9415,21.1085],[-16.9293,21.1615],[-16.9146,21.1663],[-16.8849,21.1204],[-16.8624,21.0268],[-16.8188,20.9849],[-16.8185,20.9504],[-16.8043,20.9271],[-16.7779,20.9282],[-16.7579,20.8315],[-16.7182,20.804],[-16.7135,20.766],[-16.6987,20.7499],[-16.6679,20.7351],[-16.676,20.6735],[-16.6429,20.661],[-16.6118,20.6174],[-16.5307,20.5554],[-16.5285,20.731],[-16.4874,20.7232],[-16.4874,20.6749],[-16.4407,20.631],[-16.4307,20.6413],[-16.4293,20.5993],[-16.3788,20.5185],[-16.3535,20.4357],[-16.3621,20.4235],[-16.3307,20.4004],[-16.3232,20.3615],[-16.2857,20.3218],[-16.2687,20.2796],[-16.2396,20.2835],[-16.2038,20.2182],[-16.2024,20.1929],[-16.2268,20.1676],[-16.2262,20.1507],[-16.2649,20.1251],[-16.2476,20.086],[-16.2362,20.0846],[-16.239,20.0596],[-16.2224,20.0524],[-16.2321,20.0329],[-16.2237,19.9907],[-16.2349,19.9662],[-16.3113,19.9032],[-16.3065,19.8779],[-16.2782,19.911],[-16.2549,19.8871],[-16.2665,19.8549],[-16.2507,19.8449],[-16.256,19.784],[-16.281,19.7468],[-16.2729,19.7313],[-16.3013,19.7079],[-16.2818,19.736],[-16.3182,19.7351],[-16.3515,19.6924],[-16.4057,19.5918],[-16.3496,19.649],[-16.3515,19.6371],[-16.4232,19.5326],[-16.4679,19.4385],[-16.4671,19.4165],[-16.4465,19.4068],[-16.4379,19.4254],[-16.4121,19.4354],[-16.4054,19.4876],[-16.3599,19.5351],[-16.4015,19.4585],[-16.3554,19.5121],[-16.291,19.5432],[-16.2885,19.5279],[-16.3365,19.4587],[-16.3192,19.4528],[-16.2829,19.4951],[-15.5784,20.7375],[-15.8398,21.1508],[-14.1731,21.1446],[-14.3012,21.3417]]],[[[-17.0368,20.8176],[-17.036,20.8121],[-17.0343,20.816],[-17.0368,20.8176]]],[[[-16.4946,20.6429],[-16.5021,20.6401],[-16.501,20.6301],[-16.499,20.6285],[-16.4974,20.6293],[-16.4962,20.6271],[-16.4932,20.6287],[-16.4912,20.6338],[-16.4904,20.6307],[-16.489,20.631],[-16.4915,20.6404],[-16.4946,20.6429]]],[[[-16.4624,20.6338],[-16.4638,20.6338],[-16.4649,20.6313],[-16.4601,20.6299],[-16.4576,20.6238],[-16.451,20.6215],[-16.4574,20.6315],[-16.4624,20.6338]]],[[[-16.4815,20.6257],[-16.4871,20.6165],[-16.4868,20.6118],[-16.4893,20.6093],[-16.4907,20.6032],[-16.4907,20.6015],[-16.4876,20.5988],[-16.4885,20.5965],[-16.4865,20.5949],[-16.4863,20.5996],[-16.4888,20.6054],[-16.4871,20.6085],[-16.4837,20.596],[-16.4849,20.5907],[-16.4832,20.5918],[-16.4796,20.6149],[-16.481,20.6121],[-16.4818,20.6132],[-16.4788,20.6162],[-16.4796,20.6235],[-16.4815,20.6257]]],[[[-16.4526,20.6207],[-16.4743,20.6157],[-16.4776,20.591],[-16.4471,20.5671],[-16.4526,20.6207]]],[[[-16.4907,20.6179],[-16.5004,20.6201],[-16.4957,20.6065],[-16.4907,20.6179]]],[[[-16.3013,20.0146],[-16.3007,20.0165],[-16.3037,20.0154],[-16.3046,20.0085],[-16.3032,20.0068],[-16.299,20.0068],[-16.3013,20.0146]]],[[[-16.2901,20.009],[-16.2971,20.0035],[-16.2851,19.9918],[-16.2901,20.009]]],[[[-16.5024,19.9026],[-16.5057,19.9013],[-16.5054,19.8985],[-16.5015,19.8996],[-16.5024,19.9026]]],[[[-16.5099,19.8901],[-16.5088,19.8937],[-16.5104,19.8921],[-16.5099,19.8901]]],[[[-16.3843,19.8774],[-16.3951,19.8715],[-16.3907,19.8563],[-16.3843,19.8774]]],[[[-16.2968,19.8724],[-16.2985,19.871],[-16.2957,19.8668],[-16.2965,19.871],[-16.2935,19.8713],[-16.2968,19.8724]]],[[[-16.3674,19.8629],[-16.3632,19.8699],[-16.3671,19.8679],[-16.3687,19.8632],[-16.3674,19.8629]]],[[[-16.4085,19.8654],[-16.4151,19.8626],[-16.4124,19.8613],[-16.4107,19.8576],[-16.4071,19.8601],[-16.4085,19.8654]]],[[[-16.4574,19.7274],[-16.4899,19.7412],[-16.504,19.6976],[-16.4899,19.6726],[-16.4715,19.721],[-16.4618,19.719],[-16.4646,19.6746],[-16.4513,19.621],[-16.4326,19.5982],[-16.3657,19.7021],[-16.3493,19.7649],[-16.3188,19.789],[-16.3393,19.7768],[-16.3288,19.7974],[-16.3457,19.7907],[-16.3371,19.8563],[-16.3612,19.8643],[-16.3846,19.8285],[-16.4004,19.8354],[-16.4188,19.824],[-16.4265,19.7557],[-16.4574,19.7274]]],[[[-16.3874,19.8507],[-16.3887,19.8507],[-16.3885,19.8493],[-16.3904,19.8479],[-16.3901,19.8451],[-16.3926,19.8468],[-16.3904,19.8435],[-16.3921,19.8426],[-16.3901,19.841],[-16.3876,19.8432],[-16.3885,19.8463],[-16.3865,19.8474],[-16.3874,19.8507]]],[[[-16.3254,19.8354],[-16.3285,19.8338],[-16.3288,19.8321],[-16.3235,19.8329],[-16.3254,19.8354]]],[[[-16.3196,19.7976],[-16.324,19.7974],[-16.3207,19.7957],[-16.3224,19.7951],[-16.3221,19.7935],[-16.3185,19.7929],[-16.3196,19.7976]]],[[[-16.326,19.7962],[-16.3254,19.7976],[-16.3279,19.7974],[-16.3274,19.7957],[-16.326,19.7962]]],[[[-16.4404,19.7738],[-16.4451,19.7685],[-16.4463,19.7643],[-16.4449,19.7635],[-16.4407,19.7651],[-16.4421,19.7676],[-16.4404,19.7738]]],[[[-16.3362,19.7543],[-16.3635,19.694],[-16.3524,19.6968],[-16.3362,19.7543]]],[[[-16.4885,19.6626],[-16.4921,19.6621],[-16.4932,19.6588],[-16.4921,19.6571],[-16.4885,19.6579],[-16.4876,19.6607],[-16.486,19.6607],[-16.4863,19.6621],[-16.4885,19.6626]]],[[[-16.4876,19.6482],[-16.4957,19.6349],[-16.4871,19.6235],[-16.4876,19.6482]]]]}},{"type":"Feature","properties":{"name":"Gorgol","code":"64602211B65251719279272","iso":"MRT"},"geometry":{"type":"Polygon","coordinates":[[[-12.823,16.8584],[-12.8379,16.7761],[-12.8997,16.7065],[-12.9216,16.6303],[-12.9396,16.6084],[-13.1172,16.5748],[-13.1555,16.5406],[-13.1649,16.4209],[-13.6318,16.2928],[-13.6516,16.1944],[-13.7031,16.1644],[-13.7194,16.1413],[-13.6782,16.0944],[-13.5758,16.133],[-13.522,16.1244],[-13.4877,16.1472],[-13.476,16.131],[-13.5137,16.108],[-13.4989,16.0806],[-13.46,16.1087],[-13.4446,16.0836],[-13.3789,16.0575],[-13.361,15.9622],[-13.3419,15.9372],[-13.3131,15.925],[-13.329,15.8912],[-13.2998,15.87],[-13.2975,15.8186],[-13.2659,15.7909],[-13.2877,15.7879],[-13.292,15.7665],[-13.208,15.6953],[-13.2192,15.6743],[-13.2524,15.6713],[-13.2282,15.6122],[-13.1865,15.6253],[-13.0874,15.5813],[-13.0999,15.4953],[-13.0476,15.4777],[-12.9643,15.5005],[-12.9613,15.4464],[-12.9253,15.442],[-12.947,15.4177],[-12.9434,15.3566],[-12.8537,15.318],[-12.8351,15.2882],[-12.8494,15.2541],[-12.8917,15.2689],[-12.8959,15.2475],[-12.8632,15.2259],[-12.8491,15.1999],[-12.8222,15.2138],[-12.7963,15.2097],[-12.7899,15.1509],[-12.7468,15.1304],[-12.6946,15.3072],[-12.5375,15.5394],[-12.4979,15.5599],[-12.4724,15.6557],[-12.2966,15.8022],[-12.2649,15.8616],[-12.2333,15.8836],[-12.1889,15.8946],[-12.1467,15.8838],[-12.0049,15.9394],[-12.0156,15.9459],[-12.0195,16.0044],[-12.0066,16.0503],[-12.058,16.0568],[-12.0739,16.0855],[-12.1103,16.111],[-12.1433,16.1186],[-12.1557,16.1065],[-12.2219,16.1211],[-12.2401,16.1558],[-12.2449,16.2316],[-12.3007,16.2586],[-12.3436,16.2471],[-12.3779,16.2148],[-12.4215,16.1971],[-12.4338,16.2559],[-12.4185,16.2656],[-12.4095,16.3132],[-12.4235,16.3603],[-12.4169,16.3944],[-12.4358,16.4228],[-12.4293,16.4429],[-12.6635,16.4897],[-12.7176,16.4517],[-12.7645,16.4607],[-12.7684,16.493],[-12.7491,16.5047],[-12.7319,16.5424],[-12.7836,16.65],[-12.839,16.6824],[-12.8303,16.7705],[-12.8077,16.8313],[-12.823,16.8584]]]}},{"type":"Feature","properties":{"name":"Guidimaka","code":"64602211B46967673309417","iso":"MRT"},"geometry":{"type":"Polygon","coordinates":[[[-12.0049,15.9394],[-12.1467,15.8838],[-12.1889,15.8946],[-12.2333,15.8836],[-12.2649,15.8616],[-12.2966,15.8022],[-12.4724,15.6557],[-12.4979,15.5599],[-12.5375,15.5394],[-12.6946,15.3072],[-12.7468,15.1304],[-12.6915,15.0843],[-12.6816,15.1047],[-12.6599,15.1071],[-12.6077,15.0828],[-12.5509,15.0306],[-12.4923,15.0137],[-12.4615,14.982],[-12.4532,14.8929],[-12.3962,14.8444],[-12.3259,14.8249],[-12.2805,14.773],[-12.221,14.7569],[-12.1361,14.7728],[-12.1118,14.7453],[-12.057,14.7156],[-12.0472,14.7582],[-11.9789,14.7616],[-11.9481,14.7832],[-11.9368,14.8137],[-11.8693,14.8444],[-11.8077,14.8968],[-11.817,14.929],[-11.7923,15.0252],[-11.8015,15.0438],[-11.8379,15.0373],[-11.8469,15.0484],[-11.8347,15.0711],[-11.8472,15.0915],[-11.8163,15.1356],[-11.8367,15.1799],[-11.8067,15.2326],[-11.7973,15.3047],[-11.7711,15.3371],[-11.7473,15.4562],[-11.7149,15.4875],[-11.7119,15.5375],[-11.7027,15.5325],[-11.7048,15.5511],[-11.6673,15.6313],[-11.6562,15.7183],[-11.5967,15.7982],[-11.5957,15.8405],[-11.5721,15.8509],[-11.5583,15.8751],[-11.5577,15.9108],[-11.5003,15.9694],[-11.6616,15.9987],[-11.6779,16.0136],[-11.6771,16.0311],[-11.7192,16.0294],[-11.7553,16.0505],[-11.7853,16.0282],[-11.8206,16.0562],[-11.818,16.0078],[-11.7944,15.967],[-11.8066,15.9491],[-11.8347,15.9455],[-11.8304,15.9075],[-11.879,15.916],[-11.9443,15.9005],[-11.9702,15.9343],[-12.0049,15.9394]]]}},{"type":"Feature","properties":{"name":"Hodh ech Chargui","code":"64602211B22115476481884","iso":"MRT"},"geometry":{"type":"Polygon","coordinates":[[[-7.9877,19.7255],[-9.1497,17.2824],[-8.5983,17.3507],[-8.2892,17.0231],[-8.8937,16.3918],[-8.8691,16.3217],[-9.0675,16.0622],[-8.9695,15.857],[-8.9593,15.5391],[-9.0008,15.4975],[-5.5149,15.5019],[-5.3271,16.3331],[-5.6028,16.4994],[-5.9981,20.0352],[-5.9997,20.1302],[-6.3548,23.1581],[-7.9877,19.7255]]]}},{"type":"Feature","properties":{"name":"Hodh el Gharbi","code":"64602211B52393032227980","iso":"MRT"},"geometry":{"type":"Polygon","coordinates":[[[-10.5846,15.4277],[-10.4948,15.4405],[-10.3364,15.4335],[-10.1315,15.367],[-9.9983,15.3566],[-9.9225,15.3739],[-9.8629,15.3598],[-9.8113,15.365],[-9.7517,15.4085],[-9.7124,15.4048],[-9.6976,15.4275],[-9.4082,15.4344],[-9.4429,15.5976],[-9.332,15.6923],[-9.3111,15.6662],[-9.3325,15.5686],[-9.3285,15.4963],[-9.0008,15.4975],[-8.9593,15.5391],[-8.9695,15.857],[-9.0675,16.0622],[-8.8691,16.3217],[-8.8937,16.3918],[-8.2892,17.0231],[-8.5983,17.3507],[-9.1497,17.2824],[-9.7227,17.5564],[-10.3325,17.5183],[-11.0794,17.7229],[-11.0958,17.6635],[-11.0742,17.6298],[-11.0719,17.5551],[-10.9833,17.3785],[-10.9939,17.3202],[-10.9804,17.284],[-11.0122,17.1689],[-10.9799,17.1174],[-10.9965,17.0002],[-10.984,16.9115],[-10.9932,16.8893],[-10.9789,16.8685],[-10.9983,16.82],[-10.9713,16.8146],[-10.9778,16.8017],[-10.951,16.7852],[-10.9416,16.7522],[-10.9122,16.7531],[-10.889,16.7347],[-10.8721,16.7131],[-10.872,16.6631],[-10.8266,16.6032],[-10.7724,16.5934],[-10.7477,16.6085],[-10.7362,16.5955],[-10.7073,16.6054],[-10.6984,16.5946],[-10.7041,16.5679],[-10.7363,16.5664],[-10.7314,16.5452],[-10.7684,16.5094],[-10.8232,16.4766],[-10.8518,16.4825],[-10.8739,16.4572],[-10.8287,16.4267],[-10.831,16.4125],[-10.8027,16.4042],[-10.8095,16.3735],[-10.8281,16.3717],[-10.8352,16.3573],[-10.8288,16.3346],[-10.8465,16.3059],[-10.8316,16.2808],[-10.8439,16.2582],[-10.7813,16.228],[-10.7595,16.1928],[-10.7604,16.1031],[-10.7746,16.086],[-10.7786,16.0449],[-10.6685,15.9482],[-10.5846,15.4277]]]}},{"type":"Feature","properties":{"name":"Inchiri","code":"64602211B38857826595310","iso":"MRT"},"geometry":{"type":"Polygon","coordinates":[[[-14.1731,21.1446],[-15.8398,21.1508],[-15.5784,20.7375],[-16.2829,19.4951],[-16.3192,19.4528],[-16.3365,19.4587],[-16.3632,19.4254],[-16.4446,19.3765],[-16.4799,19.3713],[-16.501,19.3801],[-16.5035,19.3888],[-16.4879,19.3813],[-16.4982,19.3918],[-16.5446,19.3854],[-16.5096,19.3482],[-16.4721,19.2565],[-16.326,19.1637],[-16.2518,19.0718],[-16.2185,18.9959],[-14.2217,19.0006],[-14.2196,19.4286],[-14.1544,21.1181],[-14.1731,21.1446]]]}},{"type":"Feature","properties":{"name":"Nouakchott","code":"64602211B45475199809733","iso":"MRT"},"geometry":{"type":"Polygon","coordinates":[[[-16.0365,17.8865],[-15.7814,17.8866],[-15.7811,18.3931],[-16.0501,18.3903],[-16.024,18.0751],[-16.0243,17.9999],[-16.0379,17.9882],[-16.0204,17.9821],[-16.0365,17.8865]]]}},{"type":"Feature","properties":{"name":"Tagant","code":"64602211B48349945606013","iso":"MRT"},"geometry":{"type":"Polygon","coordinates":[[[-12.669,18.5571],[-12.4787,18.2743],[-12.5448,17.4919],[-12.4095,17.3556],[-12.3102,17.2755],[-12.2871,17.2234],[-12.2442,17.1935],[-11.9175,17.0804],[-11.7525,17.1392],[-11.5675,17.1238],[-11.5271,17.1773],[-11.5182,17.3854],[-11.4787,17.4201],[-11.5184,17.4641],[-11.5047,17.4748],[-11.5214,17.5026],[-11.4964,17.4951],[-11.5045,17.5172],[-11.4959,17.5259],[-11.484,17.5079],[-11.4617,17.5053],[-11.4621,17.5273],[-11.4476,17.538],[-11.4597,17.5536],[-11.4882,17.5483],[-11.4886,17.5327],[-11.4978,17.5424],[-11.5182,17.5374],[-11.5203,17.5605],[-11.509,17.5541],[-11.507,17.5848],[-11.4895,17.5658],[-11.404,17.6139],[-11.43,17.6606],[-11.4246,17.6711],[-11.4723,17.7383],[-11.4865,17.7388],[-11.4827,17.7499],[-11.5267,17.8079],[-11.5238,17.8233],[-11.4945,17.8159],[-11.4864,17.8464],[-11.5415,17.8809],[-11.5709,17.9387],[-11.5982,17.9457],[-11.5741,17.9933],[-11.5484,17.9977],[-11.5607,18.0449],[-11.5117,18.0454],[-11.4958,18.0318],[-11.5001,18.0526],[-11.4825,18.0835],[-11.4072,18.0903],[-11.3833,18.0713],[-11.3484,18.0734],[-11.344,18.0532],[-11.2697,18.0985],[-11.204,18.0874],[-11.2005,18.128],[-11.1684,18.1583],[-11.2045,18.1549],[-11.135,18.2472],[-11.0584,18.291],[-11.0341,18.2959],[-11.0164,18.2827],[-10.9706,18.311],[-11.0794,17.7229],[-10.3325,17.5183],[-9.7227,17.5564],[-9.1497,17.2824],[-7.9877,19.7255],[-11.0348,19.7114],[-11.4225,19.4089],[-11.4506,19.2031],[-11.6779,19.3199],[-12.3421,18.8996],[-12.669,18.5571]]]}},{"type":"Feature","properties":{"name":"Tiris Zemmour","code":"64602211B50097143527370","iso":"MRT"},"geometry":{"type":"Polygon","coordinates":[[[-6.4855,24.3067],[-6.5644,25],[-4.8277,24.9966],[-5.8412,25.6354],[-7,26.3414],[-8.6739,27.2981],[-8.6742,25.9976],[-12.0039,25.9986],[-12,23.4545],[-12.7598,23.3876],[-12.8249,23.3496],[-12.8988,23.2825],[-13.0456,23.0832],[-13.0852,22.9945],[-13.1457,22.7314],[-13.03,21.5814],[-12.378,21.3517],[-10.7878,21.52],[-6.4989,24.2808],[-6.4855,24.3067]]]}},{"type":"Feature","properties":{"name":"Trarza","code":"64602211B44145471606678","iso":"MRT"},"geometry":{"type":"Polygon","coordinates":[[[-14.2217,19.0006],[-16.2185,18.9959],[-16.181,18.911],[-16.1354,18.6615],[-16.0937,18.5801],[-16.0601,18.4754],[-16.0501,18.3903],[-15.7811,18.3931],[-15.7814,17.8866],[-16.0365,17.8865],[-16.0399,17.7201],[-16.1057,17.4382],[-16.4412,16.6196],[-16.4543,16.491],[-16.5207,16.2771],[-16.5096,16.0617],[-16.4834,16.0622],[-16.4483,16.1004],[-16.4613,16.1228],[-16.459,16.1837],[-16.4472,16.2035],[-16.4188,16.2213],[-16.3906,16.2175],[-16.3581,16.2677],[-16.3686,16.3159],[-16.3342,16.3515],[-16.3354,16.3952],[-16.3131,16.4101],[-16.3098,16.4573],[-16.2671,16.5237],[-16.1906,16.5201],[-16.1517,16.5505],[-16.1133,16.5562],[-16.1001,16.5459],[-16.0997,16.5228],[-16.0545,16.479],[-16.0023,16.5032],[-15.967,16.4849],[-15.9416,16.5411],[-15.9081,16.5621],[-15.9244,16.5094],[-15.8685,16.5144],[-15.8586,16.492],[-15.8109,16.5088],[-15.7,16.4721],[-15.6331,16.491],[-15.6235,16.529],[-15.5614,16.5126],[-15.5182,16.5221],[-15.5093,16.5294],[-15.516,16.5631],[-15.4695,16.5927],[-15.4448,16.5854],[-15.427,16.5463],[-15.4084,16.5383],[-15.3091,16.574],[-15.2259,16.5526],[-15.1718,16.5881],[-15.1213,16.5774],[-15.0896,16.5993],[-15.0858,16.62],[-15.1203,16.6445],[-15.0975,16.6773],[-15.0776,16.6725],[-15.0528,16.6276],[-15.006,16.6404],[-14.9893,16.6909],[-14.9544,16.6786],[-14.9523,16.6622],[-14.882,16.7296],[-14.5949,16.8695],[-14.5692,16.9094],[-14.3201,17.0881],[-13.9587,17.6036],[-13.7336,17.8001],[-12.669,18.5571],[-13.2442,19.0006],[-14.2217,19.0006]]]}}]}