{"type":"FeatureCollection","features":[{"type":"Feature","properties":{"name":"Black River","code":"65221844B99203907341133","iso":"MUS"},"geometry":{"type":"Polygon","coordinates":[[[57.4718,-20.175],[57.4674,-20.1641],[57.4315,-20.1741],[57.3868,-20.2263],[57.3628,-20.2967],[57.379,-20.3238],[57.3604,-20.3549],[57.3803,-20.3666],[57.359,-20.3792],[57.3808,-20.392],[57.3673,-20.3965],[57.3679,-20.4147],[57.3442,-20.4454],[57.3221,-20.4423],[57.3224,-20.4325],[57.3084,-20.4665],[57.3385,-20.4585],[57.3545,-20.4867],[57.368,-20.4879],[57.3853,-20.4714],[57.3802,-20.4469],[57.449,-20.4138],[57.4638,-20.4211],[57.4628,-20.4013],[57.4382,-20.3917],[57.45,-20.3899],[57.4389,-20.3718],[57.45,-20.3431],[57.4705,-20.3477],[57.4495,-20.31],[57.4579,-20.2644],[57.4496,-20.2279],[57.4505,-20.2017],[57.4718,-20.175]]]}},{"type":"Feature","properties":{"name":"Flacq","code":"65221844B3325932502431","iso":"MUS"},"geometry":{"type":"MultiPolygon","coordinates":[[[[57.7975,-20.2783],[57.8101,-20.2748],[57.8038,-20.2637],[57.7975,-20.2783]]],[[[57.6175,-20.1669],[57.6663,-20.206],[57.6292,-20.2325],[57.6685,-20.2681],[57.6539,-20.3291],[57.7182,-20.3334],[57.7808,-20.3131],[57.7746,-20.2804],[57.7895,-20.2948],[57.7978,-20.2671],[57.7878,-20.2399],[57.8092,-20.2309],[57.7766,-20.1942],[57.7724,-20.168],[57.7417,-20.159],[57.7487,-20.1482],[57.7397,-20.1431],[57.7585,-20.1281],[57.7475,-20.1088],[57.6175,-20.1669]]]]}},{"type":"Feature","properties":{"name":"Grand Port","code":"65221844B660734165567","iso":"MUS"},"geometry":{"type":"Polygon","coordinates":[[[57.6518,-20.3265],[57.6004,-20.3352],[57.5223,-20.3972],[57.5621,-20.4029],[57.6226,-20.4949],[57.6834,-20.474],[57.7087,-20.4485],[57.6992,-20.4406],[57.7231,-20.4411],[57.728,-20.4267],[57.6927,-20.3952],[57.7013,-20.3949],[57.7017,-20.3699],[57.7141,-20.3787],[57.7345,-20.3718],[57.7455,-20.3534],[57.7657,-20.3487],[57.7646,-20.3374],[57.7792,-20.3379],[57.7687,-20.3314],[57.7808,-20.3131],[57.7182,-20.3334],[57.6518,-20.3265]]]}},{"type":"Feature","properties":{"name":"Moka","code":"65221844B64352145242214","iso":"MUS"},"geometry":{"type":"Polygon","coordinates":[[[57.6175,-20.1669],[57.5693,-20.1967],[57.5327,-20.1996],[57.4972,-20.1779],[57.4708,-20.1885],[57.4838,-20.2358],[57.5243,-20.2481],[57.555,-20.321],[57.6178,-20.3369],[57.6518,-20.3265],[57.6685,-20.2681],[57.6292,-20.2325],[57.6663,-20.206],[57.6175,-20.1669]]]}},{"type":"Feature","properties":{"name":"Pamplemousses","code":"65221844B91551715822340","iso":"MUS"},"geometry":{"type":"Polygon","coordinates":[[[57.6436,-20.1519],[57.6281,-20.1191],[57.6487,-20.104],[57.6004,-20.0762],[57.6148,-20.0503],[57.5676,-20.0135],[57.5705,-20.0035],[57.5518,-20.0001],[57.5558,-20.0191],[57.5245,-20.0465],[57.5082,-20.0919],[57.5172,-20.1069],[57.5021,-20.1131],[57.4985,-20.1377],[57.545,-20.1437],[57.5644,-20.1966],[57.6436,-20.1519]]]}},{"type":"Feature","properties":{"name":"Plaines Wilhems","code":"65221844B21568199301359","iso":"MUS"},"geometry":{"type":"Polygon","coordinates":[[[57.4638,-20.4211],[57.4816,-20.4197],[57.4959,-20.3916],[57.5223,-20.3972],[57.6004,-20.3352],[57.555,-20.321],[57.5243,-20.2481],[57.4838,-20.2358],[57.4731,-20.1825],[57.4505,-20.2017],[57.4496,-20.2279],[57.4579,-20.2644],[57.4495,-20.31],[57.4705,-20.3477],[57.45,-20.3431],[57.4392,-20.3634],[57.4504,-20.3817],[57.4383,-20.3939],[57.4628,-20.4013],[57.4638,-20.4211]]]}},{"type":"Feature","properties":{"name":"Port Louis","code":"65221844B53255720811613","iso":"MUS"},"geometry":{"type":"Polygon","coordinates":[[[57.4731,-20.1825],[57.4972,-20.1779],[57.5431,-20.1992],[57.5557,-20.1911],[57.5525,-20.1573],[57.5418,-20.1414],[57.4973,-20.1385],[57.4871,-20.1473],[57.5049,-20.1569],[57.4828,-20.1532],[57.4731,-20.1825]]]}},{"type":"Feature","properties":{"name":"Rivière du Rempart","code":"65221844B93227578092779","iso":"MUS"},"geometry":{"type":"Polygon","coordinates":[[[57.7475,-20.1088],[57.7102,-20.0999],[57.7116,-20.0865],[57.6908,-20.0743],[57.675,-20.0177],[57.6823,-20.0084],[57.6107,-19.9821],[57.5893,-19.9882],[57.5834,-20.0144],[57.5693,-20.0151],[57.6148,-20.0503],[57.6004,-20.0762],[57.6487,-20.104],[57.6281,-20.1191],[57.6436,-20.1519],[57.7475,-20.1088]]]}},{"type":"Feature","properties":{"name":"Savanne","code":"65221844B93866494923153","iso":"MUS"},"geometry":{"type":"Polygon","coordinates":[[[57.3735,-20.4797],[57.3712,-20.4908],[57.4166,-20.5121],[57.4476,-20.5013],[57.5273,-20.5252],[57.6226,-20.4949],[57.5621,-20.4029],[57.5014,-20.3905],[57.4844,-20.4007],[57.4816,-20.4197],[57.449,-20.4138],[57.3802,-20.4469],[57.3853,-20.4714],[57.3735,-20.4797]]]}},{"type":"Feature","properties":{"name":"Rodrigues","code":"65221844B37057547030311","iso":"MUS"},"geometry":{"type":"Polygon","coordinates":[[[63.3973,-19.7587],[63.3936,-19.7483],[63.4682,-19.7417],[63.4988,-19.7198],[63.4987,-19.6837],[63.4415,-19.669],[63.4097,-19.6915],[63.3883,-19.6905],[63.3779,-19.7117],[63.3351,-19.72],[63.3346,-19.7487],[63.3592,-19.7355],[63.3601,-19.7638],[63.3817,-19.7714],[63.3973,-19.7587]]]}},{"type":"Feature","properties":{"name":"St. Brandon","code":"65221844B12885462064369","iso":"MUS"},"geometry":{"type":"Polygon","coordinates":[[[59.5732,-16.7578],[59.5754,-16.7474],[59.5744,-16.7419],[59.5725,-16.74],[59.5719,-16.7301],[59.5686,-16.732],[59.5696,-16.7337],[59.5675,-16.7365],[59.5711,-16.7432],[59.5713,-16.7478],[59.57,-16.75],[59.5709,-16.7589],[59.5732,-16.7578]]]}},{"type":"Feature","properties":{"name":"Agaléga","code":"65221844B83452679821580","iso":"MUS"},"geometry":{"type":"MultiPolygon","coordinates":[[[[56.6907,-10.4905],[56.7044,-10.4787],[56.7004,-10.4651],[56.6582,-10.443],[56.6907,-10.4905]]],[[[56.6442,-10.4253],[56.5876,-10.3372],[56.6133,-10.3985],[56.6468,-10.4331],[56.6442,-10.4253]]]]}}]}