{"type":"FeatureCollection","features":[{"type":"Feature","properties":{"name":"Central Region","code":"82672581B12520625652479","iso":"MWI"},"geometry":{"type":"Polygon","coordinates":[[[33.5486,-12.364],[33.4921,-12.4217],[33.4738,-12.4175],[33.4587,-12.4748],[33.4019,-12.5111],[33.4057,-12.5239],[33.3754,-12.554],[33.3343,-12.5328],[33.2719,-12.5485],[33.18,-12.6377],[33.1814,-12.6136],[33.1529,-12.5985],[33.1158,-12.6102],[33.093,-12.5978],[33.0487,-12.5992],[32.9526,-12.7616],[32.9371,-12.7683],[32.9548,-12.8609],[32.976,-12.8861],[33.0175,-12.8923],[33.0204,-12.9039],[32.984,-13.1123],[33.0068,-13.2103],[32.9434,-13.2987],[32.9201,-13.4059],[32.8876,-13.4631],[32.8598,-13.4689],[32.8477,-13.5258],[32.7473,-13.5767],[32.6973,-13.5592],[32.6771,-13.5646],[32.6759,-13.6212],[32.7187,-13.6509],[32.7837,-13.6495],[32.839,-13.7037],[32.8429,-13.722],[32.7726,-13.7695],[32.7687,-13.7851],[32.8093,-13.8159],[32.8787,-13.8212],[32.9104,-13.8398],[32.9173,-13.8834],[32.9498,-13.9017],[32.9684,-13.9376],[32.9979,-13.9428],[32.9907,-14.0184],[33.0226,-14.0498],[33.0393,-14.0528],[33.0651,-14.0216],[33.0703,-13.9866],[33.1354,-13.9612],[33.1615,-13.9227],[33.2053,-14.0015],[33.2423,-13.9983],[33.2683,-14.0283],[33.3003,-14.0319],[33.3222,-14.0844],[33.3039,-14.1066],[33.2986,-14.1482],[33.3342,-14.1843],[33.3419,-14.217],[33.3604,-14.2209],[33.3647,-14.2101],[33.3851,-14.2197],[33.3833,-14.2381],[33.4451,-14.3284],[33.4479,-14.3621],[33.4702,-14.401],[33.5125,-14.4239],[33.5284,-14.4197],[33.5623,-14.4785],[33.6079,-14.4921],[33.6342,-14.5872],[33.6662,-14.604],[33.6651,-14.6158],[33.6852,-14.6132],[33.6917,-14.5915],[33.718,-14.5779],[33.7027,-14.5378],[33.7168,-14.5012],[33.7397,-14.5003],[33.8016,-14.552],[33.8245,-14.546],[33.8579,-14.5116],[33.8856,-14.5165],[33.8838,-14.4995],[33.936,-14.4706],[33.9402,-14.4797],[34.087,-14.4896],[34.0849,-14.4586],[34.2126,-14.4419],[34.2347,-14.4249],[34.2644,-14.4313],[34.3,-14.3992],[34.3125,-14.4061],[34.3576,-14.3864],[34.3934,-14.3957],[34.4646,-14.5195],[34.4979,-14.5536],[34.5158,-14.5547],[34.5436,-14.6055],[34.5515,-14.6479],[34.5206,-14.6872],[34.584,-14.8113],[34.5723,-14.826],[34.5771,-14.8738],[34.5653,-14.8989],[34.58,-14.9082],[34.5923,-14.9597],[34.6164,-14.9793],[34.6224,-15.0027],[34.6037,-15.0417],[34.5731,-15.0673],[34.5738,-15.0865],[34.5919,-15.0962],[34.5688,-15.1238],[34.5804,-15.1399],[34.5776,-15.1994],[34.6705,-15.2415],[34.6928,-15.23],[34.7053,-15.2447],[34.777,-15.2479],[34.7893,-15.2561],[34.7835,-15.266],[34.8048,-15.2683],[34.812,-15.2998],[34.8028,-15.3201],[34.8123,-15.3296],[34.8309,-15.3057],[34.835,-15.2463],[34.8974,-15.0027],[34.8979,-14.9571],[34.9355,-14.8517],[34.9613,-14.8634],[34.9717,-14.7754],[34.9569,-14.746],[34.9168,-14.7346],[34.9252,-14.7132],[34.7754,-14.5673],[34.7867,-14.5121],[34.7518,-14.4901],[34.7421,-14.45],[34.7489,-14.3852],[34.7222,-14.3375],[34.7395,-14.279],[34.6855,-14.2865],[34.6912,-14.2338],[34.6337,-14.2167],[34.5995,-14.1855],[34.6015,-14.1593],[34.5632,-14.1345],[34.5322,-14.0552],[34.5153,-13.9718],[34.5966,-13.8795],[34.586,-13.827],[34.621,-13.7775],[34.6067,-13.7573],[34.6308,-13.7134],[34.5965,-13.69],[34.594,-13.6668],[34.549,-13.6352],[34.5273,-13.5777],[34.5357,-13.6147],[34.4985,-13.5815],[34.439,-13.5943],[34.385,-13.527],[34.3625,-13.4585],[34.3032,-13.3818],[34.297,-13.3387],[34.347,-13.2688],[34.3375,-13.1475],[34.3262,-13.1261],[34.3338,-13.0192],[34.3107,-12.9395],[34.3028,-12.9455],[34.2965,-12.8748],[34.2563,-12.8295],[34.2715,-12.7955],[34.2509,-12.7915],[34.272,-12.7915],[34.2773,-12.754],[34.2205,-12.7188],[34.1767,-12.6335],[34.1743,-12.5732],[34.2028,-12.5215],[34.1743,-12.4243],[34.161,-12.4038],[34.114,-12.4005],[34.0765,-12.374],[34.0333,-12.302],[34.0139,-12.2331],[33.9925,-12.2239],[33.9836,-12.2367],[33.9564,-12.2181],[33.9108,-12.2157],[33.9032,-12.195],[33.8728,-12.1929],[33.8625,-12.1591],[33.8272,-12.166],[33.8149,-12.1887],[33.7542,-12.2281],[33.7643,-12.2582],[33.7588,-12.2997],[33.7833,-12.2937],[33.7946,-12.3126],[33.8621,-12.3207],[33.8679,-12.3597],[33.8947,-12.3804],[33.883,-12.4105],[33.8904,-12.455],[33.919,-12.49],[33.9503,-12.4737],[33.9899,-12.5081],[34.0266,-12.5084],[34.0306,-12.5187],[34.0774,-12.4925],[34.1012,-12.5028],[34.0654,-12.5332],[34.0679,-12.5726],[33.9826,-12.5892],[33.9664,-12.6232],[33.9282,-12.617],[33.9225,-12.6383],[33.8985,-12.6316],[33.8387,-12.713],[33.8058,-12.7093],[33.7898,-12.7199],[33.7672,-12.6844],[33.6703,-12.7302],[33.6021,-12.6854],[33.5697,-12.6809],[33.5529,-12.5945],[33.5794,-12.557],[33.5553,-12.5291],[33.5329,-12.4633],[33.587,-12.4496],[33.6078,-12.3741],[33.5486,-12.364]]]}},{"type":"Feature","properties":{"name":"Southern Region","code":"82672581B71595037145626","iso":"MWI"},"geometry":{"type":"Polygon","coordinates":[[[34.5835,-15.2105],[34.6035,-15.237],[34.6033,-15.2654],[34.5984,-15.2871],[34.5709,-15.3094],[34.5752,-15.3255],[34.5564,-15.3405],[34.5407,-15.3286],[34.5222,-15.3485],[34.5105,-15.4142],[34.4944,-15.4083],[34.4723,-15.4303],[34.4411,-15.4233],[34.4444,-15.4553],[34.4254,-15.4753],[34.4264,-15.4933],[34.4417,-15.5348],[34.439,-15.5858],[34.458,-15.6089],[34.4303,-15.6265],[34.4352,-15.6647],[34.3914,-15.686],[34.3645,-15.7425],[34.3263,-15.7443],[34.272,-15.7968],[34.2736,-15.8146],[34.2554,-15.8238],[34.2491,-15.8441],[34.2598,-15.8695],[34.2514,-15.8785],[34.2637,-15.887],[34.2515,-15.8966],[34.2581,-15.9177],[34.308,-15.931],[34.3261,-15.9447],[34.328,-15.9641],[34.3554,-15.9642],[34.3883,-16.026],[34.4302,-16.0433],[34.4234,-16.0504],[34.4364,-16.0691],[34.4055,-16.1219],[34.3977,-16.1853],[34.4309,-16.2643],[34.4538,-16.2819],[34.4758,-16.2791],[34.4902,-16.2964],[34.524,-16.2799],[34.5439,-16.3053],[34.5704,-16.3144],[34.5688,-16.345],[34.5897,-16.3697],[34.5939,-16.4179],[34.6421,-16.4367],[34.6521,-16.4532],[34.681,-16.4385],[34.6823,-16.503],[34.718,-16.4964],[34.7524,-16.5128],[34.7772,-16.5492],[34.7725,-16.5859],[34.8425,-16.6072],[34.8583,-16.6759],[34.9101,-16.6937],[34.9197,-16.7474],[34.9674,-16.7392],[34.9847,-16.7489],[34.9901,-16.789],[35.0308,-16.8078],[35.0418,-16.8288],[35.064,-16.8356],[35.0726,-16.8195],[35.1358,-16.8181],[35.1575,-16.8398],[35.1614,-16.8617],[35.1462,-16.8739],[35.1715,-16.9379],[35.1551,-16.9352],[35.1354,-16.9713],[35.0629,-16.994],[35.051,-17.0105],[35.0637,-17.0216],[35.0565,-17.0494],[35.1085,-17.0872],[35.0792,-17.1125],[35.0974,-17.1295],[35.307,-17.125],[35.301,-17.0973],[35.3138,-17.0625],[35.2974,-17.0599],[35.292,-17.0345],[35.3049,-16.9816],[35.2941,-16.9616],[35.2676,-16.96],[35.2741,-16.9506],[35.2631,-16.94],[35.285,-16.9015],[35.2706,-16.8937],[35.3147,-16.8305],[35.2895,-16.7963],[35.2886,-16.7103],[35.2357,-16.6705],[35.2285,-16.6465],[35.2147,-16.6543],[35.2059,-16.6375],[35.167,-16.6196],[35.1726,-16.6084],[35.1601,-16.6097],[35.1435,-16.5623],[35.1772,-16.5401],[35.178,-16.5254],[35.2116,-16.5164],[35.2129,-16.4999],[35.2619,-16.475],[35.2632,-16.3987],[35.3029,-16.3457],[35.2783,-16.3258],[35.2991,-16.2656],[35.2961,-16.2321],[35.3887,-16.1536],[35.4055,-16.1249],[35.4331,-16.1135],[35.4863,-16.1205],[35.4967,-16.1546],[35.524,-16.1681],[35.5436,-16.1554],[35.5575,-16.1216],[35.5698,-16.1342],[35.5791,-16.1244],[35.5939,-16.1337],[35.673,-16.0957],[35.6823,-16.1054],[35.7123,-16.1012],[35.8176,-16.0277],[35.8052,-15.9647],[35.8531,-15.4191],[35.7901,-15.17],[35.9186,-14.8954],[35.8721,-14.8954],[35.8721,-14.6756],[35.5206,-14.2592],[35.4868,-14.1707],[35.2274,-13.881],[35.0896,-13.6993],[34.8669,-13.4831],[34.8675,-13.532],[34.8485,-13.5557],[34.8558,-13.656],[34.8355,-13.6755],[34.8477,-13.7112],[34.885,-13.735],[35.005,-13.7257],[35.0615,-13.739],[35.0875,-13.834],[35.1108,-13.8637],[35.1287,-13.947],[35.1198,-13.9612],[35.1418,-13.978],[35.1427,-14.001],[35.1818,-14.047],[35.179,-14.1212],[35.199,-14.1728],[35.2233,-14.1883],[35.226,-14.2505],[35.2503,-14.2707],[35.296,-14.368],[35.2338,-14.4277],[35.2257,-14.3948],[35.1765,-14.3697],[35.1386,-14.3028],[35.1118,-14.2963],[35.087,-14.2635],[35.0757,-14.2133],[35.0412,-14.2015],[35.0373,-14.1758],[35.0065,-14.1828],[34.9967,-14.1617],[34.969,-14.1695],[34.9402,-14.1547],[34.9258,-14.1165],[34.9327,-14.0832],[34.9287,-14.0682],[34.917,-14.0715],[34.916,-14.0452],[34.8631,-13.9994],[34.8489,-13.9996],[34.8465,-14.0187],[34.8222,-14.0397],[34.8655,-14.1107],[34.8353,-14.1233],[34.811,-14.1512],[34.8192,-14.2122],[34.8077,-14.25],[34.7395,-14.279],[34.7222,-14.3375],[34.7489,-14.3852],[34.7421,-14.45],[34.7518,-14.4901],[34.7867,-14.5121],[34.7754,-14.5673],[34.9252,-14.7132],[34.9168,-14.7346],[34.9569,-14.746],[34.9744,-14.7935],[34.9584,-14.8311],[34.9613,-14.8634],[34.9355,-14.8517],[34.8979,-14.9571],[34.8974,-15.0027],[34.824,-15.3239],[34.8056,-15.3271],[34.8048,-15.2683],[34.7835,-15.266],[34.7893,-15.2561],[34.777,-15.2479],[34.7053,-15.2447],[34.6928,-15.23],[34.6705,-15.2415],[34.6586,-15.2282],[34.5835,-15.2105]]]}},{"type":"Feature","properties":{"name":"Northern Region","code":"82672581B33227208107325","iso":"MWI"},"geometry":{"type":"MultiPolygon","coordinates":[[[[34.0209,-12.2436],[34.0267,-12.1672],[34.0618,-12.0833],[34.057,-12.0155],[34.0907,-11.9715],[34.1805,-11.9238],[34.1661,-11.891],[34.177,-11.8231],[34.2362,-11.7865],[34.2555,-11.75],[34.3013,-11.7308],[34.3267,-11.6723],[34.2985,-11.6067],[34.3038,-11.576],[34.2737,-11.5185],[34.2837,-11.4715],[34.262,-11.3328],[34.2275,-11.3018],[34.218,-11.2585],[34.2335,-11.2387],[34.2082,-11.2058],[34.2107,-11.1632],[34.2377,-11.1158],[34.2251,-11.1027],[34.233,-11.0928],[34.2122,-11.016],[34.2233,-10.9953],[34.223,-10.9362],[34.2037,-10.777],[34.215,-10.7423],[34.1863,-10.7055],[34.1995,-10.6418],[34.1733,-10.596],[34.1803,-10.568],[34.2313,-10.5307],[34.206,-10.5038],[34.2135,-10.4725],[34.2571,-10.4456],[34.2752,-10.4573],[34.2501,-10.4256],[34.2556,-10.3964],[34.245,-10.37],[34.175,-10.3067],[34.175,-10.281],[34.1078,-10.2332],[34.0898,-10.1988],[34.066,-10.187],[34.0622,-10.162],[34.0135,-10.122],[34.0015,-10.1027],[34.0007,-10.0578],[33.9385,-9.9753],[33.9501,-9.9078],[33.9409,-9.8912],[33.9279,-9.8932],[33.9036,-9.8454],[33.9069,-9.8059],[33.8885,-9.7613],[33.9047,-9.7353],[33.9398,-9.7188],[33.9331,-9.7096],[33.9155,-9.7145],[33.9072,-9.6929],[33.8137,-9.6324],[33.8137,-9.617],[33.7734,-9.5864],[33.7225,-9.5837],[33.6989,-9.6145],[33.6281,-9.6041],[33.5866,-9.5793],[33.5538,-9.5875],[33.542,-9.6101],[33.5108,-9.6259],[33.4433,-9.6143],[33.4205,-9.5939],[33.4256,-9.5774],[33.3945,-9.535],[33.3633,-9.5266],[33.326,-9.4861],[33.3052,-9.4836],[33.2782,-9.5008],[33.2448,-9.4881],[33.2124,-9.5098],[33.1443,-9.4933],[32.9927,-9.3683],[32.9481,-9.4154],[32.9889,-9.4919],[33.0161,-9.5075],[32.9939,-9.5625],[32.9931,-9.6222],[33.0186,-9.6331],[33.0606,-9.6161],[33.0772,-9.6528],[33.0997,-9.6658],[33.1136,-9.5867],[33.1403,-9.6003],[33.2061,-9.6031],[33.2275,-9.6297],[33.2497,-9.7183],[33.3064,-9.8042],[33.3619,-9.8231],[33.3886,-9.8956],[33.3892,-9.9175],[33.3603,-9.9361],[33.3147,-10.0339],[33.3175,-10.0556],[33.4047,-10.0953],[33.4625,-10.1556],[33.5553,-10.2122],[33.5606,-10.2456],[33.5444,-10.3419],[33.5725,-10.4011],[33.6361,-10.4625],[33.6369,-10.5105],[33.6749,-10.5541],[33.7025,-10.5622],[33.6772,-10.6006],[33.6336,-10.6247],[33.6281,-10.6469],[33.6086,-10.6453],[33.5533,-10.7022],[33.5397,-10.75],[33.5233,-10.7533],[33.5106,-10.7764],[33.4783,-10.7836],[33.4536,-10.8078],[33.4131,-10.7931],[33.3894,-10.8108],[33.3597,-10.8075],[33.3299,-10.8284],[33.3164,-10.8617],[33.2803,-10.8456],[33.2592,-10.8892],[33.2914,-10.9122],[33.305,-10.9389],[33.328,-11.0706],[33.4046,-11.1581],[33.3797,-11.2359],[33.3555,-11.2524],[33.3256,-11.3284],[33.3117,-11.3371],[33.3114,-11.3647],[33.2894,-11.3765],[33.2929,-11.4339],[33.2791,-11.4389],[33.2438,-11.4032],[33.2307,-11.4178],[33.2321,-11.4441],[33.246,-11.4564],[33.2383,-11.4648],[33.2559,-11.4748],[33.2604,-11.5392],[33.2407,-11.5539],[33.2429,-11.5876],[33.2479,-11.5962],[33.3009,-11.592],[33.3309,-11.612],[33.3304,-11.7867],[33.3404,-11.8292],[33.3276,-11.8901],[33.3484,-11.9237],[33.3326,-11.9873],[33.2742,-12.0647],[33.2569,-12.1402],[33.3074,-12.1868],[33.3114,-12.2487],[33.3761,-12.3479],[33.4755,-12.3254],[33.5347,-12.3418],[33.5617,-12.3727],[33.6078,-12.3741],[33.587,-12.4496],[33.5329,-12.4633],[33.5553,-12.5291],[33.5794,-12.557],[33.5529,-12.5945],[33.5697,-12.6809],[33.6021,-12.6854],[33.6551,-12.7282],[33.6923,-12.7268],[33.7258,-12.6979],[33.7672,-12.6844],[33.7898,-12.7199],[33.8058,-12.7093],[33.8387,-12.713],[33.8985,-12.6316],[33.9225,-12.6383],[33.9282,-12.617],[33.9664,-12.6232],[33.9826,-12.5892],[34.0679,-12.5726],[34.0654,-12.5332],[34.1012,-12.5028],[34.0774,-12.4925],[34.0306,-12.5187],[34.0266,-12.5084],[33.9899,-12.5081],[33.9503,-12.4737],[33.919,-12.49],[33.8904,-12.455],[33.883,-12.4105],[33.8947,-12.3804],[33.8679,-12.3597],[33.8621,-12.3207],[33.7554,-12.295],[33.7643,-12.2582],[33.7542,-12.2281],[33.8149,-12.1887],[33.8272,-12.166],[33.8605,-12.1586],[33.8728,-12.1929],[33.9032,-12.195],[33.9108,-12.2157],[33.9564,-12.2181],[33.9836,-12.2367],[33.9972,-12.2245],[34.0209,-12.2436]]],[[[34.6748,-12.0845],[34.7041,-12.1347],[34.7301,-12.1324],[34.7823,-12.0815],[34.7909,-12.0322],[34.7442,-12.0003],[34.7162,-12.0011],[34.6966,-12.0204],[34.6748,-12.0845]]],[[[34.5723,-12.0138],[34.5811,-12.0633],[34.6019,-12.0824],[34.6366,-12.079],[34.662,-12.0433],[34.66,-12.004],[34.6341,-11.9793],[34.5933,-11.9786],[34.5723,-12.0138]]]]}}]}