{"type":"FeatureCollection","features":[{"type":"Feature","properties":{"name":"Tahoua/Agadez","code":"87150794B58281898249288","iso":"NER"},"geometry":{"type":"Polygon","coordinates":[[[15.569,17.9994],[15.592,18.7948],[15.7556,19.9451],[15.999,20.3615],[15.7424,20.4584],[15.6865,20.5264],[15.6245,20.5379],[15.5927,20.5701],[15.5951,20.6098],[15.5279,20.6988],[15.524,20.7348],[15.4293,20.793],[15.4167,20.8181],[15.419,20.8663],[15.4816,20.9061],[15.5052,20.9686],[15.4811,20.998],[15.2819,21.451],[15.1978,21.4983],[15.199,21.9997],[14.9986,22.9996],[14.1885,22.6444],[13.7699,23.0002],[13.6189,23.1125],[13.5001,23.1776],[13.4129,23.2109],[12,23.5],[7.4594,20.8434],[5.813,19.4432],[4.2667,19.1456],[4.2667,17.0017],[4.2143,17],[4.197,16.8103],[4.1999,16.3951],[4.1184,16.3501],[4.0971,16.3232],[4.0682,16.2328],[3.9861,16.0808],[3.9945,16.0354],[3.9795,15.9927],[3.9801,15.9406],[3.9281,15.8644],[3.8859,15.7153],[4.1064,15.1239],[4.0999,14.9106],[4.2537,14.6578],[4.3317,14.6133],[4.425,14.4339],[4.4689,14.0531],[4.5728,13.8928],[4.615,13.7573],[4.6562,13.7271],[4.8738,13.781],[4.9095,13.7454],[4.9496,13.7345],[5.0768,13.7512],[5.2057,13.7361],[5.2811,13.7557],[5.3507,13.8346],[5.5298,13.8856],[5.7803,13.7803],[6.091,13.6772],[6.2828,13.6839],[6.2836,13.775],[6.3293,13.9174],[6.4172,13.9883],[6.5149,14.0399],[6.5272,14.0708],[6.5411,14.1925],[6.4653,14.3939],[6.5321,14.93],[6.5894,15.1717],[6.6737,15.4283],[7.1044,15.4489],[7.3244,15.3345],[7.4228,15.6011],[7.9072,15.5161],[8.0136,15.5336],[8.0981,15.5869],[8.3552,15.5797],[8.5444,15.6422],[8.9567,15.8675],[9.3225,16.0008],[11.0696,17.1026],[11.6253,17.3706],[11.9976,17.5001],[12.9975,17.9992],[15.569,17.9994]]]}},{"type":"Feature","properties":{"name":"Dossa","code":"87150794B47488127174201","iso":"NER"},"geometry":{"type":"Polygon","coordinates":[[[4.2537,14.6578],[4.2401,14.5181],[4.1567,14.4494],[4.0428,14.3947],[3.9622,14.3836],[3.8631,14.3117],[3.7886,14.2244],[3.7394,14.0242],[3.5278,13.8289],[3.3165,13.7453],[3.1719,13.8061],[3.1325,13.7317],[3.1092,13.6089],[2.9864,13.6094],[2.8814,13.5175],[2.8655,13.427],[2.8769,13.3946],[2.8662,13.3401],[2.8256,13.265],[2.7499,13.2814],[2.7094,13.2733],[2.5078,13.1937],[2.4744,13.1392],[2.5475,12.9981],[2.7283,12.9806],[2.7331,12.9464],[2.6126,12.8651],[2.6026,12.8299],[2.6347,12.5149],[2.7999,12.3906],[2.8386,12.3949],[2.8266,12.4086],[2.8702,12.3895],[2.9645,12.2861],[3.0148,12.2655],[3.0743,12.1808],[3.125,12.1575],[3.1279,12.1393],[3.2693,12.0161],[3.2577,11.9927],[3.279,11.9647],[3.2808,11.9388],[3.2989,11.9319],[3.3096,11.8923],[3.3273,11.8809],[3.4404,11.8772],[3.4814,11.8614],[3.5208,11.8175],[3.5228,11.7878],[3.5647,11.7725],[3.5539,11.727],[3.6095,11.6938],[3.681,11.7547],[3.6692,11.8107],[3.6293,11.831],[3.6198,11.9203],[3.6785,11.9765],[3.6717,12.0322],[3.6317,12.1193],[3.6667,12.2589],[3.6503,12.4018],[3.6535,12.5227],[3.9418,12.7467],[4.1035,12.9877],[4.1421,13.1619],[4.1416,13.4781],[4.2347,13.4779],[4.4657,13.6814],[4.6562,13.7271],[4.615,13.7573],[4.5728,13.8928],[4.4689,14.0531],[4.425,14.4339],[4.3317,14.6133],[4.2537,14.6578]]]}},{"type":"Feature","properties":{"name":"Niamey","code":"87150794B29979307394387","iso":"NER"},"geometry":{"type":"Polygon","coordinates":[[[2.2576,13.6005],[2.2331,13.633],[2.0461,13.5785],[1.966,13.59],[1.9237,13.5805],[1.9701,13.508],[2.0751,13.431],[2.1501,13.4375],[2.2111,13.487],[2.2576,13.6005]]]}},{"type":"Feature","properties":{"name":"Tillaberi","code":"87150794B24708462658640","iso":"NER"},"geometry":{"type":"Polygon","coordinates":[[[3.8859,15.7153],[3.8337,15.6757],[3.7037,15.6481],[3.5958,15.521],[3.5369,15.4852],[3.5363,15.4034],[3.4955,15.3578],[3.0315,15.4286],[3.02,15.3382],[2.6364,15.3468],[1.3115,15.2781],[0.9661,14.9811],[0.7448,14.9619],[0.691,14.9441],[0.5226,14.9982],[0.3946,14.964],[0.2301,14.9975],[0.2372,14.8875],[0.1933,14.8358],[0.2414,14.7522],[0.1667,14.5231],[0.1894,14.4647],[0.2964,14.3672],[0.3211,14.3628],[0.4108,14.2458],[0.3947,14.2267],[0.3939,14.1828],[0.3514,14.1269],[0.3931,14.0847],[0.3856,14.0431],[0.4172,14.0231],[0.4242,13.9836],[0.4711,13.9556],[0.465,13.9136],[0.5828,13.7886],[0.6167,13.7781],[0.5969,13.7178],[0.6203,13.6869],[0.7811,13.6842],[0.7744,13.6442],[0.8328,13.625],[0.8672,13.6325],[0.9022,13.6228],[0.9953,13.5681],[1.0178,13.5283],[1.0144,13.4869],[1.0317,13.4625],[1.1708,13.3964],[1.2444,13.3931],[1.2853,13.35],[1.2397,13.3403],[1.2042,13.3681],[1.1822,13.3128],[0.9917,13.3717],[0.9892,13.0472],[1.0114,13.0239],[1.1172,13.0111],[1.5783,12.63],[1.8717,12.6089],[1.9281,12.7006],[1.9503,12.6922],[1.9889,12.7311],[2.0417,12.7172],[2.0961,12.7256],[2.1425,12.6944],[2.1547,12.6514],[2.2008,12.6308],[2.2208,12.5936],[2.2256,12.5164],[2.2639,12.4733],[2.2642,12.4186],[2.175,12.4075],[2.1617,12.4156],[2.1136,12.3844],[2.0778,12.3861],[2.0583,12.3572],[2.3984,11.8949],[2.4109,11.9063],[2.3917,11.9302],[2.4018,11.948],[2.4367,11.9532],[2.4464,11.9845],[2.4648,11.9805],[2.4524,12.018],[2.4371,12.0218],[2.436,12.0484],[2.4209,12.0533],[2.421,12.0759],[2.4053,12.0815],[2.391,12.1128],[2.3968,12.1487],[2.3816,12.1747],[2.3919,12.1933],[2.3768,12.214],[2.3908,12.2281],[2.3738,12.2423],[2.3996,12.258],[2.4318,12.2528],[2.4416,12.2651],[2.4637,12.2532],[2.4728,12.2733],[2.5048,12.2664],[2.5215,12.2948],[2.5431,12.2732],[2.5793,12.2779],[2.5986,12.3025],[2.6283,12.2954],[2.6649,12.3062],[2.6848,12.2941],[2.6857,12.2788],[2.7231,12.353],[2.7362,12.3648],[2.7621,12.3515],[2.7999,12.3906],[2.6347,12.5149],[2.6218,12.5774],[2.6026,12.8299],[2.6126,12.8651],[2.7331,12.9464],[2.7283,12.9806],[2.5475,12.9981],[2.4744,13.1392],[2.4793,13.161],[2.5078,13.1937],[2.7094,13.2733],[2.7499,13.2814],[2.8256,13.265],[2.8662,13.3401],[2.8769,13.3946],[2.8655,13.427],[2.8814,13.5175],[2.9864,13.6094],[3.1092,13.6089],[3.1325,13.7317],[3.1719,13.8061],[3.3165,13.7453],[3.5278,13.8289],[3.7394,14.0242],[3.7886,14.2244],[3.8631,14.3117],[3.9622,14.3836],[4.0428,14.3947],[4.1567,14.4494],[4.2401,14.5181],[4.2537,14.6578],[4.0999,14.9106],[4.1064,15.1239],[3.8859,15.7153]],[[2.2576,13.6005],[2.2111,13.487],[2.1501,13.4375],[2.0751,13.431],[1.9701,13.508],[1.9237,13.5805],[1.966,13.59],[2.0461,13.5785],[2.2331,13.633],[2.2576,13.6005]]]}},{"type":"Feature","properties":{"name":"Maradi","code":"87150794B5839560144768","iso":"NER"},"geometry":{"type":"Polygon","coordinates":[[[6.091,13.6772],[6.1555,13.6448],[6.2325,13.6734],[6.2773,13.6765],[6.4279,13.6004],[6.6967,13.3393],[6.8201,13.1434],[6.9421,13.0035],[7.0529,13.0001],[7.1216,13.0205],[7.2216,13.1291],[7.3889,13.0983],[7.4394,13.1149],[7.8158,13.3423],[8.0692,13.3138],[8.1515,13.2734],[8.1913,13.2317],[8.2495,13.2139],[8.3273,13.1391],[8.2872,13.1983],[8.2515,13.2176],[8.3228,13.3442],[8.2943,13.5226],[8.3258,13.6125],[8.2213,13.6622],[8.2147,13.7094],[8.2301,13.7437],[8.2611,13.7636],[8.5417,13.8978],[8.5267,14.1117],[8.3744,14.2094],[8.3465,14.2922],[8.2354,14.3779],[8.1859,14.3873],[8.07,14.4479],[8.016,14.5232],[7.9297,14.5294],[7.8042,14.4172],[7.7087,14.4664],[7.7031,14.6306],[7.5561,14.7103],[7.4953,14.8306],[7.4708,14.9636],[7.4328,15.0681],[7.4075,15.1039],[7.4021,15.29],[7.1044,15.4489],[6.6737,15.4283],[6.5894,15.1717],[6.5321,14.93],[6.4653,14.3939],[6.5411,14.1925],[6.5272,14.0708],[6.5149,14.0399],[6.4172,13.9883],[6.3293,13.9174],[6.2836,13.775],[6.2828,13.6839],[6.091,13.6772]]]}},{"type":"Feature","properties":{"name":"Zinder/Diffa","code":"87150794B17606801029036","iso":"NER"},"geometry":{"type":"Polygon","coordinates":[[[7.3244,15.3345],[7.4021,15.29],[7.4075,15.1039],[7.4328,15.0681],[7.4708,14.9636],[7.4953,14.8306],[7.5561,14.7103],[7.7031,14.6306],[7.7087,14.4664],[7.8042,14.4172],[7.9297,14.5294],[8.016,14.5232],[8.07,14.4479],[8.1859,14.3873],[8.2354,14.3779],[8.3465,14.2922],[8.3744,14.2094],[8.5267,14.1117],[8.5417,13.8978],[8.2611,13.7636],[8.2301,13.7437],[8.2147,13.7094],[8.2213,13.6622],[8.3258,13.6125],[8.2943,13.5226],[8.3228,13.3442],[8.2515,13.2176],[8.2872,13.1983],[8.3273,13.1391],[8.4162,13.0572],[8.4952,13.0753],[8.5493,13.0549],[8.5968,13.0233],[8.6597,12.9364],[8.9779,12.8336],[9.1819,12.8343],[9.3311,12.8111],[9.3863,12.823],[9.6587,12.8077],[9.7965,12.9556],[9.841,13.0266],[9.8892,13.0522],[10.0113,13.1824],[10.204,13.2707],[10.4653,13.2875],[10.6561,13.3607],[10.8102,13.3677],[11.4592,13.3806],[11.5906,13.3463],[11.6784,13.299],[11.883,13.2559],[12.0384,13.141],[12.1062,13.1149],[12.1544,13.1107],[12.1634,13.0981],[12.1863,13.1094],[12.1783,13.1259],[12.1809,13.1173],[12.1997,13.1303],[12.233,13.1063],[12.2387,13.117],[12.264,13.1141],[12.2741,13.0813],[12.2895,13.0805],[12.2771,13.0895],[12.2954,13.1002],[12.3334,13.0845],[12.3336,13.0719],[12.3401,13.0869],[12.3548,13.0776],[12.369,13.0912],[12.3691,13.0752],[12.449,13.0753],[12.4731,13.0552],[12.4783,13.0864],[12.4957,13.0866],[12.4886,13.1238],[12.5017,13.1445],[12.5293,13.1551],[12.5387,13.1416],[12.5504,13.1597],[12.5599,13.1989],[12.5412,13.1967],[12.5317,13.2131],[12.5489,13.2032],[12.551,13.2271],[12.5695,13.2308],[12.5771,13.2754],[12.5907,13.2686],[12.5785,13.2841],[12.6242,13.2779],[12.6445,13.3058],[12.6444,13.2881],[12.6766,13.2758],[12.692,13.3024],[12.6822,13.3202],[12.7174,13.3075],[12.709,13.3231],[12.7403,13.3265],[12.7339,13.3414],[12.7654,13.3903],[12.7922,13.3771],[12.7829,13.3975],[12.821,13.4123],[12.8269,13.4031],[12.8275,13.4203],[12.8105,13.4308],[12.833,13.4361],[12.8357,13.4553],[12.8381,13.4414],[12.8565,13.4405],[12.8555,13.4731],[12.8419,13.4762],[12.8555,13.4878],[12.8734,13.472],[12.8715,13.501],[12.9168,13.4869],[12.9438,13.5094],[12.9578,13.5],[12.9554,13.5212],[13.0023,13.5093],[13.0219,13.5366],[13.0434,13.5211],[13.0417,13.5438],[13.0631,13.55],[13.0728,13.5351],[13.0611,13.5274],[13.0888,13.516],[13.1042,13.5399],[13.1252,13.5217],[13.1225,13.5412],[13.1468,13.5505],[13.1404,13.5177],[13.1812,13.5375],[13.1977,13.5133],[13.1947,13.5266],[13.2122,13.533],[13.2065,13.5489],[13.2396,13.565],[13.2265,13.5892],[13.2516,13.5802],[13.2626,13.5953],[13.2433,13.6162],[13.2632,13.6196],[13.258,13.631],[13.2958,13.6605],[13.3093,13.6962],[13.3354,13.6935],[13.3384,13.7213],[13.3632,13.7077],[13.6334,13.7082],[13.47,14.4164],[13.4712,14.4628],[13.5737,14.5137],[13.643,14.521],[13.6954,14.5585],[13.6946,14.6201],[13.6729,14.6403],[13.7467,14.7043],[13.7677,14.7001],[13.8129,14.7332],[13.7909,14.8748],[13.8726,15.0539],[14.0035,15.2059],[14.39,15.7404],[14.646,15.9988],[14.9985,16.279],[15.5325,16.7488],[15.569,17.9994],[12.9975,17.9992],[11.9976,17.5001],[11.6253,17.3706],[11.0696,17.1026],[9.3225,16.0008],[8.9567,15.8675],[8.5444,15.6422],[8.3552,15.5797],[8.0981,15.5869],[8.0136,15.5336],[7.9072,15.5161],[7.4228,15.6011],[7.3244,15.3345]]]}}]}