{"type":"FeatureCollection","features":[{"type":"Feature","properties":{"name":"City of Kigali","code":"91480417B22690809677968","iso":"RWA"},"geometry":{"type":"Polygon","coordinates":[[[30.2478,-1.8457],[30.2184,-1.8415],[30.1381,-1.7797],[30.1186,-1.8193],[30.0995,-1.8127],[30.0635,-1.8288],[30.0293,-1.8652],[30.0154,-1.8361],[29.9911,-1.8475],[29.9773,-1.8794],[29.9922,-1.9075],[29.9821,-1.913],[29.9855,-1.9293],[30.0035,-1.9553],[29.9929,-1.9932],[30.0154,-2.0124],[29.9839,-2.0583],[30.0161,-2.0758],[30.0547,-2.0543],[30.0658,-2.0714],[30.1191,-2.0598],[30.1372,-2.0395],[30.1727,-2.0283],[30.2081,-2.0799],[30.2218,-2.0724],[30.2335,-1.9624],[30.2652,-1.9534],[30.2771,-1.9346],[30.2729,-1.9001],[30.2581,-1.8944],[30.2652,-1.8649],[30.2476,-1.8574],[30.2478,-1.8457]]]}},{"type":"Feature","properties":{"name":"Southern Province","code":"91480417B18399648061901","iso":"RWA"},"geometry":{"type":"Polygon","coordinates":[[[29.9821,-1.913],[29.9101,-1.8573],[29.8799,-1.854],[29.8526,-1.8733],[29.841,-1.8572],[29.8009,-1.8508],[29.799,-1.8297],[29.7484,-1.7725],[29.7479,-1.7507],[29.7174,-1.7555],[29.6947,-1.7336],[29.6589,-1.735],[29.6733,-1.781],[29.6633,-1.8613],[29.6752,-1.8963],[29.6609,-1.9383],[29.6736,-1.9594],[29.6546,-1.9763],[29.6224,-1.9758],[29.6368,-1.9951],[29.6284,-2.0219],[29.6393,-2.0495],[29.5946,-2.1507],[29.6065,-2.1586],[29.6063,-2.1879],[29.5852,-2.2019],[29.5513,-2.1998],[29.4696,-2.2737],[29.4214,-2.2671],[29.3863,-2.298],[29.3441,-2.2926],[29.3202,-2.3209],[29.344,-2.36],[29.3183,-2.3986],[29.3253,-2.43],[29.2803,-2.4419],[29.2656,-2.4723],[29.2647,-2.482],[29.3225,-2.5076],[29.3191,-2.5379],[29.3384,-2.5393],[29.3425,-2.5932],[29.3679,-2.6314],[29.3491,-2.6767],[29.3284,-2.6899],[29.3551,-2.7307],[29.3331,-2.7461],[29.3507,-2.7682],[29.352,-2.8045],[29.3709,-2.84],[29.3893,-2.8187],[29.4379,-2.7976],[29.4861,-2.8021],[29.5216,-2.83],[29.588,-2.8029],[29.6162,-2.8102],[29.6486,-2.787],[29.7234,-2.8184],[29.7532,-2.811],[29.7747,-2.764],[29.801,-2.7549],[29.8276,-2.7791],[29.8934,-2.747],[29.9363,-2.6419],[29.9208,-2.5576],[29.9427,-2.4984],[29.9678,-2.485],[29.962,-2.4145],[29.9435,-2.37],[29.9903,-2.2185],[29.9833,-2.1555],[30.0208,-2.1118],[30.0194,-2.0741],[29.9839,-2.0583],[30.0154,-2.0124],[29.9929,-1.9932],[30.0035,-1.9553],[29.9821,-1.913]]]}},{"type":"Feature","properties":{"name":"Northern Province","code":"91480417B74917756285357","iso":"RWA"},"geometry":{"type":"Polygon","coordinates":[[[30.2478,-1.8457],[30.2603,-1.8287],[30.2756,-1.8305],[30.2471,-1.722],[30.263,-1.7085],[30.1708,-1.5841],[30.1625,-1.5429],[30.1813,-1.5188],[30.1399,-1.5269],[30.1338,-1.4819],[30.0756,-1.3924],[30.0521,-1.3988],[30.0555,-1.4308],[30.0238,-1.4151],[29.9961,-1.4477],[29.9138,-1.4821],[29.8855,-1.4231],[29.8818,-1.3561],[29.8586,-1.3564],[29.824,-1.3088],[29.7965,-1.3505],[29.7968,-1.3729],[29.7305,-1.3402],[29.6603,-1.3934],[29.5572,-1.3896],[29.5259,-1.4094],[29.45,-1.5061],[29.4992,-1.5637],[29.5592,-1.5699],[29.5856,-1.592],[29.6385,-1.5923],[29.6356,-1.7194],[29.6527,-1.7341],[29.6947,-1.7336],[29.7174,-1.7555],[29.7479,-1.7507],[29.7442,-1.7637],[29.7638,-1.7809],[29.7693,-1.8068],[29.799,-1.8297],[29.7965,-1.8462],[29.841,-1.8572],[29.8526,-1.8733],[29.8799,-1.854],[29.9101,-1.8573],[29.9821,-1.913],[29.9922,-1.9075],[29.9773,-1.8794],[29.9911,-1.8475],[30.0154,-1.8361],[30.0293,-1.8652],[30.0635,-1.8288],[30.0995,-1.8127],[30.1186,-1.8193],[30.1381,-1.7797],[30.2184,-1.8415],[30.2478,-1.8457]]]}},{"type":"Feature","properties":{"name":"Eastern Province","code":"91480417B20985019767017","iso":"RWA"},"geometry":{"type":"Polygon","coordinates":[[[30.0194,-2.0741],[30.0181,-2.1182],[29.9833,-2.1555],[29.9903,-2.2185],[29.9592,-2.3269],[30.0334,-2.3509],[30.0634,-2.3943],[30.1218,-2.4353],[30.1835,-2.4292],[30.1992,-2.3884],[30.2419,-2.3593],[30.253,-2.373],[30.28,-2.3759],[30.374,-2.356],[30.3806,-2.3259],[30.4086,-2.3098],[30.4305,-2.3288],[30.4606,-2.3194],[30.4711,-2.3665],[30.4863,-2.3667],[30.5112,-2.4013],[30.5691,-2.4193],[30.6093,-2.3993],[30.6573,-2.4135],[30.6958,-2.3634],[30.7171,-2.3554],[30.7802,-2.39],[30.7965,-2.3666],[30.8264,-2.3564],[30.8568,-2.3138],[30.8436,-2.2056],[30.898,-2.0708],[30.8634,-2.032],[30.816,-1.941],[30.7841,-1.9458],[30.8381,-1.8596],[30.8186,-1.8408],[30.8291,-1.8266],[30.8309,-1.7558],[30.8127,-1.7337],[30.8277,-1.7224],[30.8227,-1.6845],[30.8392,-1.6508],[30.7461,-1.5222],[30.7361,-1.4182],[30.6609,-1.3825],[30.6279,-1.3827],[30.6144,-1.3481],[30.569,-1.3375],[30.5515,-1.2513],[30.5094,-1.1719],[30.4701,-1.1557],[30.4766,-1.1225],[30.4588,-1.1171],[30.4512,-1.0891],[30.4701,-1.0529],[30.4393,-1.0483],[30.429,-1.0643],[30.3915,-1.069],[30.3519,-1.0626],[30.3379,-1.1052],[30.3445,-1.1321],[30.3072,-1.145],[30.2926,-1.1896],[30.2108,-1.2763],[30.1714,-1.2737],[30.1746,-1.3019],[30.1619,-1.3187],[30.1708,-1.3477],[30.1293,-1.3627],[30.1232,-1.3843],[30.1038,-1.3723],[30.0708,-1.3801],[30.1338,-1.4819],[30.1399,-1.5269],[30.1813,-1.5188],[30.1625,-1.5429],[30.1708,-1.5841],[30.263,-1.7085],[30.2471,-1.722],[30.2756,-1.8305],[30.2603,-1.8287],[30.2476,-1.8574],[30.2652,-1.8649],[30.2581,-1.8944],[30.2729,-1.9001],[30.2771,-1.9346],[30.2652,-1.9534],[30.2335,-1.9624],[30.2287,-2.0433],[30.2218,-2.0724],[30.2081,-2.0799],[30.1727,-2.0283],[30.1372,-2.0395],[30.1191,-2.0598],[30.0658,-2.0714],[30.0474,-2.0546],[30.0194,-2.0741]]]}},{"type":"Feature","properties":{"name":"Western Province","code":"91480417B44016762519517","iso":"RWA"},"geometry":{"type":"Polygon","coordinates":[[[29.6589,-1.735],[29.6342,-1.7146],[29.6385,-1.5923],[29.5856,-1.592],[29.5592,-1.5699],[29.4992,-1.5637],[29.45,-1.5061],[29.3607,-1.5118],[29.3104,-1.6],[29.2683,-1.629],[29.2435,-1.6684],[29.2448,-1.6981],[29.1346,-1.8649],[29.1264,-1.9298],[29.1654,-2.0509],[29.1745,-2.1238],[29.1154,-2.2564],[29.0933,-2.2764],[29.0012,-2.2941],[28.9834,-2.3396],[28.9616,-2.3524],[28.9629,-2.3725],[28.9108,-2.3718],[28.8717,-2.4128],[28.8671,-2.4407],[28.8929,-2.4909],[28.862,-2.5311],[28.8932,-2.5606],[28.9058,-2.6451],[28.8952,-2.6547],[28.9178,-2.6804],[28.9667,-2.7035],[28.9957,-2.6994],[29.0409,-2.744],[29.057,-2.7101],[29.0478,-2.6654],[29.0615,-2.6502],[29.0512,-2.6237],[29.0622,-2.6017],[29.0924,-2.5918],[29.1278,-2.6103],[29.1497,-2.5912],[29.1743,-2.6154],[29.2036,-2.6154],[29.2199,-2.632],[29.2655,-2.6187],[29.326,-2.6534],[29.329,-2.6826],[29.3491,-2.6767],[29.3679,-2.6314],[29.3425,-2.5932],[29.3469,-2.5594],[29.336,-2.5572],[29.3384,-2.5393],[29.3191,-2.5379],[29.3193,-2.504],[29.2647,-2.482],[29.2656,-2.4723],[29.2803,-2.4419],[29.3253,-2.43],[29.3183,-2.3986],[29.344,-2.36],[29.3202,-2.3209],[29.3441,-2.2926],[29.3863,-2.298],[29.4214,-2.2671],[29.4696,-2.2737],[29.5513,-2.1998],[29.5852,-2.2019],[29.6063,-2.1879],[29.6065,-2.1586],[29.5946,-2.1507],[29.6393,-2.0495],[29.6284,-2.0219],[29.6368,-1.9951],[29.6224,-1.9758],[29.6546,-1.9763],[29.6736,-1.9594],[29.6609,-1.9383],[29.6752,-1.8963],[29.6633,-1.8613],[29.6733,-1.781],[29.6589,-1.735]]]}}]}