{"type":"FeatureCollection","features":[{"type":"Feature","properties":{"name":"Dakar","code":"71046170B16569890219484","iso":"SEN"},"geometry":{"type":"MultiPolygon","coordinates":[[[[-17.3992,14.6713],[-17.4008,14.6689],[-17.3979,14.6631],[-17.3966,14.6665],[-17.3994,14.6689],[-17.3992,14.6713]]],[[[-17.512,14.757],[-17.5152,14.7571],[-17.5167,14.7549],[-17.5131,14.7549],[-17.512,14.757]]],[[[-17.1446,14.5868],[-17.1264,14.7831],[-17.1768,14.8863],[-17.4193,14.7772],[-17.5284,14.7523],[-17.5308,14.7412],[-17.4753,14.6976],[-17.4713,14.675],[-17.4484,14.6716],[-17.4333,14.6466],[-17.4207,14.6741],[-17.4369,14.6856],[-17.421,14.6796],[-17.4274,14.6923],[-17.4167,14.702],[-17.4317,14.7175],[-17.4143,14.7338],[-17.3667,14.7399],[-17.2741,14.7121],[-17.1969,14.6621],[-17.1446,14.5868]]]]}},{"type":"Feature","properties":{"name":"Diourbel","code":"71046170B89912390768536","iso":"SEN"},"geometry":{"type":"Polygon","coordinates":[[[-16.1771,14.964],[-16.2284,14.9542],[-16.2724,14.9893],[-16.43,15.0271],[-16.6537,14.9586],[-16.6871,14.9293],[-16.6237,14.8487],[-16.6493,14.812],[-16.607,14.7674],[-16.6055,14.6902],[-16.6209,14.6401],[-16.5755,14.6068],[-16.5072,14.6054],[-16.4865,14.5928],[-16.3607,14.6042],[-16.3334,14.5716],[-16.2017,14.5723],[-16.1486,14.548],[-16.0014,14.5355],[-16,14.5144],[-15.9683,14.5317],[-15.8689,14.5463],[-15.8188,14.5794],[-15.7968,14.621],[-15.7964,14.7341],[-15.7654,14.7524],[-15.719,14.7016],[-15.6888,14.6911],[-15.6517,14.7124],[-15.554,14.6554],[-15.4622,14.6291],[-15.438,14.8239],[-15.4894,14.8399],[-15.5443,14.8235],[-15.611,14.8631],[-15.6735,14.8706],[-15.771,14.9281],[-15.8033,14.969],[-15.8056,14.9974],[-15.8929,14.9976],[-15.9144,14.979],[-15.9895,14.9719],[-15.9983,14.9552],[-16.1771,14.964]]]}},{"type":"Feature","properties":{"name":"Fatick","code":"71046170B84527172065489","iso":"SEN"},"geometry":{"type":"Polygon","coordinates":[[[-16.5254,14.6076],[-16.519,14.5798],[-16.5519,14.4924],[-16.6354,14.4298],[-16.6771,14.426],[-16.7053,14.3983],[-16.7106,14.3025],[-16.7504,14.2368],[-16.7249,14.1983],[-16.7642,14.1649],[-16.7554,14.1414],[-16.7806,14.1429],[-16.7925,14.1313],[-16.7538,14.0806],[-16.7546,14.0669],[-16.777,14.0539],[-16.7612,13.8354],[-16.7332,13.8351],[-16.6957,13.7791],[-16.6325,13.7371],[-16.6388,13.708],[-16.618,13.6578],[-16.5485,13.5937],[-16.5079,13.5934],[-16.5139,13.6103],[-16.4615,13.5936],[-16.09,13.5935],[-16.0885,13.6087],[-16.1147,13.621],[-16.1048,13.6395],[-16.1232,13.6308],[-16.1529,13.6645],[-16.1652,13.7514],[-16.2018,13.7617],[-16.2461,13.7974],[-16.2516,13.8478],[-16.1902,13.8822],[-16.2054,13.9846],[-16.2656,14.0245],[-16.2287,14.0641],[-16.2305,14.1006],[-16.2348,14.1147],[-16.3045,14.1617],[-16.3811,14.1549],[-16.3882,14.164],[-16.3588,14.1754],[-16.3678,14.2272],[-16.3498,14.2246],[-16.3519,14.257],[-16.3035,14.2808],[-16.2423,14.3395],[-16.1288,14.37],[-16.0527,14.3643],[-15.999,14.3939],[-15.9586,14.3838],[-15.9377,14.3979],[-15.9042,14.3792],[-15.8028,14.3768],[-15.7881,14.4272],[-15.7212,14.4981],[-15.6903,14.4762],[-15.6457,14.4793],[-15.6391,14.4879],[-15.661,14.5009],[-15.6576,14.5114],[-15.4688,14.5798],[-15.4622,14.6291],[-15.554,14.6554],[-15.6517,14.7124],[-15.6888,14.6911],[-15.719,14.7016],[-15.7654,14.7524],[-15.7964,14.7341],[-15.7968,14.621],[-15.8188,14.5794],[-15.8689,14.5463],[-15.9683,14.5317],[-16,14.5144],[-16.0014,14.5355],[-16.1486,14.548],[-16.2017,14.5723],[-16.3334,14.5716],[-16.3607,14.6042],[-16.4865,14.5928],[-16.5254,14.6076]]]}},{"type":"Feature","properties":{"name":"Kaffrine","code":"71046170B9856693808493","iso":"SEN"},"geometry":{"type":"Polygon","coordinates":[[[-15.4622,14.6291],[-15.4688,14.5798],[-15.6576,14.5114],[-15.661,14.5009],[-15.6391,14.4879],[-15.6457,14.4793],[-15.6914,14.4777],[-15.6996,14.4275],[-15.69,14.2966],[-15.8014,14.293],[-15.8519,14.1749],[-15.8507,14.1165],[-15.8623,14.108],[-15.844,14.079],[-15.7893,14.052],[-15.7822,13.9944],[-15.6838,13.9126],[-15.7112,13.8666],[-15.707,13.8422],[-15.6414,13.7794],[-15.6236,13.7795],[-15.5811,13.831],[-15.5149,13.7989],[-15.442,13.8011],[-15.4144,13.7432],[-15.3729,13.7719],[-15.3201,13.787],[-15.2734,13.7781],[-15.2405,13.751],[-15.2164,13.7515],[-15.1237,13.8076],[-15.0613,13.8283],[-14.9715,13.7967],[-14.9022,13.7987],[-14.8336,13.7695],[-14.8047,13.8123],[-14.7208,13.8188],[-14.6924,13.8871],[-14.6024,13.941],[-14.5826,13.9999],[-14.5972,14.259],[-14.6417,14.3012],[-14.6266,14.5669],[-14.8493,14.6315],[-14.9104,14.7036],[-15.0173,14.6363],[-15.0238,14.6125],[-15.3099,14.6639],[-15.4497,14.7232],[-15.4622,14.6291]]]}},{"type":"Feature","properties":{"name":"Kaolack","code":"71046170B19471834738959","iso":"SEN"},"geometry":{"type":"Polygon","coordinates":[[[-16.09,13.5935],[-15.4747,13.5917],[-15.4499,13.6921],[-15.4144,13.7432],[-15.4393,13.7982],[-15.522,13.8004],[-15.5859,13.8308],[-15.6353,13.7746],[-15.707,13.8422],[-15.7112,13.8666],[-15.6838,13.9126],[-15.7822,13.9944],[-15.7893,14.052],[-15.844,14.079],[-15.8629,14.1101],[-15.8507,14.1165],[-15.8519,14.1749],[-15.8014,14.293],[-15.69,14.2966],[-15.6996,14.4275],[-15.6914,14.4777],[-15.7063,14.494],[-15.7232,14.4966],[-15.7881,14.4272],[-15.8028,14.3768],[-15.9042,14.3792],[-15.9377,14.3979],[-15.9586,14.3838],[-15.999,14.3939],[-16.0527,14.3643],[-16.1288,14.37],[-16.2573,14.3312],[-16.3035,14.2808],[-16.3519,14.257],[-16.3498,14.2246],[-16.3678,14.2272],[-16.3588,14.1754],[-16.3882,14.164],[-16.3811,14.1549],[-16.3045,14.1617],[-16.2336,14.1126],[-16.2287,14.0641],[-16.2656,14.0245],[-16.2054,13.9846],[-16.1902,13.8822],[-16.2516,13.8478],[-16.2461,13.7974],[-16.2018,13.7617],[-16.1652,13.7514],[-16.1529,13.6645],[-16.1232,13.6308],[-16.1048,13.6395],[-16.1147,13.621],[-16.0885,13.6087],[-16.09,13.5935]]]}},{"type":"Feature","properties":{"name":"Kolda","code":"71046170B66864032803639","iso":"SEN"},"geometry":{"type":"Polygon","coordinates":[[[-13.8605,13.5109],[-13.7927,13.4383],[-13.8007,13.3846],[-13.8395,13.3335],[-13.8954,13.3157],[-13.9519,13.3214],[-14.0051,13.2912],[-14.1155,13.2794],[-14.1188,13.2424],[-14.1421,13.2216],[-14.1829,13.2299],[-14.235,13.2179],[-14.2673,13.2428],[-14.3589,13.2297],[-14.4253,13.2609],[-14.4595,13.3002],[-14.5327,13.3131],[-14.5781,13.3587],[-14.6113,13.3431],[-14.6726,13.3443],[-14.7323,13.3753],[-14.7605,13.4174],[-14.814,13.4182],[-14.8508,13.4453],[-14.8995,13.4475],[-14.9606,13.4716],[-15.0411,13.526],[-15.0901,13.6005],[-15.1413,13.5828],[-15.1973,13.5295],[-15.2288,13.4191],[-15.2998,13.3655],[-15.3391,13.3602],[-15.3529,13.228],[-15.3037,13.1844],[-15.2976,13.1942],[-15.2546,13.178],[-15.2522,13.139],[-15.2258,13.0806],[-15.2293,13.0472],[-15.1577,13.0067],[-15.1679,12.9752],[-15.1589,12.9482],[-15.1127,12.8975],[-15.1163,12.8138],[-15.1561,12.7385],[-15.1404,12.6974],[-15.1224,12.6858],[-13.4852,12.6745],[-13.4634,12.6943],[-13.4579,12.7428],[-13.4687,12.7443],[-13.459,12.7493],[-13.4619,12.7846],[-13.4699,12.7803],[-13.4607,12.8016],[-13.4754,12.8086],[-13.4782,12.8242],[-13.4654,12.8328],[-13.4782,12.851],[-13.4511,12.8504],[-13.4739,12.8756],[-13.4621,12.8787],[-13.4634,12.8976],[-13.4999,12.9113],[-13.5064,12.9298],[-13.493,12.945],[-13.5148,12.9529],[-13.4935,12.969],[-13.5108,12.9887],[-13.5021,13.0046],[-13.5166,13.0161],[-13.5333,13.0059],[-13.521,13.0356],[-13.5562,13.0521],[-13.5573,13.0748],[-13.5768,13.0667],[-13.5742,13.0915],[-13.583,13.0845],[-13.585,13.1069],[-13.5997,13.112],[-13.5942,13.1306],[-13.6174,13.1323],[-13.6117,13.1566],[-13.6026,13.1559],[-13.6167,13.1731],[-13.6055,13.1909],[-13.6156,13.2016],[-13.6019,13.2105],[-13.6086,13.2376],[-13.6433,13.244],[-13.6428,13.2771],[-13.6752,13.2756],[-13.6896,13.2907],[-13.6644,13.3418],[-13.7042,13.3394],[-13.6749,13.3834],[-13.7741,13.3742],[-13.7488,13.4045],[-13.7577,13.4345],[-13.7183,13.4665],[-13.7686,13.4851],[-13.805,13.4685],[-13.7904,13.5449],[-13.8223,13.5461],[-13.8324,13.5037],[-13.8605,13.5109]]]}},{"type":"Feature","properties":{"name":"Louga","code":"71046170B63374102885919","iso":"SEN"},"geometry":{"type":"Polygon","coordinates":[[[-15.4497,14.7232],[-15.3099,14.6639],[-15.0238,14.6125],[-15.0173,14.6363],[-14.9104,14.7036],[-14.8493,14.6315],[-14.8203,14.6539],[-14.7971,14.692],[-14.7854,14.7535],[-14.7086,14.8318],[-14.7805,15.0205],[-14.7502,15.0437],[-14.5238,15.0794],[-14.5725,15.1146],[-14.4964,15.377],[-14.5108,15.3631],[-14.6069,15.352],[-14.7524,15.4115],[-14.764,15.4273],[-14.7496,15.4697],[-14.74,15.6901],[-14.6466,15.7154],[-14.5169,15.8051],[-14.5949,15.9336],[-14.7557,15.9411],[-14.8653,16.0005],[-15.5802,16],[-15.5806,15.9269],[-15.8252,16.1874],[-15.8727,16.1589],[-15.9281,16.103],[-16.1421,16.0042],[-16.1695,15.9648],[-16.2565,15.9041],[-16.2568,15.8788],[-16.2715,15.8619],[-16.3587,15.8345],[-16.5256,15.833],[-16.5803,15.6857],[-16.8101,15.3286],[-16.7163,15.2911],[-16.6352,15.2249],[-16.6152,15.1943],[-16.6154,15.145],[-16.5705,15.194],[-16.5029,15.3096],[-16.4537,15.3595],[-16.4174,15.3262],[-16.3607,15.3279],[-16.3383,15.3046],[-16.3462,15.2717],[-16.3301,15.2553],[-16.3135,15.2506],[-16.2963,15.2743],[-16.2745,15.2562],[-16.2681,15.2002],[-16.2382,15.1532],[-16.2386,15.1279],[-16.1967,15.0923],[-16.1771,14.964],[-15.9983,14.9552],[-15.9895,14.9719],[-15.9144,14.979],[-15.8929,14.9976],[-15.8056,14.9974],[-15.8033,14.969],[-15.771,14.9281],[-15.6735,14.8706],[-15.611,14.8631],[-15.5443,14.8235],[-15.4894,14.8399],[-15.438,14.8239],[-15.4497,14.7232]]]}},{"type":"Feature","properties":{"name":"Matam","code":"71046170B85295751834134","iso":"SEN"},"geometry":{"type":"Polygon","coordinates":[[[-14.6287,14.528],[-14.4828,14.5671],[-14.4134,14.6377],[-14.3462,14.6586],[-14.3275,14.6232],[-14.274,14.5761],[-14.0013,14.4879],[-13.8471,14.4138],[-13.5191,14.4064],[-13.2452,14.6134],[-12.9502,14.5595],[-12.7967,14.5814],[-12.7221,14.6127],[-12.6543,14.7045],[-12.587,14.9045],[-12.6259,15.0002],[-12.6929,15.0953],[-12.7867,15.1532],[-12.7916,15.211],[-12.8146,15.2172],[-12.8462,15.202],[-12.8934,15.2513],[-12.8817,15.2691],[-12.8469,15.2544],[-12.8307,15.2852],[-12.8455,15.3156],[-12.9411,15.3621],[-12.9428,15.4173],[-12.923,15.4406],[-12.9578,15.4491],[-12.9604,15.4898],[-12.9449,15.504],[-12.931,15.4975],[-12.9345,15.5091],[-13.0001,15.4974],[-13.0193,15.4826],[-13.0595,15.4828],[-13.1025,15.5029],[-13.0851,15.549],[-13.0867,15.5841],[-13.1817,15.6286],[-13.2145,15.6282],[-13.2014,15.6258],[-13.2147,15.612],[-13.2294,15.6196],[-13.2517,15.6693],[-13.2157,15.6776],[-13.2068,15.6973],[-13.2901,15.7685],[-13.2872,15.7879],[-13.2632,15.7892],[-13.3002,15.8295],[-13.2998,15.8718],[-13.3339,15.897],[-13.3121,15.9235],[-13.3635,15.9715],[-13.3777,16.0572],[-13.4455,16.0848],[-13.4592,16.1097],[-13.4886,16.0809],[-13.5113,16.0888],[-13.511,16.1157],[-13.4757,16.131],[-13.4863,16.1481],[-13.5156,16.1265],[-13.5742,16.1344],[-13.6324,16.1082],[-13.6635,16.1103],[-13.6812,16.0933],[-13.719,16.1357],[-13.7423,16.0461],[-13.8467,16.0058],[-13.905,15.9326],[-14.2287,15.6083],[-14.2543,15.5648],[-14.2459,15.5348],[-14.2622,15.5159],[-14.3002,15.5251],[-14.3337,15.4961],[-14.4222,15.4938],[-14.4056,15.6203],[-14.5169,15.8051],[-14.6466,15.7154],[-14.74,15.6901],[-14.7496,15.4697],[-14.764,15.4273],[-14.7524,15.4115],[-14.6069,15.352],[-14.5108,15.3631],[-14.4964,15.377],[-14.5725,15.1146],[-14.5238,15.0794],[-14.7502,15.0437],[-14.7805,15.0205],[-14.7086,14.8318],[-14.7854,14.7535],[-14.7971,14.692],[-14.8493,14.6315],[-14.6266,14.5669],[-14.6287,14.528]]]}},{"type":"Feature","properties":{"name":"Saint Louis","code":"71046170B37999982332216","iso":"SEN"},"geometry":{"type":"Polygon","coordinates":[[[-14.5169,15.8051],[-14.4056,15.6203],[-14.4222,15.4938],[-14.3337,15.4961],[-14.3002,15.5251],[-14.2622,15.5159],[-14.2459,15.5348],[-14.2543,15.5648],[-14.2287,15.6083],[-13.905,15.9326],[-13.8467,16.0058],[-13.7423,16.0461],[-13.7209,16.1475],[-13.7023,16.176],[-13.7195,16.1789],[-13.7695,16.1437],[-13.8111,16.1395],[-13.8517,16.1069],[-13.8794,16.1546],[-13.873,16.1901],[-13.912,16.1935],[-13.9214,16.2279],[-13.9742,16.2215],[-13.9699,16.251],[-13.9523,16.2697],[-13.9865,16.2745],[-13.9915,16.3029],[-13.9596,16.3071],[-13.9688,16.3336],[-13.9998,16.3487],[-14.0277,16.3457],[-14.0711,16.4042],[-14.1381,16.4532],[-14.1313,16.4774],[-14.1531,16.4734],[-14.1997,16.5083],[-14.2,16.53],[-14.2209,16.5435],[-14.253,16.5427],[-14.2569,16.5144],[-14.2758,16.5496],[-14.275,16.5814],[-14.333,16.5687],[-14.328,16.6308],[-14.3375,16.6415],[-14.4053,16.6328],[-14.4198,16.652],[-14.4489,16.6237],[-14.5007,16.6137],[-14.5434,16.6443],[-14.5573,16.6179],[-14.6027,16.6179],[-14.6193,16.6293],[-14.6386,16.6176],[-14.6511,16.6311],[-14.639,16.6367],[-14.6418,16.6493],[-14.7121,16.6391],[-14.724,16.647],[-14.7353,16.6198],[-14.7629,16.6562],[-14.7871,16.6318],[-14.8125,16.6556],[-14.8252,16.6373],[-14.8578,16.6384],[-14.8782,16.6632],[-14.8954,16.6344],[-14.9142,16.6511],[-14.9376,16.6336],[-14.9541,16.6528],[-14.9508,16.679],[-14.9861,16.6937],[-14.9997,16.6469],[-15.032,16.6296],[-15.0531,16.6271],[-15.0737,16.6663],[-15.0966,16.6777],[-15.1215,16.6401],[-15.0933,16.6273],[-15.0846,16.6072],[-15.1175,16.5774],[-15.1703,16.5903],[-15.23,16.5513],[-15.2581,16.5697],[-15.3105,16.5757],[-15.3991,16.5357],[-15.4273,16.5442],[-15.4449,16.5825],[-15.4689,16.5923],[-15.516,16.5647],[-15.5166,16.5211],[-15.5578,16.5113],[-15.6198,16.5258],[-15.6316,16.5178],[-15.6309,16.4915],[-15.7022,16.4714],[-15.8095,16.5067],[-15.859,16.4906],[-15.8623,16.5106],[-15.8858,16.5158],[-15.9161,16.5123],[-15.9605,16.4838],[-16.0025,16.505],[-16.0512,16.4795],[-16.0988,16.5228],[-16.1002,16.5467],[-16.1151,16.5572],[-16.1533,16.5484],[-16.1886,16.5188],[-16.2448,16.5283],[-16.284,16.5064],[-16.2855,16.4761],[-16.3042,16.4626],[-16.3096,16.4096],[-16.3304,16.397],[-16.3313,16.3479],[-16.3646,16.315],[-16.3527,16.2731],[-16.3729,16.231],[-16.3924,16.2108],[-16.4189,16.2167],[-16.4427,16.2018],[-16.4541,16.1814],[-16.4552,16.1202],[-16.442,16.1033],[-16.4809,16.0633],[-16.4937,16.0752],[-16.5053,16.0678],[-16.5256,15.833],[-16.3587,15.8345],[-16.2715,15.8619],[-16.2568,15.8788],[-16.2565,15.9041],[-16.1695,15.9648],[-16.1421,16.0042],[-15.9281,16.103],[-15.8727,16.1589],[-15.8252,16.1874],[-15.5806,15.9269],[-15.5802,16],[-14.8653,16.0005],[-14.7557,15.9411],[-14.5949,15.9336],[-14.5169,15.8051]]]}},{"type":"Feature","properties":{"name":"Sedhiou","code":"71046170B19178449543377","iso":"SEN"},"geometry":{"type":"Polygon","coordinates":[[[-15.3391,13.3602],[-15.3796,13.3558],[-15.4986,13.3953],[-15.5829,13.3507],[-15.6805,13.3713],[-15.7219,13.3517],[-15.8051,13.3495],[-15.8036,13.1671],[-15.895,13.1682],[-15.8979,13.1441],[-15.9327,13.1226],[-15.9283,13.096],[-15.894,13.0882],[-15.9441,12.9862],[-15.9875,12.9395],[-15.9944,12.9192],[-15.9738,12.8958],[-15.9744,12.8579],[-16.0035,12.8246],[-15.9952,12.7723],[-16.0235,12.7491],[-16.0108,12.7216],[-16.0165,12.6584],[-15.9899,12.6528],[-15.9675,12.6257],[-15.9553,12.5445],[-15.922,12.5112],[-15.923,12.4661],[-15.8987,12.4713],[-15.8891,12.4502],[-15.6811,12.4254],[-15.429,12.5371],[-15.3376,12.6137],[-15.2397,12.6596],[-15.1791,12.6848],[-15.1224,12.6858],[-15.1404,12.6974],[-15.1561,12.7385],[-15.1163,12.8138],[-15.1127,12.8975],[-15.1589,12.9482],[-15.1679,12.9711],[-15.1612,13.0142],[-15.2293,13.0472],[-15.2258,13.0806],[-15.2522,13.139],[-15.2546,13.178],[-15.2976,13.1942],[-15.3037,13.1844],[-15.3509,13.2216],[-15.3554,13.264],[-15.3387,13.295],[-15.3391,13.3602]]]}},{"type":"Feature","properties":{"name":"Tambacounda","code":"71046170B85662395344337","iso":"SEN"},"geometry":{"type":"Polygon","coordinates":[[[-14.8336,13.7695],[-14.796,13.7215],[-14.7817,13.6542],[-14.7069,13.6164],[-14.6418,13.6549],[-14.5506,13.6515],[-14.4879,13.607],[-14.4682,13.5413],[-14.4264,13.5036],[-14.3209,13.4572],[-14.2393,13.4763],[-14.1684,13.5333],[-14.0859,13.5569],[-14.0279,13.5535],[-13.9775,13.5805],[-13.9,13.5623],[-13.8605,13.5109],[-13.8324,13.5037],[-13.8223,13.5461],[-13.7881,13.5439],[-13.805,13.4685],[-13.7686,13.4851],[-13.7183,13.4665],[-13.7577,13.4345],[-13.7488,13.4045],[-13.7741,13.3742],[-13.6749,13.3834],[-13.7041,13.3435],[-13.699,13.3323],[-13.6644,13.3418],[-13.6896,13.2907],[-13.6752,13.2756],[-13.6428,13.2771],[-13.6433,13.244],[-13.6086,13.2376],[-13.6019,13.2105],[-13.6156,13.2016],[-13.6055,13.1909],[-13.6167,13.1731],[-13.6026,13.1559],[-13.6117,13.1566],[-13.6174,13.1323],[-13.5942,13.1306],[-13.5997,13.112],[-13.585,13.1069],[-13.583,13.0845],[-13.5742,13.0915],[-13.5768,13.0667],[-13.5573,13.0748],[-13.5562,13.0521],[-13.521,13.0356],[-13.5333,13.0059],[-13.5166,13.0161],[-13.5021,13.0046],[-13.5108,12.9887],[-13.4935,12.969],[-13.5148,12.9529],[-13.493,12.945],[-13.5064,12.9298],[-13.4999,12.9113],[-13.4634,12.8976],[-13.4621,12.8787],[-13.4739,12.8756],[-13.4511,12.8504],[-13.4773,12.8527],[-13.4654,12.8328],[-13.4782,12.8242],[-13.4607,12.8016],[-13.4699,12.7803],[-13.4619,12.7846],[-13.459,12.7493],[-13.4687,12.7443],[-13.4579,12.7428],[-13.4588,12.7243],[-13.4634,12.6943],[-13.4852,12.6745],[-13.3304,12.6567],[-13.3227,12.6421],[-13.2885,12.6458],[-13.2823,12.6574],[-13.2274,12.6426],[-13.2028,12.6542],[-13.1778,12.6299],[-13.1582,12.6441],[-13.1258,12.6395],[-13.1166,12.6796],[-13.0902,12.7024],[-13.1174,12.765],[-13.0974,12.8172],[-13.1485,12.8335],[-13.1426,12.8563],[-13.1698,12.8687],[-13.1676,12.8892],[-13.1792,12.8964],[-13.1546,12.8964],[-13.1407,12.9108],[-13.1445,12.9287],[-13.178,12.9689],[-13.1889,12.964],[-13.2131,13.0044],[-13.2394,13.0124],[-13.2099,13.0293],[-13.2084,13.0502],[-13.1713,13.0649],[-13.1672,13.0505],[-13.1263,13.0523],[-13.0859,13.0286],[-13.0517,13.0645],[-13.0244,13.0563],[-12.9903,13.0822],[-12.9666,13.0693],[-12.9302,13.0817],[-12.9357,13.0659],[-12.9141,13.0592],[-12.9146,13.0452],[-12.901,13.0504],[-12.8784,13.0261],[-12.8677,13.0288],[-12.8662,13.0156],[-12.8495,13.009],[-12.839,13.0186],[-12.8135,12.9965],[-12.8133,13.0304],[-12.775,13.0362],[-12.7762,13.0541],[-12.7588,13.0536],[-12.7606,13.0762],[-12.7251,13.0722],[-12.7193,13.0925],[-12.6855,13.1062],[-12.6689,13.1426],[-12.6758,13.1759],[-12.6499,13.177],[-12.6317,13.1967],[-12.6055,13.1908],[-12.5939,13.2096],[-12.5563,13.1853],[-12.5181,13.1847],[-12.4885,13.1967],[-12.4606,13.2502],[-12.417,13.2856],[-12.3774,13.2927],[-12.3328,13.2595],[-12.3076,13.3185],[-12.2565,13.3113],[-12.2319,13.3223],[-12.2219,13.3392],[-12.2619,13.397],[-12.2431,13.461],[-12.149,13.4164],[-12.1078,13.3764],[-12.0562,13.3584],[-12.0286,13.3719],[-12.0357,13.3274],[-12.0185,13.3111],[-11.9553,13.3655],[-11.8878,13.3848],[-11.8652,13.4348],[-11.8708,13.4651],[-11.9981,13.5676],[-11.9997,13.5892],[-12.0396,13.6253],[-12.0412,13.6664],[-12.0741,13.72],[-12.0107,13.7516],[-11.9509,13.8099],[-11.9331,13.9244],[-12.0105,13.988],[-12.0154,14.0282],[-11.9945,14.0644],[-11.997,14.0854],[-11.9831,14.0884],[-11.9888,14.1238],[-11.9751,14.1839],[-11.9893,14.1926],[-12.0244,14.2845],[-12.101,14.305],[-12.0911,14.3242],[-12.106,14.3335],[-12.0898,14.3347],[-12.1027,14.3474],[-12.0934,14.3669],[-12.1242,14.3696],[-12.125,14.3928],[-12.1546,14.3834],[-12.1693,14.3996],[-12.1988,14.4048],[-12.1874,14.4397],[-12.2047,14.459],[-12.1971,14.4791],[-12.2191,14.4936],[-12.215,14.5475],[-12.185,14.5564],[-12.1713,14.6132],[-12.1443,14.6305],[-12.1444,14.6526],[-12.1751,14.6653],[-12.1576,14.6868],[-12.2078,14.701],[-12.209,14.73],[-12.2318,14.7395],[-12.2377,14.7666],[-12.2779,14.7793],[-12.3203,14.8261],[-12.3937,14.8474],[-12.4481,14.8926],[-12.4547,14.9749],[-12.4693,15.0021],[-12.5505,15.0343],[-12.6007,15.0823],[-12.6583,15.1103],[-12.6817,15.105],[-12.6877,15.0868],[-12.6259,15.0002],[-12.587,14.9045],[-12.6543,14.7045],[-12.7221,14.6127],[-12.7967,14.5814],[-12.9502,14.5595],[-13.2452,14.6134],[-13.5191,14.4064],[-13.8471,14.4138],[-14.0013,14.4879],[-14.274,14.5761],[-14.3275,14.6232],[-14.3462,14.6586],[-14.4134,14.6377],[-14.4828,14.5671],[-14.6287,14.528],[-14.6417,14.3012],[-14.5972,14.259],[-14.5833,13.9955],[-14.6024,13.941],[-14.6924,13.8871],[-14.7208,13.8188],[-14.8047,13.8123],[-14.8336,13.7695]]]}},{"type":"Feature","properties":{"name":"Thies","code":"71046170B89315153043645","iso":"SEN"},"geometry":{"type":"Polygon","coordinates":[[[-17.1446,14.5868],[-17.1089,14.5489],[-17.0917,14.496],[-17.0593,14.4529],[-17.01,14.4355],[-16.9514,14.3831],[-16.9324,14.3475],[-16.9306,14.2909],[-16.8812,14.2424],[-16.8714,14.1847],[-16.8043,14.1326],[-16.777,14.0539],[-16.7546,14.0669],[-16.768,14.107],[-16.7925,14.1313],[-16.7806,14.1429],[-16.7554,14.1414],[-16.7642,14.1649],[-16.7249,14.1983],[-16.7504,14.2368],[-16.7106,14.3025],[-16.7053,14.3983],[-16.6771,14.426],[-16.6354,14.4298],[-16.5519,14.4924],[-16.519,14.5798],[-16.5254,14.6076],[-16.5755,14.6068],[-16.6209,14.6401],[-16.6055,14.6902],[-16.607,14.7674],[-16.6493,14.812],[-16.6237,14.8487],[-16.6871,14.9293],[-16.6537,14.9586],[-16.43,15.0271],[-16.2724,14.9893],[-16.2284,14.9542],[-16.1771,14.964],[-16.1967,15.0923],[-16.2386,15.1279],[-16.2822,15.267],[-16.3023,15.2737],[-16.3231,15.2506],[-16.3462,15.2717],[-16.3349,15.2943],[-16.3521,15.3227],[-16.4174,15.3262],[-16.4527,15.3602],[-16.5029,15.3096],[-16.5705,15.194],[-16.6154,15.145],[-16.6152,15.1943],[-16.6352,15.2249],[-16.7163,15.2911],[-16.8101,15.3286],[-16.9415,15.1432],[-17.1119,14.9496],[-17.1281,14.9133],[-17.1768,14.8863],[-17.1264,14.7831],[-17.1446,14.5868]]]}},{"type":"Feature","properties":{"name":"Ziguinchor","code":"71046170B26251724010642","iso":"SEN"},"geometry":{"type":"Polygon","coordinates":[[[-15.895,13.1682],[-16.7032,13.1633],[-16.7003,13.1533],[-16.7122,13.1538],[-16.7023,13.1334],[-16.7282,13.1223],[-16.7197,13.1103],[-16.7379,13.1148],[-16.7301,13.0818],[-16.7485,13.0676],[-16.7448,12.9747],[-16.7868,12.776],[-16.7836,12.7069],[-16.7694,12.6989],[-16.782,12.6558],[-16.7522,12.5499],[-16.794,12.4865],[-16.7746,12.4055],[-16.7419,12.3806],[-16.7214,12.338],[-16.6897,12.3592],[-16.606,12.3469],[-16.5475,12.3604],[-16.5143,12.3505],[-16.381,12.3625],[-16.3754,12.3759],[-16.2028,12.4613],[-16.1626,12.4497],[-16.0388,12.4724],[-15.9534,12.4428],[-15.8891,12.4502],[-15.892,12.4677],[-15.9273,12.4745],[-15.922,12.5112],[-15.9553,12.5445],[-15.9675,12.6257],[-15.9899,12.6528],[-16.0165,12.6584],[-16.0108,12.7216],[-16.0235,12.7491],[-15.9952,12.7723],[-16.0035,12.8246],[-15.9744,12.8579],[-15.9738,12.8958],[-15.9944,12.9192],[-15.9875,12.9395],[-15.9441,12.9862],[-15.894,13.0882],[-15.9283,13.096],[-15.936,13.1153],[-15.8979,13.1441],[-15.895,13.1682]]]}},{"type":"Feature","properties":{"name":"Kedougou","code":"71046170B5066698136661","iso":"SEN"},"geometry":{"type":"Polygon","coordinates":[[[-13.1233,12.6411],[-13.091,12.6272],[-13.0618,12.6445],[-13.0483,12.6255],[-13.0426,12.5794],[-13.0685,12.5358],[-13.0609,12.4853],[-12.9754,12.4707],[-12.9488,12.4805],[-12.9501,12.5349],[-12.8941,12.5555],[-12.8822,12.5524],[-12.8799,12.5338],[-12.8363,12.5166],[-12.8472,12.4967],[-12.7549,12.4686],[-12.7654,12.4355],[-12.6283,12.4366],[-12.6,12.4056],[-12.5839,12.4097],[-12.5674,12.3689],[-12.5141,12.4064],[-12.4496,12.4002],[-12.3916,12.3759],[-12.3573,12.3078],[-12.2481,12.3533],[-12.1741,12.3595],[-12.0869,12.4229],[-12.0582,12.4304],[-12.0059,12.4001],[-11.9627,12.4106],[-11.8993,12.4499],[-11.8912,12.4273],[-11.8642,12.4189],[-11.8479,12.3971],[-11.8021,12.406],[-11.7672,12.386],[-11.6974,12.4024],[-11.6585,12.4292],[-11.4989,12.4487],[-11.4345,12.4416],[-11.3991,12.4186],[-11.375,12.4186],[-11.3657,12.4351],[-11.3743,12.4546],[-11.3511,12.4658],[-11.3553,12.494],[-11.3648,12.5105],[-11.3739,12.4845],[-11.3837,12.4933],[-11.3902,12.5395],[-11.4095,12.5428],[-11.4124,12.5224],[-11.4284,12.5291],[-11.4334,12.5502],[-11.4482,12.5484],[-11.4412,12.5688],[-11.4185,12.5688],[-11.4048,12.591],[-11.4258,12.6116],[-11.4093,12.6288],[-11.4155,12.6535],[-11.4494,12.6751],[-11.4385,12.7047],[-11.4256,12.7001],[-11.4255,12.7297],[-11.3686,12.7378],[-11.383,12.7413],[-11.3817,12.7585],[-11.3996,12.7739],[-11.3855,12.7801],[-11.3849,12.8317],[-11.4038,12.8282],[-11.412,12.8482],[-11.3982,12.8582],[-11.4066,12.8787],[-11.3887,12.9062],[-11.4027,12.9142],[-11.3991,12.9314],[-11.3481,12.9433],[-11.3666,12.991],[-11.3846,12.9919],[-11.3853,12.9672],[-11.4122,12.97],[-11.4167,12.9996],[-11.3967,13.0069],[-11.4362,13.0575],[-11.4263,13.0833],[-11.4778,13.0998],[-11.5021,13.1442],[-11.5149,13.1472],[-11.5,13.1895],[-11.5349,13.1983],[-11.5433,13.2123],[-11.5234,13.2569],[-11.5434,13.2876],[-11.591,13.3096],[-11.5967,13.367],[-11.6374,13.3638],[-11.6269,13.3938],[-11.6917,13.389],[-11.7023,13.4126],[-11.7371,13.4138],[-11.7669,13.3396],[-11.7894,13.3348],[-11.7973,13.3109],[-11.8326,13.3109],[-11.8298,13.3315],[-11.8878,13.3848],[-11.9553,13.3655],[-12.0185,13.3111],[-12.0357,13.3274],[-12.0286,13.3719],[-12.0562,13.3584],[-12.1078,13.3764],[-12.149,13.4164],[-12.2431,13.461],[-12.2619,13.397],[-12.2219,13.3392],[-12.2319,13.3223],[-12.2565,13.3113],[-12.3076,13.3185],[-12.3328,13.2595],[-12.3774,13.2927],[-12.417,13.2856],[-12.4606,13.2502],[-12.4885,13.1967],[-12.5181,13.1847],[-12.5563,13.1853],[-12.5939,13.2096],[-12.6055,13.1908],[-12.6317,13.1967],[-12.6499,13.177],[-12.6758,13.1759],[-12.6689,13.1426],[-12.6855,13.1062],[-12.7193,13.0925],[-12.7251,13.0722],[-12.7606,13.0762],[-12.7588,13.0536],[-12.7762,13.0541],[-12.775,13.0362],[-12.8133,13.0304],[-12.8135,12.9965],[-12.839,13.0186],[-12.8495,13.009],[-12.8662,13.0156],[-12.8677,13.0288],[-12.8784,13.0261],[-12.901,13.0504],[-12.9146,13.0452],[-12.9141,13.0592],[-12.9357,13.0659],[-12.9302,13.0817],[-12.9666,13.0693],[-12.9903,13.0822],[-13.0244,13.0563],[-13.0517,13.0645],[-13.0859,13.0286],[-13.1263,13.0523],[-13.1672,13.0505],[-13.1713,13.0649],[-13.2084,13.0502],[-13.2099,13.0293],[-13.2394,13.0124],[-13.2131,13.0044],[-13.1889,12.964],[-13.178,12.9689],[-13.1445,12.9287],[-13.1407,12.9108],[-13.1546,12.8964],[-13.1792,12.8964],[-13.1676,12.8892],[-13.1698,12.8687],[-13.1426,12.8563],[-13.1485,12.8335],[-13.0974,12.8172],[-13.1174,12.765],[-13.0902,12.7024],[-13.1166,12.6796],[-13.1233,12.6411]]]}}]}