{"type":"FeatureCollection","features":[{"type":"Feature","properties":{"name":"Southern","code":"38320839B10533035746056","iso":"SLE"},"geometry":{"type":"MultiPolygon","coordinates":[[[[-12.5626,7.3763],[-12.5609,7.3777],[-12.562,7.3793],[-12.5626,7.3763]]],[[[-12.5686,7.4001],[-12.5703,7.4002],[-12.5708,7.3942],[-12.5684,7.3917],[-12.5686,7.4001]]],[[[-12.5698,7.4009],[-12.5735,7.4091],[-12.5719,7.4113],[-12.5729,7.4114],[-12.5745,7.4101],[-12.5745,7.4071],[-12.5698,7.4009]]],[[[-12.5672,7.4204],[-12.5696,7.4148],[-12.5652,7.42],[-12.5672,7.4204]]],[[[-12.4408,7.4105],[-12.4264,7.4189],[-12.4495,7.4151],[-12.4408,7.4105]]],[[[-12.5008,7.4288],[-12.5004,7.4314],[-12.5031,7.4346],[-12.5043,7.4336],[-12.5039,7.4303],[-12.5021,7.4276],[-12.5008,7.4288]]],[[[-12.4814,7.4308],[-12.4791,7.4342],[-12.4812,7.4368],[-12.4838,7.4323],[-12.4814,7.4308]]],[[[-12.4829,7.4413],[-12.4836,7.4435],[-12.489,7.4447],[-12.4851,7.441],[-12.4833,7.4403],[-12.4829,7.4413]]],[[[-12.4847,7.4317],[-12.4824,7.4379],[-12.4885,7.4418],[-12.4928,7.448],[-12.4958,7.4416],[-12.4894,7.4318],[-12.4853,7.4306],[-12.4847,7.4317]]],[[[-12.4964,7.4473],[-12.4947,7.4536],[-12.4973,7.4524],[-12.4993,7.4484],[-12.4992,7.4465],[-12.4964,7.4473]]],[[[-12.5191,7.4537],[-12.5194,7.4548],[-12.5206,7.4536],[-12.5191,7.4537]]],[[[-12.4973,7.4691],[-12.5011,7.4681],[-12.5005,7.4653],[-12.4973,7.4691]]],[[[-12.5093,7.4695],[-12.5151,7.47],[-12.5163,7.4656],[-12.5134,7.4649],[-12.5097,7.4674],[-12.5093,7.4695]]],[[[-12.4727,7.5133],[-12.4723,7.5181],[-12.4754,7.5233],[-12.4774,7.5125],[-12.4727,7.5133]]],[[[-12.4833,7.5211],[-12.4843,7.5275],[-12.4892,7.5355],[-12.4923,7.5294],[-12.4833,7.5211]]],[[[-12.4952,7.532],[-12.4919,7.5376],[-12.4923,7.5419],[-12.4969,7.5419],[-12.4976,7.5333],[-12.4952,7.532]]],[[[-12.4677,7.5215],[-12.4588,7.5377],[-12.469,7.5447],[-12.4777,7.5383],[-12.4677,7.5215]]],[[[-12.4938,7.5425],[-12.4925,7.5451],[-12.4937,7.5476],[-12.4966,7.5452],[-12.4938,7.5425]]],[[[-12.4727,7.5457],[-12.4805,7.5505],[-12.4827,7.5511],[-12.4832,7.5501],[-12.4807,7.5429],[-12.4731,7.5445],[-12.4727,7.5457]]],[[[-12.972,7.5637],[-12.974,7.5638],[-12.9734,7.5614],[-12.972,7.5637]]],[[[-12.9889,7.5822],[-12.9897,7.5863],[-12.9885,7.5888],[-12.9904,7.5903],[-12.9923,7.5842],[-12.9892,7.5801],[-12.9889,7.5822]]],[[[-12.9244,7.5849],[-12.9208,7.5873],[-12.9223,7.5877],[-12.9249,7.5923],[-12.9283,7.5898],[-12.9295,7.5867],[-12.9269,7.584],[-12.9244,7.5849]]],[[[-12.9804,7.5915],[-12.979,7.5935],[-12.9814,7.5912],[-12.9804,7.5915]]],[[[-12.9808,7.5885],[-12.9894,7.5932],[-12.9727,7.5709],[-12.9958,7.5816],[-12.9933,7.5908],[-13.0053,7.5832],[-12.9735,7.5656],[-12.9649,7.5813],[-12.9808,7.5885]]],[[[-13.0031,7.5908],[-13.0045,7.5951],[-13.0054,7.592],[-13.0069,7.5916],[-13.0165,7.5904],[-13.0188,7.5922],[-13.0138,7.5865],[-13.0057,7.5883],[-13.0031,7.5908]]],[[[-12.4778,7.5849],[-12.476,7.5904],[-12.4844,7.5969],[-12.485,7.5909],[-12.4828,7.5866],[-12.48,7.5846],[-12.4778,7.5849]]],[[[-13.018,7.5951],[-13.0193,7.5978],[-13.0195,7.5962],[-13.018,7.5951]]],[[[-12.4765,7.5935],[-12.4797,7.5979],[-12.4815,7.5989],[-12.4834,7.5977],[-12.4805,7.5946],[-12.4765,7.5935]]],[[[-13.0162,7.6025],[-13.0167,7.6036],[-13.0192,7.6019],[-13.0201,7.5997],[-13.0188,7.5997],[-13.0183,7.602],[-13.0174,7.5955],[-13.0162,7.6025]]],[[[-13.0109,7.6043],[-13.0138,7.6034],[-13.0129,7.5979],[-13.0146,7.5956],[-13.0132,7.5929],[-13.0111,7.5951],[-13.0114,7.5979],[-13.009,7.5972],[-13.0097,7.5948],[-13.007,7.5941],[-13.004,7.6012],[-13.0066,7.6039],[-13.0098,7.6032],[-13.0109,7.6043]]],[[[-12.9451,7.6084],[-12.9442,7.6066],[-12.9396,7.6063],[-12.9451,7.6084]]],[[[-12.4942,7.6209],[-12.5094,7.6183],[-12.4794,7.6045],[-12.4942,7.6209]]],[[[-13.0174,7.6165],[-13.0182,7.6199],[-13.0219,7.6246],[-13.0217,7.622],[-13.0164,7.6144],[-13.0174,7.6165]]],[[[-12.5026,7.6266],[-12.5017,7.6277],[-12.503,7.6313],[-12.5056,7.6277],[-12.5026,7.6266]]],[[[-12.9566,7.6305],[-12.9528,7.6328],[-12.9558,7.6332],[-12.9582,7.6308],[-12.9566,7.6305]]],[[[-12.5535,7.6295],[-12.5575,7.6357],[-12.5617,7.636],[-12.5591,7.6302],[-12.5535,7.6295]]],[[[-12.6045,7.6376],[-12.8725,7.6184],[-12.9227,7.5916],[-12.8963,7.5707],[-12.9487,7.5804],[-12.9589,7.5713],[-12.7788,7.5291],[-12.6179,7.4731],[-12.5769,7.453],[-12.562,7.4227],[-12.5682,7.3929],[-12.5309,7.3913],[-12.5304,7.4684],[-12.4892,7.509],[-12.5161,7.5561],[-12.5042,7.5471],[-12.4944,7.5694],[-12.5304,7.6028],[-12.5866,7.6117],[-12.5778,7.6249],[-12.6045,7.6376]]],[[[-12.9935,7.6332],[-12.9932,7.6427],[-13.0041,7.6329],[-12.9935,7.6332]]],[[[-13.0688,7.6531],[-13.0696,7.6511],[-13.0684,7.6501],[-13.0677,7.6525],[-13.0688,7.6531]]],[[[-12.5233,7.625],[-12.524,7.6391],[-12.5548,7.657],[-12.5402,7.6298],[-12.5233,7.625]]],[[[-13.047,7.6386],[-13.0201,7.6572],[-13.0642,7.6429],[-13.065,7.6219],[-13.0389,7.6207],[-13.047,7.6386]]],[[[-13.0746,7.6533],[-13.0856,7.6642],[-13.0807,7.6579],[-13.0746,7.6533]]],[[[-13.0728,7.6678],[-13.0569,7.6723],[-13.0624,7.6744],[-13.0684,7.6732],[-13.0746,7.6693],[-13.0769,7.6654],[-13.0728,7.6678]]],[[[-12.6839,7.6808],[-12.6934,7.6822],[-12.6969,7.6814],[-12.6991,7.6742],[-12.7025,7.6716],[-12.702,7.6706],[-12.6934,7.6714],[-12.6796,7.6786],[-12.6805,7.6807],[-12.6839,7.6808]]],[[[-12.5176,7.7157],[-12.5408,7.694],[-12.519,7.6963],[-12.5176,7.7157]]],[[[-12.9806,7.9122],[-12.9811,7.9153],[-12.9857,7.909],[-12.9773,7.9098],[-12.9769,7.9115],[-12.9806,7.9122]]],[[[-11.1435,7.3409],[-11.2506,7.3762],[-11.3493,7.4409],[-11.3667,7.5264],[-11.362,7.5589],[-11.3105,7.5965],[-11.353,7.5974],[-11.3707,7.6542],[-11.4495,7.5442],[-11.5082,7.5437],[-11.4885,7.6203],[-11.5138,7.6457],[-11.5152,7.6643],[-11.4911,7.6859],[-11.4829,7.7132],[-11.4386,7.6896],[-11.4012,7.7687],[-11.4254,7.8227],[-11.4689,7.7815],[-11.493,7.7855],[-11.4816,7.7994],[-11.4846,7.8322],[-11.4703,7.8614],[-11.4473,7.8742],[-11.447,7.9031],[-11.4249,7.9173],[-11.384,7.9082],[-11.3902,7.9363],[-11.3537,7.9604],[-11.3875,8.0166],[-11.336,8.0242],[-11.3345,8.0943],[-11.3457,8.1286],[-11.4033,8.1374],[-11.4037,8.163],[-11.3822,8.1943],[-11.4002,8.2283],[-11.4378,8.236],[-11.4616,8.2681],[-11.478,8.3279],[-11.5464,8.3703],[-11.5537,8.4305],[-11.5901,8.4678],[-11.5923,8.4888],[-11.6816,8.4714],[-11.7294,8.4835],[-11.7268,8.452],[-11.741,8.4222],[-11.8273,8.3564],[-11.9148,8.3605],[-11.9311,8.3488],[-11.9936,8.374],[-11.9964,8.3914],[-12.0279,8.3579],[-12.0361,8.3696],[-12.0675,8.3159],[-12.0501,8.2914],[-12.0353,8.2973],[-12.0319,8.2365],[-12.1319,8.3049],[-12.1718,8.3614],[-12.2302,8.3442],[-12.2702,8.3488],[-12.2941,8.3195],[-12.3445,8.352],[-12.3706,8.3531],[-12.3975,8.3168],[-12.4358,8.3138],[-12.4637,8.2916],[-12.5158,8.2871],[-12.5924,8.3097],[-12.6045,8.3408],[-12.6448,8.3543],[-12.6533,8.3748],[-12.6751,8.3645],[-12.7186,8.3692],[-12.7297,8.3467],[-12.8158,8.3977],[-12.8296,8.3973],[-12.8261,8.374],[-12.8546,8.3522],[-12.8486,8.334],[-12.8692,8.3206],[-12.8619,8.3095],[-12.8734,8.3024],[-12.8833,8.3115],[-12.8928,8.2893],[-12.8833,8.2798],[-12.9042,8.277],[-12.9125,8.2628],[-12.9466,8.2631],[-12.9543,8.2492],[-12.9725,8.2663],[-12.9896,8.2328],[-12.9936,8.2089],[-12.9454,8.1547],[-12.9135,8.0933],[-12.8968,8.0944],[-12.901,8.0166],[-12.8778,7.96],[-12.8488,7.9401],[-12.9029,7.9442],[-12.9294,7.9212],[-12.9543,7.9187],[-12.9206,7.8688],[-12.899,7.8668],[-12.8313,7.8],[-12.8063,7.7889],[-12.7939,7.8027],[-12.7836,7.7597],[-12.7555,7.7481],[-12.7132,7.7009],[-12.6816,7.7059],[-12.5893,7.6843],[-12.4817,7.772],[-12.4675,7.7254],[-12.4469,7.7524],[-12.4407,7.7404],[-12.4638,7.7209],[-12.4906,7.7449],[-12.5183,7.6919],[-12.5519,7.6703],[-12.5108,7.6357],[-12.4989,7.6455],[-12.4989,7.6298],[-12.4773,7.6139],[-12.4635,7.5548],[-12.3945,7.5541],[-12.3795,7.5373],[-12.4426,7.5202],[-12.4897,7.4492],[-12.4655,7.4255],[-12.439,7.4284],[-12.4133,7.4095],[-12.4772,7.4068],[-12.5222,7.3851],[-12.3925,7.3549],[-11.9194,7.1749],[-11.6986,7.0616],[-11.5953,6.9692],[-11.4975,6.9234],[-11.4197,6.9379],[-11.431,6.9717],[-11.4152,6.9718],[-11.4169,6.9853],[-11.3981,6.9866],[-11.3958,7.0024],[-11.3691,7.0197],[-11.3632,7.0522],[-11.3736,7.0727],[-11.3321,7.0801],[-11.334,7.1128],[-11.3529,7.1394],[-11.3288,7.1479],[-11.3359,7.157],[-11.3116,7.1871],[-11.3103,7.2108],[-11.2896,7.2034],[-11.2945,7.1958],[-11.2738,7.2395],[-11.2532,7.2312],[-11.2337,7.252],[-11.2218,7.2463],[-11.1829,7.2646],[-11.1809,7.293],[-11.1428,7.3243],[-11.1435,7.3409]]]]}},{"type":"Feature","properties":{"name":"Eastern","code":"38320839B88872338973316","iso":"SLE"},"geometry":{"type":"Polygon","coordinates":[[[-11.1435,7.3409],[-11.1019,7.3903],[-11.0592,7.4036],[-10.9351,7.5127],[-10.9217,7.4974],[-10.8272,7.5622],[-10.8177,7.5951],[-10.7894,7.6011],[-10.7899,7.6169],[-10.8049,7.616],[-10.7757,7.6365],[-10.7757,7.6536],[-10.768,7.6463],[-10.7471,7.6617],[-10.6952,7.7398],[-10.6577,7.7654],[-10.6069,7.7752],[-10.605,8.0407],[-10.5751,8.0488],[-10.5271,8.126],[-10.4626,8.158],[-10.3973,8.1487],[-10.373,8.1666],[-10.3525,8.1499],[-10.3188,8.196],[-10.3,8.2037],[-10.2968,8.225],[-10.3194,8.2844],[-10.3006,8.2972],[-10.2889,8.3356],[-10.2936,8.3655],[-10.2706,8.4453],[-10.2778,8.4867],[-10.3209,8.5059],[-10.3576,8.4833],[-10.3832,8.4931],[-10.3992,8.4474],[-10.5411,8.3074],[-10.5706,8.3087],[-10.5881,8.3381],[-10.6594,8.351],[-10.6828,8.3151],[-10.685,8.2874],[-10.7021,8.281],[-10.679,8.3714],[-10.6406,8.3936],[-10.6513,8.4239],[-10.6423,8.4723],[-10.6202,8.4916],[-10.6271,8.5051],[-10.6146,8.5419],[-10.5741,8.5727],[-10.569,8.6024],[-10.4932,8.6255],[-10.4648,8.6722],[-10.4994,8.7124],[-10.5059,8.736],[-10.4957,8.7414],[-10.5118,8.7413],[-10.5194,8.7828],[-10.5406,8.8034],[-10.5608,8.804],[-10.5589,8.8449],[-10.5916,8.9889],[-10.5734,9.0459],[-10.622,9.042],[-10.6783,9.0155],[-10.6943,8.9658],[-10.679,8.9631],[-10.6737,8.9346],[-10.7287,8.9306],[-10.7814,8.9439],[-10.8365,8.9379],[-10.8531,8.9552],[-10.8743,8.9485],[-10.8962,8.9757],[-10.9121,8.9585],[-10.932,8.9876],[-10.9141,9.0089],[-10.9373,9.0241],[-11.0556,9.0778],[-11.0822,9.0626],[-11.1047,9.0679],[-11.1352,9.0155],[-11.1239,8.9784],[-11.1445,8.9644],[-11.1495,8.9399],[-11.164,8.922],[-11.176,8.9373],[-11.2383,8.9313],[-11.2695,8.8623],[-11.2973,8.855],[-11.3059,8.8013],[-11.3398,8.7761],[-11.3504,8.7012],[-11.3338,8.6647],[-11.3507,8.6595],[-11.3529,8.6318],[-11.3368,8.5746],[-11.3435,8.5595],[-11.3801,8.5314],[-11.3881,8.5476],[-11.4204,8.5528],[-11.4923,8.5345],[-11.5328,8.5387],[-11.5899,8.5188],[-11.5901,8.4678],[-11.5537,8.4305],[-11.5464,8.3703],[-11.478,8.3279],[-11.4616,8.2681],[-11.4378,8.236],[-11.4002,8.2283],[-11.3822,8.1943],[-11.4037,8.163],[-11.4033,8.1374],[-11.3457,8.1286],[-11.3345,8.0943],[-11.336,8.0242],[-11.3875,8.0166],[-11.3537,7.9604],[-11.3902,7.9363],[-11.384,7.9082],[-11.4249,7.9173],[-11.447,7.9031],[-11.4473,7.8742],[-11.4703,7.8614],[-11.4846,7.8322],[-11.4816,7.7994],[-11.493,7.7855],[-11.4689,7.7815],[-11.4254,7.8227],[-11.4012,7.7687],[-11.4386,7.6896],[-11.4829,7.7132],[-11.4911,7.6859],[-11.5152,7.6643],[-11.5138,7.6457],[-11.4885,7.6203],[-11.5082,7.5437],[-11.4495,7.5442],[-11.3707,7.6542],[-11.353,7.5974],[-11.3105,7.5965],[-11.362,7.5589],[-11.3667,7.5264],[-11.3493,7.4409],[-11.2506,7.3762],[-11.1435,7.3409]]]}},{"type":"Feature","properties":{"name":"Western Area","code":"38320839B54273514798812","iso":"SLE"},"geometry":{"type":"MultiPolygon","coordinates":[[[[-13.2444,8.0952],[-13.2415,8.0981],[-13.2445,8.1022],[-13.2457,8.1012],[-13.2454,8.0985],[-13.2514,8.0961],[-13.2491,8.0944],[-13.2444,8.0952]]],[[[-13.2213,8.1089],[-13.2196,8.1122],[-13.2213,8.1135],[-13.231,8.1114],[-13.2346,8.1077],[-13.2376,8.1075],[-13.2381,8.104],[-13.2428,8.1023],[-13.2421,8.1],[-13.241,8.0982],[-13.2366,8.1006],[-13.23,8.0999],[-13.2204,8.1039],[-13.2213,8.1089]]],[[[-13.1907,8.1394],[-13.1901,8.1412],[-13.192,8.1428],[-13.1955,8.1421],[-13.1965,8.1392],[-13.1991,8.1392],[-13.199,8.1363],[-13.2026,8.1342],[-13.2026,8.1322],[-13.2051,8.1323],[-13.2037,8.1305],[-13.2063,8.1296],[-13.2069,8.1266],[-13.2199,8.12],[-13.2196,8.1134],[-13.214,8.1123],[-13.2071,8.1143],[-13.2084,8.117],[-13.2067,8.124],[-13.2028,8.1233],[-13.2026,8.1282],[-13.1946,8.131],[-13.1954,8.1334],[-13.1932,8.1346],[-13.1929,8.1375],[-13.1907,8.1394]]],[[[-13.1633,8.2024],[-13.1645,8.2066],[-13.1676,8.2055],[-13.1676,8.2012],[-13.1633,8.2024]]],[[[-12.9346,8.2622],[-12.9133,8.2988],[-12.9276,8.3388],[-12.9209,8.3673],[-13.0034,8.3661],[-13.0216,8.3835],[-13.037,8.3704],[-13.0644,8.3745],[-13.0604,8.3626],[-13.0808,8.3793],[-13.0935,8.4136],[-13.1079,8.4014],[-13.1338,8.4184],[-13.1855,8.4814],[-13.202,8.481],[-13.2096,8.494],[-13.255,8.4842],[-13.268,8.4971],[-13.2787,8.4742],[-13.2732,8.4929],[-13.2971,8.4994],[-13.2777,8.4543],[-13.2942,8.4233],[-13.2341,8.3458],[-13.2024,8.3343],[-13.1868,8.283],[-13.1595,8.2864],[-13.1759,8.2595],[-13.1576,8.2176],[-13.1642,8.1727],[-13.0611,8.2394],[-13.0044,8.2335],[-12.9898,8.2369],[-12.9725,8.2663],[-12.9543,8.2492],[-12.9346,8.2622]]]]}},{"type":"Feature","properties":{"name":"Northern","code":"38320839B67217096191525","iso":"SLE"},"geometry":{"type":"MultiPolygon","coordinates":[[[[-13.1314,8.5371],[-13.13,8.5385],[-13.1306,8.5403],[-13.1323,8.5395],[-13.1314,8.5371]]],[[[-13.1203,8.539],[-13.1151,8.5503],[-13.1251,8.5457],[-13.1235,8.5385],[-13.1216,8.5378],[-13.1203,8.539]]],[[[-12.9355,8.5555],[-12.9589,8.5555],[-12.9605,8.5401],[-12.9322,8.5369],[-12.9234,8.5466],[-12.9355,8.5555]]],[[[-13.1215,8.5594],[-13.1198,8.5599],[-13.1197,8.5649],[-13.1233,8.5632],[-13.1223,8.5587],[-13.1215,8.5594]]],[[[-13.0752,8.5654],[-13.0884,8.5659],[-13.0866,8.5381],[-13.0575,8.5484],[-13.0604,8.565],[-13.0752,8.5654]]],[[[-13.1064,8.5603],[-13.1051,8.5664],[-13.1068,8.5683],[-13.1102,8.5688],[-13.1137,8.5665],[-13.1121,8.5606],[-13.1076,8.5586],[-13.1064,8.5603]]],[[[-13.0402,8.5677],[-13.0387,8.572],[-13.0412,8.5691],[-13.0402,8.5677]]],[[[-12.9486,8.5717],[-12.9539,8.5737],[-12.9558,8.5732],[-12.9567,8.5711],[-12.9489,8.5696],[-12.9486,8.5717]]],[[[-13.0674,8.5736],[-13.0711,8.5801],[-13.0739,8.5782],[-13.0711,8.573],[-13.0674,8.5736]]],[[[-13.0004,8.5804],[-13.0145,8.5794],[-13.0068,8.575],[-13.0023,8.5773],[-13.0004,8.5804]]],[[[-12.9643,8.5735],[-12.9809,8.5834],[-13.0095,8.5715],[-12.9643,8.5735]]],[[[-13.1045,8.5874],[-13.1122,8.5934],[-13.1244,8.5651],[-13.1045,8.5874]]],[[[-13.1093,8.5971],[-13.1076,8.5988],[-13.1084,8.6004],[-13.1102,8.5968],[-13.1093,8.5971]]],[[[-13.1509,8.8513],[-13.1551,8.8518],[-13.1517,8.8498],[-13.1509,8.8513]]],[[[-13.2636,8.8519],[-13.2638,8.8544],[-13.2709,8.8559],[-13.2727,8.8554],[-13.2702,8.8536],[-13.2733,8.85],[-13.2649,8.8516],[-13.2666,8.8491],[-13.2636,8.8519]]],[[[-13.1503,8.8534],[-13.1606,8.8582],[-13.1561,8.8532],[-13.1503,8.8534]]],[[[-13.1712,8.8628],[-13.1736,8.8626],[-13.1738,8.861],[-13.1696,8.8596],[-13.1712,8.8628]]],[[[-13.1595,8.8629],[-13.1604,8.8642],[-13.164,8.8613],[-13.1526,8.8567],[-13.1546,8.8597],[-13.1595,8.8629]]],[[[-13.2732,8.8732],[-13.2747,8.8769],[-13.2791,8.8742],[-13.279,8.8724],[-13.2767,8.8721],[-13.2752,8.8671],[-13.2791,8.8661],[-13.2772,8.8638],[-13.2697,8.8668],[-13.2732,8.8732]]],[[[-13.2373,8.8862],[-13.2369,8.8872],[-13.2405,8.8872],[-13.2373,8.8862]]],[[[-13.2342,8.889],[-13.2338,8.8902],[-13.2365,8.8927],[-13.2371,8.8919],[-13.2342,8.889]]],[[[-13.2573,8.8934],[-13.2573,8.8725],[-13.2386,8.875],[-13.2573,8.8934]]],[[[-13.2668,8.892],[-13.2662,8.8959],[-13.2683,8.8963],[-13.2699,8.8931],[-13.2668,8.892]]],[[[-13.2729,8.8961],[-13.2742,8.8973],[-13.2747,8.8959],[-13.2729,8.8961]]],[[[-13.2451,8.8952],[-13.2453,8.898],[-13.2478,8.8984],[-13.2484,8.8967],[-13.2458,8.893],[-13.2382,8.8885],[-13.242,8.8949],[-13.2451,8.8952]]],[[[-13.195,8.898],[-13.1876,8.9007],[-13.1861,8.9032],[-13.1938,8.9013],[-13.1973,8.8974],[-13.195,8.898]]],[[[-13.2696,8.9024],[-13.2737,8.9059],[-13.278,8.9049],[-13.276,8.9014],[-13.2696,8.9024]]],[[[-13.1569,8.9039],[-13.1571,8.906],[-13.165,8.9033],[-13.1597,8.9019],[-13.1569,8.9039]]],[[[-13.1959,8.9069],[-13.2033,8.9129],[-13.2064,8.9135],[-13.2028,8.9065],[-13.2005,8.9057],[-13.1959,8.9069]]],[[[-13.2154,8.9161],[-13.2354,8.9139],[-13.2396,8.8989],[-13.2269,8.8869],[-13.2352,8.8831],[-13.1982,8.8967],[-13.2154,8.9161]]],[[[-13.1437,8.8982],[-13.1175,8.9264],[-13.1365,8.9216],[-13.1437,8.8982]]],[[[-11.5923,8.4888],[-11.583,8.4895],[-11.5899,8.5188],[-11.58,8.5272],[-11.4204,8.5528],[-11.3881,8.5476],[-11.3801,8.5314],[-11.3435,8.5595],[-11.3368,8.5746],[-11.3529,8.6318],[-11.3507,8.6595],[-11.3338,8.6647],[-11.3504,8.7012],[-11.3398,8.7761],[-11.3059,8.8013],[-11.2973,8.855],[-11.2695,8.8623],[-11.2383,8.9313],[-11.176,8.9373],[-11.164,8.922],[-11.1495,8.9399],[-11.1445,8.9644],[-11.1239,8.9784],[-11.1352,9.0155],[-11.1047,9.0679],[-11.0822,9.0626],[-11.0556,9.0778],[-10.9373,9.0241],[-10.9141,9.0089],[-10.932,8.9876],[-10.9121,8.9585],[-10.8962,8.9757],[-10.8743,8.9485],[-10.8531,8.9552],[-10.8365,8.9379],[-10.7814,8.9439],[-10.7287,8.9306],[-10.6737,8.9346],[-10.679,8.9631],[-10.6943,8.9658],[-10.6783,9.0155],[-10.5789,9.0481],[-10.6174,9.073],[-10.6812,9.0856],[-10.7057,9.0738],[-10.7151,9.0529],[-10.745,9.0557],[-10.7279,9.0781],[-10.7241,9.1129],[-10.7085,9.1213],[-10.7192,9.1346],[-10.6558,9.1989],[-10.6357,9.2768],[-10.656,9.2931],[-10.652,9.3092],[-10.6997,9.3414],[-10.7313,9.3444],[-10.7251,9.3784],[-10.7879,9.4059],[-10.8444,9.4496],[-10.859,9.4945],[-10.8456,9.5165],[-10.8813,9.5573],[-10.8808,9.5811],[-10.9098,9.5979],[-10.9228,9.6291],[-10.9891,9.697],[-11.0294,9.6926],[-11.0099,9.754],[-11.0881,9.8402],[-11.1545,9.8706],[-11.1623,9.9533],[-11.2205,9.9993],[-11.898,9.9981],[-11.9167,9.9714],[-12.1255,9.8689],[-12.2037,9.9004],[-12.2192,9.9308],[-12.3401,9.8785],[-12.3646,9.8945],[-12.4212,9.8956],[-12.497,9.8417],[-12.489,9.8118],[-12.4981,9.8118],[-12.5173,9.7541],[-12.504,9.7461],[-12.5275,9.737],[-12.5173,9.7087],[-12.5307,9.7247],[-12.5622,9.7045],[-12.5723,9.6564],[-12.5878,9.6596],[-12.5874,9.6008],[-12.617,9.6049],[-12.633,9.5673],[-12.6277,9.5499],[-12.655,9.5367],[-12.6455,9.5112],[-12.6769,9.4617],[-12.6839,9.4085],[-12.706,9.4113],[-12.707,9.3893],[-12.7488,9.4003],[-12.7477,9.3446],[-12.7745,9.3412],[-12.7878,9.2985],[-12.8473,9.2778],[-12.879,9.2918],[-12.8834,9.2735],[-12.9078,9.2587],[-12.9308,9.2861],[-12.9541,9.2793],[-12.9561,9.1842],[-12.9989,9.1233],[-13.084,9.0772],[-13.0992,9.0507],[-13.1428,9.0522],[-13.1782,9.098],[-13.1998,9.0977],[-13.309,9.0446],[-13.284,8.9953],[-13.2955,8.9819],[-13.2905,8.9515],[-13.262,8.9517],[-13.2555,8.9748],[-13.2493,8.9425],[-13.2343,8.9603],[-13.1827,8.9085],[-13.1576,8.9085],[-13.1252,8.9325],[-13.0848,8.9277],[-13.1092,8.928],[-13.1483,8.8921],[-13.1991,8.891],[-13.1477,8.8545],[-13.1541,8.8433],[-13.2082,8.8635],[-13.2433,8.825],[-13.2452,8.6673],[-13.1864,8.5529],[-13.1486,8.5172],[-13.105,8.6071],[-13.0644,8.5728],[-13.0226,8.6027],[-12.9472,8.5932],[-12.9595,8.578],[-12.9164,8.5533],[-12.9408,8.522],[-12.9639,8.5304],[-12.9754,8.5636],[-13.0032,8.5533],[-13.0223,8.5647],[-13.0418,8.5346],[-13.023,8.5154],[-13.0499,8.5276],[-13.0627,8.5008],[-13.1063,8.4857],[-13.1094,8.4667],[-13.1347,8.4486],[-13.1321,8.437],[-13.0875,8.4186],[-13.0748,8.4282],[-13.0657,8.4128],[-13.0803,8.4112],[-13.0584,8.3783],[-13.037,8.3704],[-13.0216,8.3835],[-12.9875,8.3641],[-12.9209,8.3673],[-12.9276,8.3388],[-12.9133,8.2988],[-12.9327,8.2588],[-12.8833,8.2798],[-12.8928,8.2893],[-12.8833,8.3115],[-12.8734,8.3024],[-12.8619,8.3095],[-12.8692,8.3206],[-12.8486,8.334],[-12.8546,8.3522],[-12.8261,8.374],[-12.8296,8.3973],[-12.8158,8.3977],[-12.7297,8.3467],[-12.7186,8.3692],[-12.6751,8.3645],[-12.6533,8.3748],[-12.6448,8.3543],[-12.6045,8.3408],[-12.5924,8.3097],[-12.5158,8.2871],[-12.4637,8.2916],[-12.4358,8.3138],[-12.3975,8.3168],[-12.3706,8.3531],[-12.3445,8.352],[-12.2941,8.3195],[-12.2702,8.3488],[-12.2302,8.3442],[-12.1718,8.3614],[-12.1319,8.3049],[-12.0319,8.2365],[-12.0353,8.2973],[-12.0501,8.2914],[-12.0675,8.3159],[-12.0361,8.3696],[-12.0279,8.3579],[-11.9964,8.3914],[-11.9936,8.374],[-11.9311,8.3488],[-11.9148,8.3605],[-11.8273,8.3564],[-11.741,8.4222],[-11.7268,8.452],[-11.7294,8.4835],[-11.6816,8.4714],[-11.5923,8.4888]]]]}}]}