{"type":"FeatureCollection","features":[{"type":"Feature","properties":{"name":"Hiiraan","code":"83879307B66756469447496","iso":"SOM"},"geometry":{"type":"Polygon","coordinates":[[[44.5896,4.932],[44.68,4.41],[44.8,3.86],[44.77,3.7],[44.78,3.27],[45.07,3.25],[45.15,3.21],[45.27,3.2],[45.94,3.25],[46.03,3.52],[46.39,3.89],[46.4,4.23],[46.15,4.43],[46.11,4.74],[46.21,4.94],[46.23,5.08],[46.04,5.03],[45.71,5.11],[45.4109,5.5364],[44.978,4.9234],[44.5896,4.932]]]}},{"type":"Feature","properties":{"name":"Sanaag","code":"83879307B13610404434600","iso":"SOM"},"geometry":{"type":"Polygon","coordinates":[[[46.01,10.08],[46.84,9.42],[49.06,9.57],[49.03,10.78],[48.9175,11.2409],[48.6583,11.3253],[48.5974,11.3078],[48.5266,11.3101],[48.4692,11.2836],[48.4061,11.2848],[48.3543,11.2694],[48.3059,11.2223],[48.2388,11.2048],[48.14,11.1261],[47.9676,11.1148],[47.9175,11.1268],[47.8761,11.1128],[47.7959,11.1221],[47.6989,11.0905],[47.6303,11.1149],[47.5401,11.1803],[47.4139,11.1774],[47.1496,11.0635],[47.1011,10.988],[47.0096,10.9609],[46.9901,10.9297],[46.9306,10.9154],[46.8109,10.8238],[46.6253,10.7247],[46.591,10.7297],[46.4561,10.6855],[46.3987,10.6824],[46.3344,10.6974],[46.2332,10.7831],[46.1043,10.7643],[46.0304,10.7726],[46.01,10.08]]]}},{"type":"Feature","properties":{"name":"Banadir","code":"83879307B32896531038690","iso":"SOM"},"geometry":{"type":"Polygon","coordinates":[[[45.2693,1.9921],[45.3911,2.0518],[45.604,2.1831],[45.46,2.17],[45.39,2.15],[45.2693,1.9921]]]}},{"type":"Feature","properties":{"name":"Togdheer","code":"83879307B67680758004346","iso":"SOM"},"geometry":{"type":"Polygon","coordinates":[[[46.01,10.08],[45.9,10.1],[45.1,10.17],[44.83,9.86],[44.69,9.31],[44.69,8.7725],[47.0119,8.0007],[47.1,8.56],[47,8.75],[46.92,8.76],[46.92,8.7816],[46.19,8.82],[46.22,9],[46.0484,10.0494],[46.01,10.08]]]}},{"type":"Feature","properties":{"name":"Bakool","code":"83879307B58207540839705","iso":"SOM"},"geometry":{"type":"Polygon","coordinates":[[[44.5896,4.932],[44.154,4.9504],[44.0317,4.9433],[43.809,4.9021],[43.4347,4.7945],[43.2319,4.695],[43.0793,4.6022],[43.0348,4.559],[43.0075,4.4681],[42.9693,4.4029],[42.8842,4.307],[43.14,3.85],[43.12,3.67],[43.41,3.57],[43.58,3.61],[43.68,3.72],[43.75,3.85],[43.88,3.92],[43.95,3.92],[44.18,3.85],[44.31,3.57],[44.31,3.39],[44.28,3.34],[44.41,3.26],[44.61,3.27],[44.66,3.25],[44.78,3.27],[44.77,3.7],[44.8,3.86],[44.68,4.41],[44.5896,4.932]]]}},{"type":"Feature","properties":{"name":"Gedo","code":"83879307B34714219035659","iso":"SOM"},"geometry":{"type":"Polygon","coordinates":[[[42.8842,4.307],[42.8249,4.2668],[42.703,4.2604],[42.5541,4.2067],[42.0874,4.1791],[42.0631,4.1632],[42.0089,4.1013],[41.9789,4.0954],[41.9463,4.0555],[41.943,4.0167],[41.8996,3.9774],[41.3121,3.1412],[40.9892,2.8283],[40.9933,1.2308],[41.42,1.26],[41.64,1.94],[42.4,1.95],[42.6,3.07],[42.93,3.04],[43.1,3.06],[43.12,3.67],[43.14,3.85],[42.8842,4.307]]]}},{"type":"Feature","properties":{"name":"Middle Shebelle","code":"83879307B5242146898757","iso":"SOM"},"geometry":{"type":"Polygon","coordinates":[[[45.07,3.25],[45.12,3.04],[45.34,2.72],[45.33,2.18],[45.39,2.15],[45.46,2.17],[45.604,2.1831],[45.8932,2.3475],[46,2.4215],[46.1063,2.518],[46.2203,2.6579],[46.2941,2.7086],[46.3085,2.7465],[46.3442,2.7869],[46.6866,3.0826],[47.0357,3.4717],[46.39,3.89],[46.03,3.52],[45.94,3.25],[45.27,3.2],[45.15,3.21],[45.07,3.25]]]}},{"type":"Feature","properties":{"name":"Woqooyi Galbeed","code":"83879307B42572798770371","iso":"SOM"},"geometry":{"type":"Polygon","coordinates":[[[46.0304,10.7726],[45.9743,10.7796],[45.8741,10.8345],[45.8556,10.8348],[45.8893,10.8084],[45.859,10.8135],[45.847,10.8193],[45.8585,10.8304],[45.8507,10.8397],[45.8054,10.8687],[45.7699,10.8586],[45.7368,10.8153],[45.7289,10.8218],[45.6699,10.782],[45.5987,10.7644],[45.5704,10.7201],[45.4643,10.6654],[45.3215,10.661],[45.2331,10.5602],[45.1403,10.5164],[45.0869,10.5081],[45.0457,10.4719],[44.9806,10.445],[45.003,10.4516],[45.0081,10.4414],[44.947,10.409],[44.7471,10.4184],[44.5917,10.3784],[44.4516,10.4008],[44.4118,10.3901],[44.318,10.4169],[44.2359,10.4727],[44.15,10.32],[44.04,10.17],[43.82,10.29],[43.76,10.3],[43.72,10.26],[43.53,9.99],[43.37,9.8],[43.31,9.69],[43.2839,9.6844],[43.2982,9.6061],[43.3302,9.6017],[43.3998,9.552],[43.4322,9.4718],[43.4859,9.4387],[43.5003,9.4114],[43.5494,9.4044],[43.6283,9.3495],[43.6855,9.2825],[43.8081,9.2003],[43.9622,9.0683],[43.9795,9.0406],[44.0223,9.0282],[44.0649,8.9894],[44.1494,8.9486],[44.69,8.7725],[44.69,9.31],[44.83,9.86],[45.1,10.17],[45.9,10.1],[46.01,10.08],[46.0304,10.7726]]]}},{"type":"Feature","properties":{"name":"Sool","code":"83879307B65026001570916","iso":"SOM"},"geometry":{"type":"Polygon","coordinates":[[[46.0484,10.0494],[46.22,9],[46.19,8.82],[46.92,8.7816],[46.92,8.76],[47,8.75],[47.1,8.56],[47.0119,8.0007],[47.9199,7.9998],[48.13,8.21],[48.05,8.24],[48.56,8.78],[48.73,8.78],[49.0801,9.1395],[49.06,9.57],[46.84,9.42],[46.0484,10.0494]]]}},{"type":"Feature","properties":{"name":"Nugaal","code":"83879307B66585548815331","iso":"SOM"},"geometry":{"type":"Polygon","coordinates":[[[47.9199,7.9998],[47.9824,7.9998],[47.5571,7.5609],[48.5,7.41],[49.03,7.71],[49.19,7.7],[49.44,7.58],[49.5,7.57],[49.6458,7.4024],[49.7402,7.575],[49.7688,7.6674],[49.8255,7.7446],[49.8198,7.7569],[49.8355,7.7946],[49.8163,7.7982],[49.8021,7.8561],[49.8196,7.9237],[49.9712,8.0829],[50.0663,8.1383],[50.1252,8.1919],[50.1486,8.2849],[50.1759,8.3274],[50.05,8.44],[49.93,8.46],[49.84,8.33],[49.78,8.53],[49.68,8.58],[49.45,8.59],[49.18,8.77],[49.11,8.9],[49.0801,9.1395],[48.73,8.78],[48.56,8.78],[48.05,8.24],[48.13,8.21],[47.9199,7.9998]]]}},{"type":"Feature","properties":{"name":"Mudug","code":"83879307B26517451678825","iso":"SOM"},"geometry":{"type":"Polygon","coordinates":[[[47.5571,7.5609],[47.3375,7.3826],[46.5215,6.5305],[46.5404,6.5165],[47.6,6.28],[47.3507,5.7516],[47.47,5.57],[47.61,5.19],[47.5,4.49],[47.8266,4.3349],[47.9815,4.5047],[48.2114,4.9144],[48.6417,5.4921],[48.9109,5.9188],[49.0635,6.2414],[49.0785,6.2966],[49.0732,6.3477],[49.0865,6.4262],[49.2099,6.7434],[49.3897,7.043],[49.6458,7.4024],[49.5,7.57],[49.44,7.58],[49.19,7.7],[49.03,7.71],[48.5,7.41],[47.5571,7.5609]]]}},{"type":"Feature","properties":{"name":"Middle Juba","code":"83879307B33420401553888","iso":"SOM"},"geometry":{"type":"Polygon","coordinates":[[[41.42,1.26],[42.43,1.32],[42.63,0.72],[42.73,0.31],[43.1889,0.3267],[43.5183,0.676],[42.98,1.46],[42.9,1.52],[42.52,1.88],[42.4,1.95],[41.64,1.94],[41.42,1.26]]]}},{"type":"Feature","properties":{"name":"Lower Shebelle","code":"83879307B35519599536274","iso":"SOM"},"geometry":{"type":"Polygon","coordinates":[[[44.78,3.27],[44.66,3.25],[44.69,3.05],[44.64,2.81],[44.66,2.75],[44.62,2.48],[44.65,2.22],[43.88,1.88],[43.58,1.76],[42.98,1.46],[43.5183,0.676],[43.7774,0.909],[43.9385,1.0223],[43.9836,1.0728],[44.021,1.088],[44.0453,1.129],[44.1293,1.184],[44.1357,1.2072],[44.3201,1.3755],[44.6002,1.5984],[45.0459,1.8857],[45.2693,1.9921],[45.39,2.15],[45.33,2.18],[45.34,2.72],[45.12,3.04],[45.07,3.25],[44.78,3.27]]]}},{"type":"Feature","properties":{"name":"Lower Juba","code":"83879307B35818532110087","iso":"SOM"},"geometry":{"type":"MultiPolygon","coordinates":[[[[42.3249,-0.6404],[42.3276,-0.6634],[42.3493,-0.6204],[42.3249,-0.6404]]],[[[42.2766,-0.7364],[42.3091,-0.7004],[42.2631,-0.7496],[42.2766,-0.7364]]],[[[41.9163,-1.1618],[41.9152,-1.178],[41.9336,-1.1522],[41.9163,-1.1618]]],[[[41.9764,-1.0899],[41.9958,-1.0813],[41.9829,-1.0772],[41.9764,-1.0899]]],[[[42.0423,-0.9992],[42.0215,-1.0206],[42.0344,-1.0231],[42.0574,-0.9835],[42.0423,-0.9992]]],[[[42.1876,-0.8443],[42.1703,-0.8486],[42.128,-0.9058],[42.1876,-0.8443]]],[[[40.9933,1.2308],[40.9934,-0.834],[41.5589,-1.5986],[41.5594,-1.6621],[41.5941,-1.6403],[41.5953,-1.6089],[41.6228,-1.5824],[41.7445,-1.3849],[41.7852,-1.3425],[41.8369,-1.2495],[41.8381,-1.2149],[41.8684,-1.2174],[41.871,-1.2285],[41.9051,-1.1935],[41.8747,-1.2146],[41.9045,-1.17],[41.8964,-1.1744],[41.9019,-1.1538],[41.9292,-1.1424],[41.9569,-1.087],[41.9768,-1.034],[41.9654,-1.0178],[41.9823,-1.0211],[42.0234,-0.9889],[42.031,-0.9562],[42.1016,-0.8628],[42.0829,-0.8457],[42.0647,-0.8627],[42.066,-0.8419],[42.1129,-0.8443],[42.178,-0.8094],[42.4185,-0.4962],[42.4587,-0.4549],[42.4704,-0.4522],[42.4761,-0.4648],[42.4851,-0.4489],[42.473,-0.4404],[42.4779,-0.4267],[42.5206,-0.3764],[42.5417,-0.3664],[42.5557,-0.3764],[42.5413,-0.387],[42.5572,-0.3802],[42.5565,-0.3554],[42.6131,-0.2687],[42.8674,-0.0242],[43.1889,0.3267],[42.73,0.31],[42.63,0.72],[42.43,1.32],[40.9933,1.2308]]]]}},{"type":"Feature","properties":{"name":"Galgaduud","code":"83879307B20044253365087","iso":"SOM"},"geometry":{"type":"Polygon","coordinates":[[[46.39,3.89],[47.0357,3.4717],[47.2157,3.6701],[47.4701,3.9206],[47.8266,4.3349],[47.5,4.49],[47.61,5.19],[47.47,5.57],[47.3507,5.7516],[47.6,6.28],[46.5404,6.5165],[46.5215,6.5305],[45.8452,5.9566],[45.4109,5.5364],[45.71,5.11],[46.04,5.03],[46.23,5.08],[46.21,4.94],[46.11,4.74],[46.15,4.43],[46.4,4.23],[46.39,3.89]]]}},{"type":"Feature","properties":{"name":"Bay","code":"83879307B67196763494499","iso":"SOM"},"geometry":{"type":"Polygon","coordinates":[[[43.12,3.67],[43.1,3.06],[42.93,3.04],[42.6,3.07],[42.4,1.95],[42.52,1.88],[42.9,1.52],[42.98,1.46],[43.58,1.76],[43.88,1.88],[44.65,2.22],[44.62,2.48],[44.66,2.75],[44.64,2.81],[44.69,3.05],[44.66,3.25],[44.61,3.27],[44.41,3.26],[44.28,3.34],[44.31,3.39],[44.31,3.57],[44.18,3.85],[43.95,3.92],[43.88,3.92],[43.75,3.85],[43.68,3.72],[43.58,3.61],[43.41,3.57],[43.12,3.67]]]}},{"type":"Feature","properties":{"name":"Bari","code":"83879307B19000204873860","iso":"SOM"},"geometry":{"type":"Polygon","coordinates":[[[49.06,9.57],[49.0801,9.1395],[49.11,8.9],[49.18,8.77],[49.45,8.59],[49.68,8.58],[49.78,8.53],[49.84,8.33],[49.93,8.46],[50.05,8.44],[50.1759,8.3274],[50.1843,8.3331],[50.24,8.4376],[50.3182,8.5182],[50.3342,8.5592],[50.3296,8.6226],[50.3842,8.7019],[50.4204,8.8563],[50.477,8.9286],[50.6309,9.0644],[50.6492,9.1018],[50.6455,9.1701],[50.6564,9.2062],[50.7084,9.2707],[50.7488,9.2965],[50.8448,9.4543],[50.8449,9.4752],[50.8176,9.4883],[50.8045,9.5177],[50.8013,9.586],[50.8244,9.6553],[50.8515,9.8569],[50.8703,9.8822],[50.9006,9.9954],[50.8858,10.0933],[50.9045,10.1807],[50.8996,10.314],[51.027,10.3878],[51.1824,10.4218],[51.2621,10.4201],[51.2728,10.3757],[51.342,10.3776],[51.3761,10.3642],[51.3745,10.3831],[51.3927,10.3926],[51.4155,10.4426],[51.3895,10.4792],[51.3036,10.4761],[51.1955,10.5347],[51.2051,10.509],[51.1973,10.4805],[51.2358,10.4325],[51.1392,10.4319],[51.0465,10.4076],[51.0329,10.4493],[51.0851,10.4644],[51.1042,10.4836],[51.1107,10.5548],[51.1718,10.5754],[51.1298,10.6862],[51.1185,10.9473],[51.1331,11.0357],[51.183,11.1434],[51.1769,11.154],[51.1126,11.16],[51.0945,11.1798],[51.0776,11.2324],[51.0815,11.3167],[51.126,11.445],[51.1256,11.5012],[51.2565,11.6785],[51.2476,11.7164],[51.2868,11.8349],[51.2724,11.8428],[51.2389,11.8346],[51.1459,11.8724],[51.0578,11.8724],[50.9748,11.9201],[50.8598,11.9468],[50.799,11.9857],[50.7759,11.988],[50.7624,11.9733],[50.7805,11.987],[50.8081,11.9785],[50.7825,11.9791],[50.6799,11.9362],[50.6309,11.9424],[50.5989,11.9248],[50.5484,11.8768],[50.5226,11.7952],[50.5465,11.869],[50.5661,11.8911],[50.5261,11.791],[50.4765,11.7136],[50.4147,11.6649],[50.2998,11.6167],[50.2823,11.5955],[50.2173,11.5651],[50.1261,11.5405],[50.0765,11.5086],[50.0012,11.5032],[49.9471,11.5156],[49.9232,11.5029],[49.9455,11.4816],[49.9183,11.5046],[49.8258,11.4603],[49.7537,11.4584],[49.6941,11.48],[49.653,11.4598],[49.5712,11.4539],[49.5522,11.4462],[49.5116,11.3843],[49.4761,11.3747],[49.433,11.3389],[49.3022,11.3359],[49.252,11.3029],[48.9614,11.2405],[48.9175,11.2409],[49.03,10.78],[49.06,9.57]]]}},{"type":"Feature","properties":{"name":"Awdal","code":"83879307B11376444747055","iso":"SOM"},"geometry":{"type":"MultiPolygon","coordinates":[[[[43.4657,11.5093],[43.4687,11.5119],[43.4652,11.5152],[43.4623,11.5147],[43.4609,11.5098],[43.4543,11.5036],[43.4521,11.495],[43.4478,11.489],[43.4517,11.4903],[43.4558,11.4938],[43.4657,11.5093]]],[[[44.2359,10.4727],[44.1473,10.5448],[44.1072,10.5553],[44.0611,10.6126],[43.8935,10.7319],[43.7493,10.8762],[43.6531,10.9969],[43.6469,10.9768],[43.6389,10.9963],[43.6516,10.9992],[43.5539,11.1771],[43.5185,11.1941],[43.4995,11.2285],[43.479,11.3295],[43.4891,11.3623],[43.508,11.3719],[43.463,11.3594],[43.4895,11.3651],[43.4787,11.3501],[43.4681,11.359],[43.4717,11.3511],[43.4549,11.3485],[43.4231,11.381],[43.3855,11.3803],[43.3519,11.4092],[43.3456,11.431],[43.3256,11.4302],[43.3048,11.4729],[43.3121,11.4621],[43.2923,11.4651],[43.2924,11.4468],[43.2827,11.464],[43.2574,11.4611],[42.9616,10.9844],[42.7658,10.7216],[42.7099,10.6222],[42.7199,10.5336],[42.7471,10.5119],[42.8597,10.229],[42.9737,10.0933],[43.0248,10.0511],[43.0862,9.9081],[43.1292,9.8863],[43.15,9.8992],[43.257,9.8429],[43.2839,9.6844],[43.31,9.69],[43.37,9.8],[43.53,9.99],[43.72,10.26],[43.76,10.3],[43.82,10.29],[44.04,10.17],[44.15,10.32],[44.2359,10.4727]]],[[[43.4651,11.4252],[43.4702,11.4491],[43.4478,11.4388],[43.4554,11.4443],[43.4542,11.418],[43.4651,11.4252]]]]}}]}