{"type":"FeatureCollection","features":[{"type":"Feature","properties":{"name":"Lakes","code":"48771326B2646389376646","iso":"SSD"},"geometry":{"type":"Polygon","coordinates":[[[30.7062,7.2138],[30.6189,7.2014],[30.5365,7.0672],[30.2316,7.0947],[29.9267,7.796],[29.698,7.8326],[29.5333,7.7024],[29.329,7.6658],[29.0789,7.4219],[28.8655,7.0559],[28.9814,6.7601],[29.0027,6.629],[28.9875,6.5314],[28.899,6.4064],[28.7923,6.3881],[28.4965,6.4979],[28.466,6.4866],[28.4996,6.3677],[28.463,6.2976],[28.524,6.2518],[28.5727,6.075],[28.6551,6.0597],[28.8197,5.8158],[29.0149,5.7151],[29.5699,5.6755],[29.6309,5.9743],[29.7894,6.0841],[29.7925,6.3098],[29.8565,6.3128],[29.8718,6.264],[29.9114,6.2549],[29.8992,6.3128],[29.9675,6.3637],[30.1218,6.3524],[30.1554,6.2366],[30.2072,6.1573],[30.192,6.0932],[30.3039,6.0812],[30.5241,6.0917],[30.6119,6.2511],[31.0217,5.9095],[31.6973,5.8728],[31.4738,6.3486],[31.1909,6.8073],[30.7062,7.2138]]]}},{"type":"Feature","properties":{"name":"Central Equatoria","code":"48771326B10235544430886","iso":"SSD"},"geometry":{"type":"Polygon","coordinates":[[[30.3039,6.0812],[30.6542,5.7436],[31.0185,5.5745],[30.9957,5.3859],[30.9241,5.3859],[30.9306,5.2557],[30.9632,5.207],[30.9371,5.1517],[30.9046,5.1517],[30.8916,5.0834],[30.9111,5.0346],[30.8623,4.9305],[30.8038,4.9305],[30.703,4.8492],[30.5371,4.8004],[30.5143,4.6703],[30.3972,4.6085],[30.2996,4.6833],[30.2053,4.7093],[30.0784,4.6475],[29.9548,4.6508],[29.8094,4.5646],[29.8289,4.5588],[29.8017,4.512],[29.8087,4.4721],[29.797,4.3727],[29.8282,4.3613],[29.8416,4.3361],[29.8997,4.3485],[29.9648,4.3024],[29.9705,4.2917],[29.945,4.2453],[29.9752,4.2066],[29.9873,4.2166],[30.0232,4.2109],[30.0289,4.1747],[30.0578,4.1337],[30.1259,4.109],[30.1622,4.1198],[30.1709,4.0677],[30.1595,4.0513],[30.192,4.0325],[30.2031,4.0019],[30.1951,3.9672],[30.2112,3.9377],[30.241,3.935],[30.2756,3.9588],[30.2964,3.9407],[30.2991,3.9212],[30.3414,3.9266],[30.3578,3.9112],[30.3864,3.9088],[30.3817,3.8974],[30.3971,3.8944],[30.4045,3.8675],[30.4273,3.8655],[30.4471,3.8823],[30.4666,3.8343],[30.5331,3.8539],[30.5599,3.8113],[30.5792,3.7385],[30.566,3.7025],[30.5785,3.6528],[30.5592,3.6217],[30.6276,3.6068],[30.6832,3.6438],[30.7316,3.6255],[30.7342,3.6375],[30.7561,3.6363],[30.7627,3.6776],[30.7769,3.6811],[30.7981,3.6571],[30.7988,3.6035],[30.8613,3.5697],[30.849,3.4985],[30.8594,3.481],[30.9068,3.5957],[30.9447,3.6324],[30.9474,3.6578],[30.9735,3.6911],[31.0334,3.701],[31.0594,3.7213],[31.0656,3.7424],[31.0989,3.7368],[31.1041,3.7515],[31.1749,3.7956],[31.2909,3.7931],[31.5275,3.6555],[31.6603,3.7207],[31.7036,3.7127],[31.7297,3.7519],[31.802,3.8085],[31.7243,4.0002],[31.7633,4.0295],[31.8642,4.0393],[31.9845,4.1043],[31.9975,4.2442],[32.0496,4.2377],[32.0723,4.2702],[32.0658,4.4784],[32.0073,4.5174],[32.1504,4.5532],[32.1244,4.5987],[32.1732,4.9533],[32.0983,5.2135],[32.1144,5.85],[31.0217,5.9095],[30.6119,6.2511],[30.5241,6.0917],[30.3039,6.0812]]]}},{"type":"Feature","properties":{"name":"Eastern Equatoria","code":"48771326B42994405084241","iso":"SSD"},"geometry":{"type":"Polygon","coordinates":[[[31.7996,3.827],[31.8578,3.7966],[31.9232,3.7106],[31.9459,3.6699],[31.9546,3.5879],[32.0538,3.5912],[32.0861,3.5604],[32.0852,3.5316],[32.2033,3.5056],[32.2195,3.5641],[32.1964,3.5982],[32.4158,3.7447],[32.7229,3.7602],[32.8988,3.8134],[33.0271,3.8899],[33.1798,3.7761],[33.5121,3.7479],[34.3775,4.6327],[35.951,4.6282],[35.8246,4.7804],[35.8196,5.1084],[35.8659,5.1725],[35.8277,5.2509],[35.8615,5.294],[35.864,5.3227],[35.7839,5.3594],[35.7735,5.3526],[35.7524,5.3786],[35.7263,5.3756],[35.7274,5.3899],[35.7131,5.3987],[35.6256,5.3841],[35.6212,5.4054],[35.5408,5.4249],[35.4927,5.4212],[35.413,5.3661],[35.3385,5.3381],[35.308,5.3395],[35.294,5.4151],[35.3092,5.4625],[35.3066,5.5034],[35.1271,5.6292],[35.1265,5.6879],[34.9979,5.8986],[34.9933,5.9674],[35.0117,6.0082],[34.1443,5.7209],[33.3116,5.8403],[32.1144,5.85],[32.0983,5.2135],[32.1732,4.9533],[32.1244,4.5987],[32.1504,4.5532],[32.0073,4.5174],[32.0658,4.4784],[32.0723,4.2702],[32.0496,4.2377],[31.9975,4.2442],[31.9845,4.1043],[31.8642,4.0393],[31.7633,4.0295],[31.7243,4.0002],[31.7996,3.827]]]}},{"type":"Feature","properties":{"name":"Upper Nile","code":"48771326B2876692069974","iso":"SSD"},"geometry":{"type":"Polygon","coordinates":[[[33.0357,7.988],[33.0447,8.0147],[33.0777,8.0227],[33.085,8.0744],[33.1207,8.0623],[33.1197,8.1105],[33.1599,8.1118],[33.1704,8.1296],[33.1938,8.1315],[33.1893,8.1688],[33.1665,8.1963],[33.1994,8.2159],[33.2057,8.2367],[33.1754,8.2563],[33.1699,8.2953],[33.198,8.3006],[33.1926,8.3345],[33.2181,8.3437],[33.2162,8.36],[33.1941,8.3524],[33.189,8.4002],[33.2164,8.4062],[33.2194,8.435],[33.233,8.4238],[33.2503,8.4399],[33.2432,8.4466],[33.2698,8.4613],[33.2925,8.4399],[33.3136,8.4676],[33.3347,8.4479],[33.3674,8.4469],[33.3969,8.4263],[33.4228,8.4528],[33.4459,8.4439],[33.4786,8.4565],[33.4971,8.4807],[33.5218,8.468],[33.561,8.4738],[33.5686,8.4512],[33.5975,8.4429],[33.6186,8.4718],[33.6761,8.4458],[33.6794,8.4092],[33.6999,8.3782],[33.7298,8.3682],[33.7518,8.3787],[33.778,8.3665],[33.7929,8.3927],[33.831,8.4149],[33.8352,8.4325],[33.8743,8.4365],[33.8969,8.4836],[33.9695,8.4938],[33.994,8.4806],[34.031,8.4982],[34.044,8.5609],[34.0806,8.6353],[34.092,8.6457],[34.1469,8.6453],[34.1478,9.0057],[34.1259,9.3297],[34.1089,9.4989],[33.8996,9.4986],[33.8877,9.5462],[33.8877,9.6238],[33.9181,9.7566],[33.9662,9.8061],[33.9928,9.9108],[33.9957,10.0621],[33.971,10.093],[33.97,10.1482],[33.951,10.162],[33.9015,10.1616],[33.7927,10.3391],[33.6721,10.4395],[33.4827,10.6579],[33.219,10.735],[33.2657,10.8292],[33.1353,11.6259],[33.1756,11.7428],[33.2568,12.1658],[33.2977,12.212],[32.7305,12.2364],[32.7561,12.0669],[32.7455,11.9476],[32.1066,11.945],[32.3845,11.6966],[32.3935,11.2197],[32.4156,11.1409],[32.4706,11.0427],[32.4404,11.0265],[32.1474,10.7373],[31.9952,10.6536],[31.7874,10.3018],[31.5122,10.0039],[31.3519,9.8031],[31.2747,9.7583],[30.8926,9.7486],[30.836,9.7243],[30.8273,9.7189],[30.8461,9.6533],[30.7615,9.6111],[30.756,9.493],[30.9371,9.4972],[31.4576,9.3411],[31.5454,9.3866],[31.6202,9.2923],[31.7828,9.276],[31.8154,9.1459],[31.7568,9.0841],[31.8511,8.8239],[31.9812,8.7133],[32.0918,8.8337],[32.2577,8.928],[32.3911,9.0971],[32.4269,9.0223],[32.4106,8.928],[32.5212,8.902],[32.6448,8.4368],[32.9278,8.2775],[32.8302,7.988],[33.0357,7.988]]]}},{"type":"Feature","properties":{"name":"Western Bahr el Ghazal","code":"48771326B76913720880161","iso":"SSD"},"geometry":{"type":"Polygon","coordinates":[[[26.2187,9.8958],[26.116,9.995],[26.0499,10.1171],[26,10.1566],[25.9306,10.1818],[25.9334,10.3796],[25.8997,10.3773],[25.9058,10.3995],[25.8961,10.4115],[25.8637,10.4025],[25.8618,10.3916],[25.8392,10.4239],[25.8209,10.4229],[25.8194,10.4118],[25.8092,10.4291],[25.7987,10.415],[25.7818,10.4315],[25.7631,10.4187],[25.7594,10.4387],[25.753,10.4225],[25.6938,10.414],[25.691,10.4023],[25.6686,10.411],[25.6627,10.4324],[25.6431,10.3988],[25.6072,10.4072],[25.5848,10.3969],[25.582,10.406],[25.5726,10.3895],[25.5671,10.405],[25.5621,10.3954],[25.5524,10.4071],[25.5379,10.3857],[25.5267,10.398],[25.5206,10.3861],[25.5066,10.3958],[25.4998,10.3745],[25.4741,10.3905],[25.4731,10.3721],[25.4477,10.3791],[25.4433,10.3961],[25.438,10.3817],[25.4166,10.3917],[25.396,10.3726],[25.39,10.3901],[25.3762,10.3707],[25.3648,10.3696],[25.3671,10.3823],[25.3501,10.37],[25.3386,10.3784],[25.3204,10.3643],[25.3234,10.353],[25.2771,10.3605],[25.2738,10.3325],[25.2139,10.3593],[25.2123,10.3449],[25.197,10.3377],[25.1902,10.348],[25.192,10.3336],[25.1795,10.3364],[25.1803,10.3175],[25.1428,10.3361],[25.1257,10.3256],[25.123,10.3027],[25.0979,10.3161],[25.0837,10.3029],[25.0825,10.2771],[25.0568,10.2571],[25.065,10.2361],[25.0487,10.2214],[25.0595,10.2096],[25.0436,10.1875],[25.0561,10.1814],[25.0314,10.1677],[25.0383,10.1516],[25.0595,10.1506],[25.079,10.1142],[25.0782,10.0848],[25.062,10.0735],[25.0482,10.082],[25.0555,10.0587],[25.031,10.0528],[25.049,10.0165],[25.0369,10.0215],[25.0132,10.0025],[25.0188,9.9683],[25.0012,9.9743],[24.9867,9.9588],[24.9883,9.9362],[24.9704,9.9054],[24.9811,9.8966],[24.9498,9.8975],[24.9576,9.8899],[24.9447,9.8896],[24.9436,9.8714],[24.9262,9.872],[24.9091,9.8599],[24.9141,9.8517],[24.9026,9.8604],[24.8973,9.8411],[24.8809,9.8446],[24.8771,9.8269],[24.8427,9.8168],[24.8301,9.7856],[24.8072,9.7816],[24.79,9.7505],[24.7539,9.7471],[24.7569,9.7368],[24.7392,9.7253],[24.7513,9.7025],[24.7432,9.6559],[24.7588,9.6436],[24.7547,9.5908],[24.7408,9.592],[24.7177,9.56],[24.7194,9.5351],[24.7005,9.5242],[24.6985,9.492],[24.6642,9.4563],[24.6642,9.4136],[24.6245,9.3858],[24.6087,9.3167],[24.5662,9.2796],[24.5508,9.229],[24.5728,9.1594],[24.5464,9.112],[24.5383,9.0441],[24.5478,8.9858],[24.5752,8.955],[24.5734,8.9094],[24.5388,8.8791],[24.442,8.842],[24.4568,8.8],[24.4421,8.7971],[24.434,8.8093],[24.4081,8.7983],[24.3963,8.7399],[24.3618,8.7269],[24.3216,8.7346],[24.2724,8.7078],[24.2311,8.6555],[24.2243,8.6267],[24.2584,8.5767],[24.2165,8.5454],[24.2051,8.5045],[24.165,8.4828],[24.1678,8.4245],[24.1507,8.3997],[24.1795,8.3263],[24.2123,8.3166],[24.2312,8.2884],[24.3019,8.2651],[24.3386,8.2682],[24.3554,8.2462],[24.3818,8.2524],[24.3928,8.2713],[24.4573,8.2812],[24.482,8.2719],[24.5153,8.2184],[24.5579,8.2021],[24.6344,8.2254],[24.6969,8.2045],[24.7302,8.2097],[24.7508,8.1836],[24.7875,8.1825],[24.8033,8.1952],[24.8434,8.1723],[24.8589,8.1784],[24.8667,8.153],[24.8815,8.1462],[24.9018,8.0453],[24.9417,8.0363],[24.9617,7.9839],[25.0258,7.9545],[25.082,7.8985],[25.1749,7.9125],[25.2011,7.8807],[25.2207,7.8796],[25.2661,7.7951],[25.285,7.8043],[25.2787,7.7112],[25.2966,7.6764],[25.2832,7.6697],[25.2857,7.6503],[25.2245,7.632],[25.2254,7.6201],[25.1667,7.5864],[25.1956,7.5442],[25.1871,7.5275],[25.1959,7.4937],[25.285,7.4723],[25.3096,7.4306],[25.3377,7.4254],[25.354,7.3534],[25.3909,7.3316],[25.4107,7.3471],[25.4809,7.2713],[25.5081,7.2647],[25.541,7.2774],[25.5479,7.2579],[25.5681,7.2581],[25.5728,7.241],[25.5885,7.2431],[25.6113,7.2151],[25.6504,7.2156],[25.6593,7.1965],[25.7035,7.1952],[25.7191,7.1745],[25.7543,7.1829],[25.7623,7.164],[25.8205,7.1571],[25.8285,7.1454],[25.8198,7.1257],[25.8372,7.1072],[25.8954,7.0966],[25.9079,7.0838],[25.9019,7.066],[25.9348,7.059],[25.9374,7.0416],[25.9855,7.0382],[25.9858,7.0204],[26.0169,6.9984],[26.0399,7.006],[26.0524,6.9461],[26.0381,6.9268],[26.0615,6.9234],[26.057,6.9067],[26.0903,6.8961],[26.0816,6.8553],[26.1024,6.8178],[26.1716,6.8121],[26.1735,6.7811],[26.2056,6.7474],[26.2658,6.7382],[26.2567,6.7087],[26.363,6.6939],[26.3619,6.6822],[26.4155,6.6498],[27.9324,6.7977],[28.0483,6.7397],[28.4941,6.7611],[28.4904,7.1749],[28.5362,7.4341],[28.2953,7.6597],[28.2892,7.7085],[28.3136,7.7817],[28.1519,8.0226],[27.8622,8.0836],[27.8775,8.2787],[27.9171,8.3306],[27.8993,8.5003],[27.8074,8.4961],[27.725,8.3284],[27.3378,8.1943],[26.795,7.8924],[26.2796,8.2126],[26.1363,9.0694],[26.2187,9.8958]]]}},{"type":"Feature","properties":{"name":"Unity","code":"48771326B37591972128550","iso":"SSD"},"geometry":{"type":"Polygon","coordinates":[[[30.7062,7.2138],[30.6704,7.3732],[30.5078,7.6562],[30.5436,7.8449],[30.3842,8.1148],[30.3322,8.1116],[30.3322,8.2384],[30.3725,8.4635],[30.2847,8.5578],[30.3237,8.6327],[30.2359,8.7075],[30.2619,8.7432],[30.2099,8.9644],[30.392,9.1856],[30.353,9.3385],[30.5058,9.5174],[30.756,9.493],[30.7615,9.6111],[30.8461,9.6533],[30.8251,9.7238],[30.5316,9.9595],[29.9968,10.2888],[29.939,10.2866],[29.539,10.0818],[29.5381,9.7501],[29.0859,9.7529],[29.0241,9.7064],[29.0004,9.6702],[28.8167,9.4985],[28.7679,9.4192],[28.7679,9.3521],[28.8075,9.3064],[28.7862,9.1051],[28.6947,9.028],[29.0972,9.0371],[29.2741,8.6956],[29.6583,8.4028],[29.698,7.8326],[29.9267,7.796],[30.2316,7.0947],[30.5365,7.0672],[30.6189,7.2014],[30.7062,7.2138]]]}},{"type":"Feature","properties":{"name":"Northern Bahr el Ghazal","code":"48771326B49579010016854","iso":"SSD"},"geometry":{"type":"Polygon","coordinates":[[[27.8993,8.5003],[27.9598,8.5632],[27.9232,8.6517],[27.9995,8.7005],[27.9659,8.8773],[27.8622,8.9566],[28.0361,9.3439],[27.9072,9.6102],[27.7586,9.6034],[27.1374,9.6243],[26.9924,9.5938],[26.8532,9.5316],[26.7039,9.4883],[26.5095,9.5297],[26.3959,9.5658],[26.3479,9.5943],[26.2909,9.687],[26.2187,9.8958],[26.1363,9.0694],[26.2796,8.2126],[26.795,7.8924],[27.3378,8.1943],[27.725,8.3284],[27.8074,8.4961],[27.8993,8.5003]]]}},{"type":"Feature","properties":{"name":"Jonglei","code":"48771326B48659004133869","iso":"SSD"},"geometry":{"type":"Polygon","coordinates":[[[31.6973,5.8728],[32.1144,5.85],[33.3116,5.8403],[34.1443,5.7209],[35.0117,6.0082],[34.9998,6.0835],[34.9634,6.1213],[34.9781,6.1877],[34.9585,6.2438],[34.9662,6.2953],[34.9991,6.3497],[34.9921,6.3918],[35.0101,6.4051],[35.0206,6.4501],[34.9711,6.5096],[34.958,6.5054],[34.9393,6.5584],[34.9162,6.5654],[34.9125,6.5816],[34.89,6.5809],[34.8905,6.6002],[34.8646,6.611],[34.8153,6.6076],[34.792,6.5908],[34.7752,6.6046],[34.7672,6.5966],[34.7654,6.612],[34.7149,6.6544],[34.7049,6.6939],[34.6761,6.7019],[34.6399,6.7419],[34.6242,6.7453],[34.6159,6.7249],[34.531,6.7463],[34.5426,6.8169],[34.5219,6.8438],[34.525,6.8614],[34.5104,6.8577],[34.5086,6.8839],[34.4872,6.8906],[34.4724,6.9177],[34.4651,6.9099],[34.4545,6.9234],[34.4541,6.9123],[34.4387,6.9191],[34.4322,6.9088],[34.4283,6.92],[34.3934,6.9273],[34.3825,6.912],[34.342,6.9316],[34.3289,6.9249],[34.3114,6.9504],[34.2936,6.9473],[34.2907,6.9668],[34.3062,6.978],[34.276,6.9911],[34.2758,7.0053],[34.2575,7.0129],[34.2335,7.0029],[34.2199,7.0361],[34.1955,7.0388],[34.1903,7.1319],[34.1043,7.1694],[34.1018,7.1932],[34.0742,7.219],[34.0387,7.225],[34.0137,7.2594],[34.0137,7.2719],[34.0418,7.2757],[34.0292,7.33],[34.0368,7.3577],[34.0068,7.3827],[34.0034,7.4201],[33.9444,7.4724],[33.9491,7.5103],[33.8683,7.5193],[33.8301,7.5659],[33.8316,7.5818],[33.8029,7.5955],[33.7966,7.6127],[33.7753,7.6058],[33.7747,7.6166],[33.7368,7.6285],[33.741,7.6477],[33.692,7.6669],[33.6931,7.6793],[33.6807,7.6822],[33.6912,7.6848],[33.672,7.7005],[33.6609,7.6905],[33.6351,7.6945],[33.6317,7.7095],[33.5803,7.6903],[33.5571,7.699],[33.5653,7.7087],[33.5384,7.7069],[33.5311,7.7216],[33.5218,7.7137],[33.5168,7.7364],[33.5019,7.73],[33.463,7.7525],[33.4552,7.7377],[33.4261,7.7568],[33.421,7.738],[33.3941,7.7301],[33.3822,7.7427],[33.3631,7.7198],[33.3503,7.7305],[33.3407,7.7079],[33.3233,7.7077],[33.3173,7.7311],[33.3039,7.7249],[33.3023,7.7433],[33.2915,7.7397],[33.2973,7.7482],[33.2844,7.7418],[33.2337,7.7829],[33.2255,7.7676],[33.2098,7.7717],[33.1613,7.8023],[33.1542,7.7885],[33.1088,7.7801],[33.0931,7.8023],[33.0464,7.7902],[33.0472,7.8133],[33.0001,7.8738],[33.0165,7.8922],[33.0001,7.9155],[32.9997,7.9415],[33.0389,7.9678],[33.0357,7.988],[32.8302,7.988],[32.9278,8.2775],[32.6448,8.4368],[32.5212,8.902],[32.4106,8.928],[32.4269,9.0223],[32.3911,9.0971],[32.2577,8.928],[32.0918,8.8337],[31.9812,8.7133],[31.8511,8.8239],[31.7568,9.0841],[31.8154,9.1459],[31.7828,9.276],[31.6202,9.2923],[31.5454,9.3866],[31.4576,9.3411],[30.9371,9.4972],[30.756,9.493],[30.5058,9.5174],[30.353,9.3385],[30.392,9.1856],[30.2099,8.9644],[30.2619,8.7432],[30.2359,8.7075],[30.3237,8.6327],[30.2847,8.5578],[30.3725,8.4635],[30.3322,8.2384],[30.3322,8.1116],[30.3842,8.1148],[30.5436,7.8449],[30.5078,7.6562],[30.6704,7.3732],[30.7062,7.2138],[31.1909,6.8073],[31.4738,6.3486],[31.6973,5.8728]]]}},{"type":"Feature","properties":{"name":"Western Equatoria","code":"48771326B90797869503386","iso":"SSD"},"geometry":{"type":"Polygon","coordinates":[[[28.4965,6.4979],[28.4941,6.7611],[28.0483,6.7397],[27.9324,6.7977],[26.4155,6.6498],[26.3782,6.5785],[26.358,6.5839],[26.3491,6.5741],[26.353,6.5409],[26.3283,6.5375],[26.3242,6.501],[26.2888,6.4826],[26.3169,6.4366],[26.2999,6.4034],[26.311,6.3742],[26.349,6.359],[26.396,6.3066],[26.4348,6.3057],[26.4778,6.2844],[26.4757,6.2241],[26.5038,6.2165],[26.5213,6.2357],[26.5321,6.2268],[26.5381,6.2059],[26.5199,6.1613],[26.4598,6.1168],[26.4473,6.0729],[26.5162,6.114],[26.54,6.1001],[26.5398,6.0667],[26.5661,6.0326],[26.6075,6.0332],[26.6646,5.999],[26.6891,6.0171],[26.7212,6.0201],[26.723,6.0038],[26.7596,6.0083],[26.8022,5.9817],[26.8234,5.9893],[26.8346,5.9751],[26.8355,5.8965],[26.9217,5.9011],[26.9374,5.8687],[26.9676,5.856],[27.0018,5.8605],[27.0502,5.8069],[27.072,5.7957],[27.1034,5.8103],[27.1391,5.7764],[27.1627,5.774],[27.1548,5.7625],[27.1672,5.7449],[27.1965,5.7407],[27.2434,5.6426],[27.2368,5.6009],[27.293,5.5967],[27.2788,5.5689],[27.2894,5.5404],[27.2604,5.51],[27.2416,5.4511],[27.2595,5.3348],[27.3343,5.2137],[27.4006,5.1756],[27.4168,5.13],[27.457,5.0969],[27.4583,5.0572],[27.4429,5.0204],[27.4642,5.0019],[27.4833,5.0029],[27.4882,4.9698],[27.538,4.9146],[27.5587,4.897],[27.6448,4.891],[27.6791,4.8761],[27.7034,4.834],[27.6985,4.7997],[27.7156,4.7851],[27.7604,4.7883],[27.7808,4.7367],[27.762,4.6961],[27.801,4.6281],[27.7945,4.6142],[27.8427,4.5938],[27.8734,4.555],[27.9376,4.5498],[27.9468,4.5753],[27.9791,4.5552],[27.9844,4.5638],[28.0255,4.5492],[28.0438,4.5555],[28.0394,4.4756],[28.0715,4.4433],[28.0789,4.4179],[28.1084,4.4448],[28.1327,4.4292],[28.1438,4.4415],[28.1516,4.4249],[28.1372,4.4037],[28.1785,4.3854],[28.2061,4.3519],[28.2591,4.3508],[28.2657,4.3636],[28.3527,4.3565],[28.3806,4.2834],[28.4542,4.2869],[28.4928,4.3249],[28.5109,4.3811],[28.5781,4.3838],[28.6054,4.4219],[28.6408,4.4192],[28.6729,4.4326],[28.6693,4.4444],[28.7023,4.4877],[28.6958,4.5079],[28.7252,4.5245],[28.716,4.5334],[28.7255,4.548],[28.7659,4.5474],[28.7938,4.5724],[28.8203,4.5694],[28.8307,4.5558],[28.8301,4.5065],[28.8448,4.4846],[28.8841,4.4937],[28.938,4.4753],[28.9604,4.4884],[28.9958,4.4822],[29.002,4.4976],[29.0364,4.4928],[29.047,4.467],[29.0852,4.4626],[29.0797,4.4326],[29.137,4.4345],[29.1373,4.4155],[29.1576,4.3935],[29.1699,4.3942],[29.2005,4.3677],[29.1999,4.351],[29.226,4.3403],[29.2527,4.3529],[29.2566,4.3881],[29.2692,4.3977],[29.2818,4.3871],[29.2989,4.3942],[29.3056,4.3816],[29.3433,4.3952],[29.3653,4.4709],[29.4036,4.4748],[29.4449,4.5143],[29.4436,4.5597],[29.4776,4.5957],[29.465,4.6698],[29.4846,4.6721],[29.4932,4.6989],[29.5334,4.6568],[29.555,4.6708],[29.5977,4.6515],[29.6189,4.66],[29.7091,4.6173],[29.7434,4.5708],[29.7646,4.589],[29.7978,4.5595],[29.9548,4.6508],[30.0784,4.6475],[30.2053,4.7093],[30.2996,4.6833],[30.3972,4.6085],[30.5143,4.6703],[30.5371,4.8004],[30.703,4.8492],[30.8038,4.9305],[30.8623,4.9305],[30.9111,5.0346],[30.8916,5.0834],[30.9046,5.1517],[30.9371,5.1517],[30.9632,5.207],[30.9306,5.2557],[30.9241,5.3859],[30.9957,5.3859],[31.0185,5.5745],[30.6542,5.7436],[30.3039,6.0812],[30.192,6.0932],[30.2072,6.1573],[30.1554,6.2366],[30.1218,6.3524],[29.9675,6.3637],[29.8992,6.3128],[29.9114,6.2549],[29.8718,6.264],[29.8565,6.3128],[29.7925,6.3098],[29.7894,6.0841],[29.6309,5.9743],[29.5699,5.6755],[29.0149,5.7151],[28.8197,5.8158],[28.6551,6.0597],[28.5727,6.075],[28.524,6.2518],[28.463,6.2976],[28.4996,6.3677],[28.466,6.4866],[28.4965,6.4979]]]}},{"type":"Feature","properties":{"name":"Warrap","code":"48771326B11845073429118","iso":"SSD"},"geometry":{"type":"Polygon","coordinates":[[[29.698,7.8326],[29.6583,8.4028],[29.2741,8.6956],[29.0972,9.0371],[28.6947,9.028],[28.7862,9.1051],[28.8075,9.3064],[28.7679,9.3521],[28.0361,9.3439],[27.8622,8.9566],[27.9659,8.8773],[27.9995,8.7005],[27.9232,8.6517],[27.9598,8.5632],[27.8993,8.5003],[27.9171,8.3306],[27.8775,8.2787],[27.8622,8.0836],[28.1519,8.0226],[28.3136,7.7817],[28.2892,7.7085],[28.2953,7.6597],[28.5362,7.4341],[28.4904,7.1749],[28.4965,6.4979],[28.7923,6.3881],[28.899,6.4064],[28.9875,6.5314],[29.0027,6.629],[28.9814,6.7601],[28.8655,7.0559],[29.0789,7.4219],[29.329,7.6658],[29.5333,7.7024],[29.698,7.8326]]]}}]}