{"type":"FeatureCollection","features":[{"type":"Feature","properties":{"name":"Príncipe Province","code":"19237168B82261817076051","iso":"STP"},"geometry":{"type":"Polygon","coordinates":[[[7.4021,1.5469],[7.4255,1.5554],[7.4246,1.6033],[7.4618,1.625],[7.4379,1.6487],[7.4208,1.6422],[7.4491,1.6736],[7.4616,1.6693],[7.4409,1.692],[7.3713,1.6829],[7.3639,1.6051],[7.3283,1.6033],[7.3414,1.5529],[7.3545,1.5602],[7.3826,1.5363],[7.3981,1.5394],[7.4001,1.5266],[7.4021,1.5469]]]}},{"type":"Feature","properties":{"name":"São Tomé Province","code":"19237168B40253326356618","iso":"STP"},"geometry":{"type":"MultiPolygon","coordinates":[[[[6.5187,0.0001],[6.5173,-0.0139],[6.5298,-0.0047],[6.5187,0.0001]]],[[[6.4637,0.2163],[6.4783,0.1464],[6.4969,0.1261],[6.4912,0.1112],[6.5163,0.1006],[6.5063,0.0481],[6.5169,0.019],[6.5366,0.0326],[6.5371,0.0473],[6.5575,0.0355],[6.5695,0.0846],[6.5986,0.0759],[6.6533,0.1096],[6.6466,0.1301],[6.7455,0.2321],[6.7453,0.2763],[6.7606,0.2955],[6.7416,0.3183],[6.7397,0.3462],[6.7261,0.342],[6.7258,0.3589],[6.7137,0.3631],[6.7193,0.3812],[6.7019,0.384],[6.6908,0.4036],[6.6608,0.4134],[6.6104,0.4079],[6.574,0.3665],[6.5462,0.3608],[6.4925,0.3185],[6.4602,0.2438],[6.4637,0.2163]]]]}}]}