{"type":"FeatureCollection","features":[{"type":"Feature","properties":{"name":"Tibesti","code":"23847190B76461278489523","iso":"TCD"},"geometry":{"type":"Polygon","coordinates":[[[21.0247,21.0679],[18.5308,22.3106],[15.9964,23.4975],[14.9986,23.0012],[15.1947,21.9989],[15.2025,21.4958],[15.2844,21.4453],[15.6272,20.9553],[15.5844,20.93],[15.5583,20.8844],[15.5572,20.8158],[15.5758,20.7664],[15.6331,20.7167],[15.6739,20.6989],[15.9967,20.3531],[15.7539,19.9325],[15.6025,18.7822],[15.5083,16.9491],[16.5196,18.8204],[18.7751,18.8264],[18.8977,18.6681],[19.1912,18.6488],[19.505,18.6531],[19.51,20.0029],[20.4939,20.0008],[21.0247,21.0679]]]}},{"type":"Feature","properties":{"name":"Borkou","code":"23847190B42201300909064","iso":"TCD"},"geometry":{"type":"Polygon","coordinates":[[[15.5083,16.9491],[15.5055,16.8979],[15.4532,16.8433],[16.687,16.242],[17.842,15.746],[17.967,15.558],[18.051,15.476],[18.238,15.363],[18.341,15.328],[18.497,15.309],[18.651,15.314],[18.801,15.354],[18.926,15.415],[19.027,15.488],[19.09,15.545],[19.156,15.629],[19.219,15.736],[19.27,15.916],[19.281,16.009],[19.274,16.097],[19.355,16.109],[19.402,16.081],[19.483,15.92],[19.559,15.843],[19.749,15.813],[19.865,15.773],[20.043,15.742],[20.112,15.719],[20.251,15.63],[20.319,15.617],[20.497,15.655],[20.549,15.628],[20.602,15.618],[20.658,15.639],[20.792,15.738],[20.834,15.744],[20.4005,16.7121],[20.4614,16.9959],[20.5431,17.9415],[20.5132,18.0242],[19.8029,18.0121],[19.1912,18.6488],[18.8977,18.6681],[18.7751,18.8264],[16.5196,18.8204],[15.5083,16.9491]]]}},{"type":"Feature","properties":{"name":"Ennedi-Ouest","code":"23847190B77249644038093","iso":"TCD"},"geometry":{"type":"Polygon","coordinates":[[[19.1912,18.6488],[19.8029,18.0121],[20.5132,18.0242],[20.5431,17.9415],[20.4614,16.9959],[20.4005,16.7121],[20.834,15.744],[20.922,15.792],[21.009,15.876],[21.036,15.879],[21.134,15.935],[21.211,15.914],[21.276,15.874],[21.359,15.858],[21.493,15.898],[21.672,15.931],[21.746,15.962],[21.897,15.929],[22.0153,15.9849],[22.0516,16.2923],[22.1458,16.3271],[22.328,16.5645],[22.2679,16.6745],[22.328,16.7092],[22.3502,16.7559],[22.3414,20.3866],[21.0247,21.0679],[20.4939,20.0008],[19.51,20.0029],[19.505,18.6531],[19.1912,18.6488]]]}},{"type":"Feature","properties":{"name":"Wadi Fira","code":"23847190B87163061266246","iso":"TCD"},"geometry":{"type":"Polygon","coordinates":[[[20.043,15.742],[20.062,14.082],[20.2371,14.3013],[20.2748,14.3176],[20.3494,14.3842],[20.4868,14.3809],[20.6075,14.4166],[20.662,14.3915],[20.7592,14.3752],[20.7977,14.3533],[20.8597,14.3127],[20.9737,14.1787],[21.0198,14.1437],[21.1061,14.1316],[21.1757,14.0462],[21.2519,14.0421],[21.4145,14.1267],[21.4849,14.125],[21.5612,14.1007],[21.6601,14.1023],[21.8059,14.0486],[22.1001,13.9657],[22.1872,13.9081],[22.2339,13.9658],[22.3144,14.0097],[22.3506,14.0144],[22.3967,14.0522],[22.4344,14.0517],[22.4853,14.1064],[22.555,14.1256],[22.5669,14.1642],[22.5553,14.2319],[22.4664,14.2472],[22.4439,14.2722],[22.4361,14.315],[22.4694,14.3508],[22.4475,14.3842],[22.4419,14.4894],[22.3814,14.5231],[22.3889,14.5711],[22.4033,14.5922],[22.47,14.6294],[22.7025,14.6914],[22.6775,14.7658],[22.6672,14.8635],[22.7095,14.8956],[22.7602,14.9078],[22.7514,14.97],[22.8822,15.0886],[22.9373,15.1025],[22.9336,15.1666],[22.9674,15.1824],[22.9873,15.2225],[23.0051,15.2313],[22.9851,15.2595],[23.0048,15.3116],[22.9914,15.3366],[22.9933,15.402],[22.9244,15.4706],[22.9251,15.5468],[23.0336,15.623],[23.1107,15.7149],[23.089,15.755],[23.043,15.799],[22.992,15.821],[22.9,15.799],[22.854,15.806],[22.798,15.842],[22.734,15.818],[22.602,15.797],[22.549,15.812],[22.543,15.872],[22.524,15.89],[22.414,15.919],[22.324,15.889],[22.277,15.903],[22.213,15.948],[22.183,15.934],[22.125,15.966],[22.0707,15.9656],[22.0153,15.9849],[21.897,15.929],[21.746,15.962],[21.672,15.931],[21.493,15.898],[21.359,15.858],[21.276,15.874],[21.211,15.914],[21.134,15.935],[21.036,15.879],[21.009,15.876],[20.922,15.792],[20.868,15.758],[20.792,15.738],[20.658,15.639],[20.602,15.618],[20.549,15.628],[20.497,15.655],[20.319,15.617],[20.251,15.63],[20.112,15.719],[20.043,15.742]]]}},{"type":"Feature","properties":{"name":"Salamat","code":"23847190B13389621272768","iso":"TCD"},"geometry":{"type":"Polygon","coordinates":[[[19.906,12.04],[19.58,12.083],[19.465,12.123],[19.313,11.982],[19.341,11.855],[19.256,11.726],[19.215,11.638],[19.088,11.6],[19.055,11.689],[18.902,11.692],[18.874,11.477],[18.883,11.402],[18.902,11.331],[18.967,11.313],[19.001,11.273],[19.056,11.245],[19.405,11.104],[19.479,11.048],[19.694,11.001],[19.706,10.942],[19.737,10.911],[19.707,10.873],[19.726,10.717],[19.635,10.289],[19.692,10.267],[19.6809,10.2128],[19.6478,10.1555],[19.6541,10.097],[19.613,10.067],[19.6812,9.9618],[19.9921,9.083],[20.0039,9.1067],[20.0292,9.0886],[20.03,9.1114],[20.0619,9.1344],[20.0986,9.1275],[20.1047,9.1511],[20.1417,9.1119],[20.2072,9.1397],[20.2533,9.115],[20.3717,9.1083],[20.4108,9.1378],[20.4433,9.1414],[20.4828,9.2078],[20.515,9.2089],[20.4964,9.2719],[20.5286,9.2817],[20.5414,9.3217],[20.6033,9.2981],[20.6628,9.2964],[20.6569,9.3383],[20.6778,9.3597],[20.7597,9.3769],[20.7747,9.4056],[20.8008,9.4206],[20.8222,9.4158],[20.8357,9.4765],[20.8958,9.5217],[20.9564,9.6056],[20.985,9.6061],[20.9758,9.6281],[20.9972,9.6336],[20.9939,9.6814],[21.0175,9.7108],[21.015,9.7386],[21.0425,9.7667],[21.0683,9.7528],[21.1031,9.7725],[21.13,9.8428],[21.1919,9.8836],[21.2183,9.9353],[21.2603,9.9769],[21.3361,9.9583],[21.3719,9.9739],[21.4383,10.0458],[21.4553,10.1164],[21.5269,10.2064],[21.6144,10.2133],[21.6708,10.2389],[21.6878,10.2847],[21.7156,10.2906],[21.7247,10.3658],[21.7478,10.4067],[21.7386,10.4492],[21.715,10.4742],[21.7014,10.5144],[21.7194,10.6394],[21.765,10.6478],[21.8167,10.6783],[21.8575,10.6667],[21.8881,10.6842],[21.9075,10.7139],[21.9508,10.7317],[21.9958,10.7289],[22.0064,10.7394],[22.0094,10.7992],[22.0475,10.8306],[22.1006,10.8347],[22.1808,10.8158],[22.1989,10.8664],[22.2447,10.9108],[22.2767,10.9047],[22.3228,10.9417],[22.3872,10.9583],[22.0789,11.6253],[21.9366,11.65],[21.8671,11.6996],[21.3011,11.6005],[21.0734,11.6005],[20.9975,11.6717],[20.2982,12.0195],[20.1942,12.037],[19.9807,12.0184],[19.9483,11.9736],[19.9114,11.9648],[19.906,12.04]]]}},{"type":"Feature","properties":{"name":"Sila","code":"23847190B78936858597948","iso":"TCD"},"geometry":{"type":"Polygon","coordinates":[[[22.3872,10.9583],[22.4064,10.9578],[22.4358,10.9908],[22.4661,11.0014],[22.4956,10.9878],[22.5136,10.9956],[22.5347,10.9747],[22.6003,10.9856],[22.6531,10.9661],[22.7675,10.955],[22.7856,10.9311],[22.8778,10.9206],[22.9747,11.2092],[22.9708,11.2831],[22.9486,11.3158],[22.9308,11.4158],[22.7911,11.4017],[22.7756,11.4622],[22.6419,11.5161],[22.5617,11.6217],[22.5528,11.6656],[22.5728,11.7992],[22.6114,11.9928],[22.6408,12.0711],[22.6146,12.056],[22.5956,12.0677],[22.565,12.0536],[22.5374,12.0578],[22.5132,12.0373],[22.4778,12.0301],[22.5014,12.1769],[22.4364,12.3547],[22.4328,12.4033],[22.3839,12.4653],[22.4089,12.4872],[22.4669,12.6217],[22.335,12.6703],[22.2233,12.7472],[22.1406,12.6553],[22.05,12.6375],[21.9528,12.6439],[21.8939,12.6847],[21.8581,12.7331],[21.8578,12.772],[21.8212,12.7989],[21.7899,12.7952],[21.7156,12.8491],[21.5034,12.7608],[21.3715,12.6396],[21.2758,12.6598],[21.1012,12.6131],[21.0106,12.6459],[20.9537,12.6901],[20.9589,12.7898],[20.9279,12.8377],[20.7856,12.8705],[20.7771,12.9885],[20.4387,13.0135],[20.358,13.059],[20.357,13.02],[20.331,13.001],[20.045,12.935],[20.163,12.838],[20.23,12.8],[20.244,12.764],[20.204,12.729],[20.174,12.727],[20.114,12.614],[20.154,12.531],[20.082,12.494],[20.001,12.385],[19.94,12.246],[19.889,12.079],[19.906,12.04],[19.9114,11.9648],[19.9483,11.9736],[19.9807,12.0184],[20.1942,12.037],[20.2982,12.0195],[20.9975,11.6717],[21.0734,11.6005],[21.3011,11.6005],[21.8671,11.6996],[21.9366,11.65],[22.0789,11.6253],[22.3872,10.9583]]]}},{"type":"Feature","properties":{"name":"Ouaddaï","code":"23847190B50657270888212","iso":"TCD"},"geometry":{"type":"Polygon","coordinates":[[[20.062,14.082],[20.056,13.956],[20.268,13.829],[20.295,13.755],[20.267,13.613],[20.364,13.421],[20.358,13.059],[20.4387,13.0135],[20.7771,12.9885],[20.7856,12.8705],[20.9279,12.8377],[20.9589,12.7898],[20.9537,12.6901],[21.0106,12.6459],[21.1012,12.6131],[21.2758,12.6598],[21.3715,12.6396],[21.5034,12.7608],[21.7156,12.8491],[21.7899,12.7952],[21.8212,12.7989],[21.8185,12.8207],[21.8472,12.8378],[21.8953,12.9619],[21.9392,13.0242],[21.9433,13.0536],[22.0206,13.1378],[22.1597,13.1903],[22.2942,13.3586],[22.2936,13.3828],[22.2306,13.4789],[22.2247,13.5719],[22.1536,13.6344],[22.1339,13.6697],[22.1386,13.7281],[22.0844,13.7792],[22.1872,13.9081],[22.0556,13.982],[21.8059,14.0486],[21.6601,14.1023],[21.5612,14.1007],[21.4849,14.125],[21.3927,14.1194],[21.2519,14.0421],[21.1757,14.0462],[21.1061,14.1316],[21.0198,14.1437],[20.9737,14.1787],[20.8597,14.3127],[20.7977,14.3533],[20.7592,14.3752],[20.662,14.3915],[20.6075,14.4166],[20.4868,14.3809],[20.3494,14.3842],[20.2748,14.3176],[20.2371,14.3013],[20.062,14.082]]]}},{"type":"Feature","properties":{"name":"Guéra","code":"23847190B67442151938208","iso":"TCD"},"geometry":{"type":"Polygon","coordinates":[[[19.906,12.04],[19.889,12.079],[19.94,12.246],[20.001,12.385],[20.082,12.494],[20.154,12.531],[20.114,12.614],[20.174,12.727],[20.204,12.729],[20.244,12.764],[20.23,12.8],[20.163,12.838],[20.045,12.935],[19.777,13.031],[19.2,12.711],[19.184,12.687],[18.475,12.692],[18.095,12.486],[18.065,12.452],[17.882,12.446],[17.671,12.279],[17.665,12.256],[17.608,12.239],[17.567,12.199],[17.598,12.125],[17.542,11.95],[17.545,11.911],[17.634,11.796],[17.68,11.68],[17.545,11.672],[17.425,11.586],[17.335,11.472],[17.305,11.23],[17.36,10.935],[17.363,10.795],[17.352,10.671],[17.327,10.574],[17.383,10.537],[17.449,10.522],[17.543,10.451],[17.864,10.497],[17.962,10.397],[18.067,10.35],[18.104,10.365],[18.164,10.346],[18.341,10.24],[18.381,10.247],[18.496,10.186],[18.642,10.025],[18.632,9.919],[18.737,9.877],[18.794,9.879],[18.825,9.988],[19.078,9.988],[19.138,10.129],[19.161,10.155],[19.208,10.146],[19.215,10.187],[19.284,10.224],[19.355,10.299],[19.344,10.344],[19.382,10.382],[19.391,10.425],[19.43,10.469],[19.496,10.496],[19.533,10.475],[19.584,10.478],[19.619,10.526],[19.703,10.588],[19.726,10.717],[19.707,10.873],[19.737,10.911],[19.706,10.942],[19.694,11.001],[19.479,11.048],[19.405,11.104],[19.056,11.245],[19.001,11.273],[18.967,11.313],[18.902,11.331],[18.874,11.477],[18.902,11.692],[19.055,11.689],[19.088,11.6],[19.215,11.638],[19.256,11.726],[19.341,11.855],[19.313,11.982],[19.465,12.123],[19.58,12.083],[19.906,12.04]]]}},{"type":"Feature","properties":{"name":"Batha","code":"23847190B10962291388144","iso":"TCD"},"geometry":{"type":"Polygon","coordinates":[[[18.051,15.476],[17.586,13.76],[17.271,13.662],[17.234,13.427],[17.241,13.21],[17.13,13.046],[16.997,12.937],[16.958,12.88],[16.974,12.857],[17.092,12.783],[17.15,12.609],[17.254,12.501],[17.293,12.487],[17.31,12.346],[17.34,12.3],[17.388,12.27],[17.408,12.229],[17.411,12.184],[17.446,12.155],[17.504,12.158],[17.598,12.125],[17.567,12.199],[17.608,12.239],[17.665,12.256],[17.671,12.279],[17.882,12.446],[18.065,12.452],[18.095,12.486],[18.475,12.692],[19.184,12.687],[19.2,12.711],[19.777,13.031],[20.045,12.935],[20.331,13.001],[20.357,13.02],[20.364,13.421],[20.267,13.613],[20.295,13.755],[20.268,13.829],[20.056,13.956],[20.043,15.742],[19.865,15.773],[19.749,15.813],[19.559,15.843],[19.483,15.92],[19.402,16.081],[19.355,16.109],[19.274,16.097],[19.281,16.009],[19.253,15.829],[19.219,15.736],[19.156,15.629],[19.09,15.545],[19.027,15.488],[18.926,15.415],[18.801,15.354],[18.651,15.314],[18.497,15.309],[18.341,15.328],[18.238,15.363],[18.051,15.476]]]}},{"type":"Feature","properties":{"name":"Hadjer-Lamis","code":"23847190B62369995372725","iso":"TCD"},"geometry":{"type":"Polygon","coordinates":[[[17.598,12.125],[17.504,12.158],[17.446,12.155],[17.411,12.184],[17.408,12.229],[17.388,12.27],[17.34,12.3],[17.31,12.346],[17.293,12.487],[17.254,12.501],[17.15,12.609],[17.092,12.783],[16.974,12.857],[16.958,12.88],[16.997,12.937],[17.13,13.046],[17.161,13.099],[17.024,13.157],[16.997,13.137],[16.9,13.109],[16.846,13.136],[16.762,13.09],[16.547,13.07],[16.493,13.055],[16.468,13.034],[16.361,13.051],[16.215,13.04],[16.179,13.023],[15.998,13.044],[15.966,13.122],[15.91,13.173],[15.862,13.154],[15.755,13.163],[15.428,13.317],[15.38,13.393],[15.231,13.372],[15.258,13.299],[15.313,13.239],[15.378,13.215],[15.399,13.189],[15.332,13.136],[15.31,13.149],[15.29,13.14],[15.275,13.103],[15.26,13.095],[15.208,13.156],[15.19,13.199],[15.145,13.223],[15.101,13.219],[15.027,13.252],[15.001,13.227],[15.042,13.171],[15.019,12.996],[14.5126,12.995],[14.572,12.8876],[14.5544,12.8659],[14.5473,12.7959],[14.5557,12.7759],[14.5738,12.7837],[14.5911,12.7455],[14.6188,12.7746],[14.6161,12.7434],[14.6611,12.7234],[14.718,12.7222],[14.7253,12.7059],[14.7041,12.6816],[14.7118,12.6589],[14.7457,12.6887],[14.7615,12.6781],[14.7722,12.6347],[14.8325,12.6335],[14.8547,12.5743],[14.8472,12.5197],[14.8592,12.4927],[14.8431,12.4677],[14.8543,12.4528],[14.8654,12.4686],[14.8778,12.4634],[14.8752,12.4373],[14.9085,12.3838],[14.8999,12.3505],[14.909,12.3311],[14.8933,12.3074],[14.9058,12.2826],[14.8921,12.2513],[14.9029,12.2249],[15.259,12.2926],[15.373,12.363],[15.506,12.222],[15.564,12.273],[15.684,12.338],[15.976,12.338],[16.048,12.382],[16.09,12.432],[16.666,12.229],[16.695,12.198],[16.725,12.133],[16.708,11.995],[16.744,11.932],[16.79,11.904],[16.826,11.726],[16.858,11.676],[16.906,11.684],[17.019,11.668],[17.088,11.627],[17.139,11.566],[17.24,11.518],[17.3318,11.4491],[17.378,11.539],[17.545,11.672],[17.68,11.68],[17.634,11.796],[17.545,11.911],[17.542,11.95],[17.598,12.125]]]}},{"type":"Feature","properties":{"name":"Bahr el Gazel","code":"23847190B86845512760819","iso":"TCD"},"geometry":{"type":"Polygon","coordinates":[[[16.687,16.242],[16.523,15.974],[16.182,14.834],[16.143,14.545],[16.102,14.47],[15.804,14.145],[15.711,14.066],[15.619,14.032],[15.602,13.749],[15.647,13.735],[15.762,13.739],[15.774,13.758],[15.884,13.747],[15.892,13.728],[15.876,13.614],[15.934,13.45],[15.929,13.207],[15.91,13.173],[15.966,13.122],[15.998,13.044],[16.179,13.023],[16.215,13.04],[16.361,13.051],[16.468,13.034],[16.493,13.055],[16.547,13.07],[16.762,13.09],[16.846,13.136],[16.9,13.109],[16.997,13.137],[17.024,13.157],[17.161,13.099],[17.241,13.21],[17.234,13.427],[17.271,13.662],[17.586,13.76],[18.051,15.476],[17.967,15.558],[17.842,15.746],[16.687,16.242]]]}},{"type":"Feature","properties":{"name":"Kanem","code":"23847190B36105987279194","iso":"TCD"},"geometry":{"type":"Polygon","coordinates":[[[15.4532,16.8433],[14.3848,15.7316],[13.9702,15.1565],[13.8622,15.0313],[13.7897,14.8632],[13.81,14.7217],[13.7687,14.692],[13.7456,14.6983],[13.6773,14.6366],[13.6925,14.6129],[13.696,14.5511],[13.6442,14.5158],[13.776,14.506],[13.806,14.467],[13.999,14.466],[14.027,14.42],[14.077,14.416],[14.144,14.354],[14.159,14.285],[14.216,14.267],[14.25,14.2],[14.325,14.183],[14.355,14.125],[14.489,14.093],[14.554,13.996],[14.66,13.876],[14.793,13.635],[14.851,13.672],[14.96,13.665],[15.196,13.718],[15.393,13.742],[15.501,13.457],[15.553,13.362],[15.576,13.247],[15.755,13.163],[15.862,13.154],[15.91,13.173],[15.929,13.207],[15.934,13.45],[15.876,13.614],[15.892,13.728],[15.884,13.747],[15.774,13.758],[15.762,13.739],[15.647,13.735],[15.602,13.749],[15.619,14.032],[15.711,14.066],[15.804,14.145],[16.102,14.47],[16.143,14.545],[16.182,14.834],[16.523,15.974],[16.687,16.242],[15.4532,16.8433]]]}},{"type":"Feature","properties":{"name":"Chari-Baguirmi","code":"23847190B26801534542350","iso":"TCD"},"geometry":{"type":"Polygon","coordinates":[[[17.3318,11.4491],[17.24,11.518],[17.139,11.566],[17.088,11.627],[17.019,11.668],[16.906,11.684],[16.858,11.676],[16.826,11.726],[16.79,11.904],[16.744,11.932],[16.708,11.995],[16.725,12.133],[16.695,12.198],[16.666,12.229],[16.493,12.296],[16.09,12.432],[16.048,12.382],[15.976,12.338],[15.684,12.338],[15.564,12.273],[15.506,12.222],[15.373,12.363],[15.259,12.2926],[15.1088,12.2585],[15.0262,12.2535],[15.0275,12.217],[15.0853,12.1969],[15.1252,12.1674],[15.1826,12.0953],[15.1545,12.0665],[15.0601,12.0548],[15.0569,12.0365],[15.0376,12.0338],[15.0587,12.0065],[15.0844,12.0024],[15.0858,11.9895],[15.0501,11.9737],[15.0631,11.9376],[15.0392,11.9074],[15.0508,11.8571],[15.0634,11.8434],[15.077,11.8586],[15.0896,11.8545],[15.0972,11.8158],[15.1228,11.7909],[15.0801,11.7659],[15.1055,11.7311],[15.0774,11.7346],[15.0643,11.716],[15.0811,11.6899],[15.0779,11.6448],[15.0995,11.6159],[15.1019,11.585],[15.1449,11.5623],[15.1333,11.514],[15.0986,11.4908],[15.1005,11.477],[15.0598,11.4169],[15.0691,11.366],[15.0493,11.3455],[15.0739,11.3267],[15.0485,11.2806],[15.0664,11.2495],[15.0582,11.2312],[15.0681,11.202],[15.0952,11.168],[15.0983,11.1302],[15.231,11.209],[15.397,11.212],[15.438,11.061],[15.527,10.981],[15.544,10.94],[15.613,10.902],[15.649,10.899],[15.745,10.825],[15.84,10.795],[15.907,10.778],[15.996,10.779],[16.048,10.752],[16.117,10.767],[16.149,10.707],[16.121,10.465],[16.129,10.314],[16.174,10.265],[16.1939,10.2092],[16.483,10.2],[16.584,10.265],[16.602,10.236],[16.623,10.234],[16.619,10.171],[16.662,10.071],[16.738,10.053],[16.776,10.01],[16.81,10.014],[16.897,9.99],[16.929,9.971],[16.942,9.945],[17.04,9.945],[17.164,9.92],[17.188,9.871],[17.256,9.84],[17.381,9.826],[17.489,10.172],[17.543,10.451],[17.449,10.522],[17.383,10.537],[17.327,10.574],[17.352,10.671],[17.363,10.795],[17.36,10.935],[17.305,11.23],[17.3318,11.4491]]]}},{"type":"Feature","properties":{"name":"Lac","code":"23847190B4179112565003","iso":"TCD"},"geometry":{"type":"Polygon","coordinates":[[[15.576,13.247],[15.553,13.362],[15.501,13.457],[15.393,13.742],[15.196,13.718],[14.96,13.665],[14.851,13.672],[14.793,13.635],[14.66,13.876],[14.554,13.996],[14.489,14.093],[14.355,14.125],[14.325,14.183],[14.25,14.2],[14.216,14.267],[14.159,14.285],[14.144,14.354],[14.077,14.416],[14.027,14.42],[13.999,14.466],[13.806,14.467],[13.776,14.506],[13.6442,14.5158],[13.5721,14.5057],[13.4788,14.4601],[13.4796,14.3796],[13.6334,13.7082],[14.0833,13.0833],[14.4667,13.0833],[14.5126,12.995],[15.019,12.996],[15.042,13.171],[15.001,13.227],[15.009,13.2439],[15.027,13.252],[15.101,13.219],[15.145,13.223],[15.19,13.199],[15.208,13.156],[15.26,13.095],[15.275,13.103],[15.29,13.14],[15.31,13.149],[15.332,13.136],[15.399,13.189],[15.378,13.215],[15.313,13.239],[15.258,13.299],[15.231,13.372],[15.38,13.393],[15.428,13.317],[15.576,13.247]]]}},{"type":"Feature","properties":{"name":"Logone Occidental","code":"23847190B3193897628622","iso":"TCD"},"geometry":{"type":"Polygon","coordinates":[[[15.441,9.061],[15.387,9.033],[15.394,8.988],[15.365,8.937],[15.357,8.87],[15.357,8.759],[15.292,8.701],[15.277,8.662],[15.263,8.611],[15.2691,8.5002],[15.295,8.445],[15.342,8.403],[15.383,8.378],[15.446,8.376],[15.455,8.352],[15.488,8.328],[15.49,8.29],[15.526,8.304],[15.537,8.29],[15.529,8.273],[15.607,8.286],[15.685,8.33],[15.803,8.334],[15.834,8.403],[16.0042,8.4905],[16.0352,8.5293],[16.0736,8.5401],[16.1317,8.59],[16.2832,8.6415],[16.3501,8.6379],[16.3877,8.6494],[16.4184,8.7043],[16.5082,8.731],[16.5178,8.7792],[16.5724,8.8101],[16.5913,8.7998],[16.5852,8.8399],[16.616,8.8806],[16.6082,8.9352],[16.5852,8.9323],[16.5886,8.9535],[16.5593,8.9489],[16.549,8.9856],[16.5299,8.9822],[16.468,9.0603],[16.4437,9.1123],[16.4338,9.1908],[16.3745,9.2482],[16.279,9.175],[16.214,9.154],[16.187,9.098],[16.157,9.079],[16.044,9.128],[15.984,9.129],[15.959,9.113],[15.929,9.061],[15.819,9.039],[15.652,9.061],[15.573,9.023],[15.441,9.061]]]}},{"type":"Feature","properties":{"name":"Logone Oriental","code":"23847190B88704211588167","iso":"TCD"},"geometry":{"type":"Polygon","coordinates":[[[15.2724,8.482],[15.2226,8.4605],[15.3931,8.0984],[15.394,8.0465],[15.4518,7.8853],[15.5064,7.792],[15.5914,7.7663],[15.5892,7.6799],[15.5613,7.612],[15.5664,7.5935],[15.4933,7.5255],[15.5604,7.5105],[15.7279,7.5191],[15.743,7.4785],[15.8096,7.4411],[15.9748,7.4833],[16.039,7.5338],[16.0567,7.5776],[16.1636,7.5946],[16.1855,7.6144],[16.2298,7.6058],[16.2958,7.6547],[16.3865,7.6744],[16.4234,7.7157],[16.406,7.7727],[16.432,7.8102],[16.4497,7.8022],[16.45,7.7874],[16.48,7.7901],[16.5077,7.8481],[16.5518,7.8582],[16.5526,7.8728],[16.5911,7.8866],[16.5785,7.8564],[16.5896,7.774],[16.6599,7.7455],[16.6596,7.6722],[16.6844,7.6395],[16.73,7.6392],[16.776,7.6076],[16.8093,7.5357],[16.8375,7.5328],[16.8598,7.5452],[16.8641,7.5616],[16.8845,7.5638],[16.8927,7.5521],[16.9064,7.5648],[16.8864,7.5789],[16.9016,7.6037],[16.8919,7.6205],[16.9222,7.6099],[16.9235,7.6265],[16.9512,7.6453],[16.9632,7.6318],[16.9769,7.6427],[17.0353,7.6389],[17.0393,7.658],[17.0884,7.6654],[17.0771,7.689],[17.0915,7.7015],[17.1091,7.694],[17.1219,7.6661],[17.1548,7.6709],[17.164,7.7178],[17.2011,7.7218],[17.2233,7.7712],[17.2372,7.7534],[17.2578,7.7529],[17.2553,7.7873],[17.2743,7.7958],[17.268,7.835],[17.108,8.131],[17.213,8.157],[17.295,8.296],[17.13,8.545],[17.046,8.631],[17.142,8.762],[17.15,8.971],[17.134,9.078],[16.986,9.05],[16.772,9.071],[16.684,9.113],[16.654,9.106],[16.596,9.149],[16.543,9.153],[16.4425,9.1223],[16.468,9.0603],[16.5299,8.9822],[16.549,8.9856],[16.5593,8.9489],[16.5886,8.9535],[16.5852,8.9323],[16.6082,8.9352],[16.616,8.8806],[16.5852,8.8399],[16.5913,8.7998],[16.5724,8.8101],[16.5178,8.7792],[16.5082,8.731],[16.4184,8.7043],[16.3877,8.6494],[16.3501,8.6379],[16.2832,8.6415],[16.1317,8.59],[16.0736,8.5401],[16.0352,8.5293],[16.0042,8.4905],[15.834,8.403],[15.803,8.334],[15.685,8.33],[15.607,8.286],[15.529,8.273],[15.537,8.29],[15.526,8.304],[15.49,8.29],[15.488,8.328],[15.455,8.352],[15.446,8.376],[15.383,8.378],[15.342,8.403],[15.2724,8.482]]]}},{"type":"Feature","properties":{"name":"Mandoul","code":"23847190B9655016434554","iso":"TCD"},"geometry":{"type":"Polygon","coordinates":[[[17.2766,7.8105],[17.2937,7.8106],[17.2975,7.8314],[17.3319,7.829],[17.3353,7.8444],[17.3599,7.8562],[17.3755,7.8479],[17.3844,7.86],[17.3992,7.8474],[17.3993,7.8724],[17.4179,7.8648],[17.4136,7.8767],[17.4294,7.8847],[17.4292,7.872],[17.441,7.8716],[17.4421,7.8916],[17.4568,7.8894],[17.4612,7.9021],[17.5106,7.8724],[17.5199,7.8956],[17.5349,7.8907],[17.5335,7.9241],[17.5526,7.9306],[17.563,7.9149],[17.5888,7.9375],[17.6059,7.9296],[17.644,7.9453],[17.6622,7.984],[17.6962,7.9711],[17.7175,7.9829],[17.9216,7.9586],[18.032,8.0093],[18.2154,8.0195],[18.1698,8.2083],[18.1778,8.3398],[18.1279,8.4688],[18.1169,8.5458],[18.0783,8.5655],[18.0638,8.5994],[18.0489,8.6605],[18.0615,8.7851],[18.019,8.844],[17.9958,8.959],[18.0258,8.9974],[18.1093,9.0279],[18.2001,9.1763],[18.0116,9.1989],[17.9938,9.2177],[17.8254,9.2956],[17.7631,9.4358],[17.6659,9.4485],[17.6205,9.5428],[17.484,9.641],[17.347,9.599],[17.251,9.596],[17.209,9.576],[17.216,9.545],[17.257,9.492],[17.228,9.47],[17.228,9.371],[17.075,9.261],[17.222,9.166],[17.134,9.078],[17.15,8.971],[17.142,8.762],[17.046,8.631],[17.13,8.545],[17.295,8.296],[17.213,8.157],[17.108,8.131],[17.2766,7.8105]]]}},{"type":"Feature","properties":{"name":"Mayo-Kebbi Est","code":"23847190B50411308984007","iso":"TCD"},"geometry":{"type":"Polygon","coordinates":[[[15.0983,11.1302],[15.0981,11.1023],[15.1107,11.0881],[15.0941,11.0363],[15.0476,11.0305],[15.0456,11.0036],[15.0811,10.9545],[15.0935,10.8906],[15.0676,10.8203],[15.1601,10.622],[15.1427,10.5871],[15.1472,10.5366],[15.2385,10.4748],[15.2744,10.4127],[15.3046,10.3104],[15.3505,10.2916],[15.3978,10.2442],[15.4128,10.2148],[15.4485,10.1867],[15.4837,10.118],[15.5044,10.0982],[15.5365,10.0943],[15.563,10.0673],[15.5808,10.0686],[15.592,10.05],[15.6744,10.0108],[15.6885,9.9929],[15.4139,9.9335],[15.3646,9.9589],[15.2481,9.9895],[15.1483,9.9943],[15.1102,9.984],[15.106,9.9652],[15.06,9.9457],[15.0332,9.9654],[14.9579,9.9829],[14.8024,9.9352],[14.73,9.9478],[14.7416,9.916],[14.7212,9.8389],[14.735,9.8197],[14.749,9.6698],[14.8605,9.6739],[14.9501,9.6984],[15.034,9.6615],[15.0475,9.6364],[15.026,9.5995],[15.0808,9.5418],[15.0893,9.4385],[15.1378,9.3574],[15.27,9.2713],[15.411,9.2075],[15.566,9.419],[15.665,9.504],[15.682,9.586],[15.714,9.602],[15.727,9.676],[15.755,9.708],[15.7939,9.7247],[15.8654,9.7113],[15.8892,9.6761],[15.9328,9.6542],[16.0325,9.7019],[16.138,9.8104],[16.263,10.031],[16.243,10.086],[16.238,10.18],[16.1939,10.2092],[16.174,10.265],[16.129,10.314],[16.121,10.465],[16.149,10.707],[16.117,10.767],[16.048,10.752],[15.996,10.779],[15.907,10.778],[15.84,10.795],[15.745,10.825],[15.649,10.899],[15.613,10.902],[15.544,10.94],[15.527,10.981],[15.438,11.061],[15.397,11.212],[15.231,11.209],[15.0983,11.1302]]]}},{"type":"Feature","properties":{"name":"Mayo-Kebbi Ouest","code":"23847190B16040038484355","iso":"TCD"},"geometry":{"type":"Polygon","coordinates":[[[15.441,9.061],[15.421,9.21],[15.27,9.2713],[15.1378,9.3574],[15.0893,9.4385],[15.0808,9.5418],[15.026,9.5995],[15.0466,9.6292],[15.0389,9.6575],[14.9501,9.6984],[14.8605,9.6739],[14.749,9.6698],[14.735,9.8197],[14.7212,9.8389],[14.7416,9.916],[14.73,9.9478],[14.4634,10.0022],[14.2042,10.0033],[14.1295,9.8245],[14.0209,9.7324],[13.9751,9.6424],[14.038,9.611],[14.0763,9.5555],[14.0924,9.5505],[14.1043,9.5179],[14.1498,9.5024],[14.1893,9.4429],[14.2041,9.4464],[14.2286,9.4198],[14.2685,9.3582],[14.3043,9.3717],[14.3392,9.3099],[14.3732,9.2941],[14.377,9.2712],[14.3487,9.2043],[14.4072,9.1481],[14.464,9.1149],[14.4894,9.0592],[14.838,8.8106],[14.8716,8.8219],[14.8993,8.814],[14.9228,8.7797],[14.9083,8.7636],[14.9484,8.7578],[14.9892,8.7285],[14.9836,8.688],[15.06,8.6809],[15.109,8.6593],[15.1176,8.6315],[15.1509,8.6059],[15.1541,8.5722],[15.2226,8.4605],[15.2724,8.482],[15.263,8.611],[15.277,8.662],[15.292,8.701],[15.357,8.759],[15.357,8.87],[15.365,8.937],[15.394,8.988],[15.387,9.033],[15.441,9.061]]]}},{"type":"Feature","properties":{"name":"Moyen-Chari","code":"23847190B97640124965572","iso":"TCD"},"geometry":{"type":"Polygon","coordinates":[[[19.703,10.588],[19.619,10.526],[19.584,10.478],[19.533,10.475],[19.496,10.496],[19.43,10.469],[19.391,10.425],[19.382,10.382],[19.344,10.344],[19.355,10.299],[19.284,10.224],[19.215,10.187],[19.208,10.146],[19.161,10.155],[19.138,10.129],[19.078,9.988],[18.825,9.988],[18.794,9.879],[18.737,9.877],[18.632,9.919],[18.642,10.025],[18.496,10.186],[18.381,10.247],[18.341,10.24],[18.289,10.262],[18.164,10.346],[18.104,10.365],[18.067,10.35],[17.962,10.397],[17.864,10.497],[17.543,10.451],[17.489,10.172],[17.381,9.826],[17.461,9.785],[17.591,9.673],[17.554,9.597],[17.6205,9.5428],[17.6659,9.4485],[17.7631,9.4358],[17.8254,9.2956],[17.9938,9.2177],[18.0116,9.1989],[18.2001,9.1763],[18.1093,9.0279],[18.0258,8.9974],[17.9958,8.959],[18.019,8.844],[18.0615,8.7851],[18.0489,8.6605],[18.0638,8.5994],[18.0783,8.5655],[18.1169,8.5458],[18.1279,8.4688],[18.1778,8.3398],[18.1698,8.2083],[18.2154,8.0195],[18.6181,8.0525],[18.637,8.091],[18.6281,8.1412],[18.6666,8.2058],[18.8196,8.2766],[18.8446,8.3063],[18.8488,8.346],[18.8689,8.3417],[18.8813,8.3669],[18.8931,8.3627],[18.9048,8.3869],[18.9219,8.3907],[18.9203,8.4251],[18.9556,8.4663],[18.9693,8.4658],[18.9773,8.4914],[18.9923,8.4917],[18.9887,8.5161],[19.0348,8.528],[19.0658,8.6374],[19.124,8.6717],[19.0853,8.7111],[19.0337,8.7314],[19.0128,8.7624],[18.9752,8.7765],[18.9489,8.8105],[18.9095,8.8102],[18.9028,8.8543],[18.8765,8.845],[18.8634,8.8532],[18.8633,8.8807],[18.89,8.9044],[18.9024,8.9],[18.9117,8.9233],[18.9213,8.9163],[18.9238,8.9293],[18.9582,8.9368],[18.9561,8.9608],[18.9782,8.9406],[18.9854,8.9725],[19.0145,8.9691],[19.0257,8.9803],[19.0206,8.9933],[19.0382,8.9832],[19.0522,9.0131],[19.0702,9.003],[19.0809,9.02],[19.1111,9.0066],[19.1237,9.0245],[19.1472,9.0093],[19.1713,9.0265],[19.2032,9.023],[19.1988,9.0306],[19.2197,9.0391],[19.2226,9.0276],[19.2601,9.029],[19.2637,9.016],[19.2819,9.0123],[19.3512,9.0165],[19.3622,9.0295],[19.3904,9.0147],[19.3991,9.0276],[19.4433,9.0266],[19.4499,9.0075],[19.4777,9.0324],[19.4796,9.0118],[19.5028,9.0298],[19.5161,9.0191],[19.5266,9.0401],[19.5438,9.0224],[19.5608,9.0387],[19.6408,9.0139],[19.6586,9.0233],[19.6839,9.0136],[19.7864,9.0478],[19.8786,9.0525],[19.8947,9.0419],[19.9092,9.0625],[19.9375,9.0572],[19.9533,9.0764],[19.9921,9.083],[19.6812,9.9618],[19.613,10.067],[19.6541,10.097],[19.6478,10.1555],[19.6809,10.2128],[19.692,10.267],[19.635,10.289],[19.703,10.588]]]}},{"type":"Feature","properties":{"name":"Tandjilé","code":"23847190B20750693231580","iso":"TCD"},"geometry":{"type":"Polygon","coordinates":[[[16.1939,10.2092],[16.238,10.18],[16.243,10.086],[16.263,10.031],[16.138,9.8104],[16.0325,9.7019],[15.9644,9.6622],[15.9145,9.6558],[15.8892,9.6761],[15.8809,9.7014],[15.8414,9.7169],[15.7939,9.7247],[15.755,9.708],[15.727,9.676],[15.714,9.602],[15.682,9.586],[15.665,9.504],[15.566,9.419],[15.484,9.319],[15.421,9.21],[15.441,9.061],[15.573,9.023],[15.652,9.061],[15.819,9.039],[15.929,9.061],[15.959,9.113],[15.984,9.129],[16.044,9.128],[16.157,9.079],[16.187,9.098],[16.214,9.154],[16.279,9.175],[16.3745,9.2482],[16.4338,9.1908],[16.4425,9.1223],[16.543,9.153],[16.596,9.149],[16.654,9.106],[16.684,9.113],[16.772,9.071],[16.986,9.05],[17.134,9.078],[17.222,9.166],[17.075,9.261],[17.228,9.371],[17.228,9.47],[17.257,9.492],[17.216,9.545],[17.209,9.576],[17.251,9.596],[17.347,9.599],[17.484,9.641],[17.507,9.616],[17.554,9.597],[17.575,9.624],[17.591,9.673],[17.461,9.785],[17.381,9.826],[17.256,9.84],[17.188,9.871],[17.164,9.92],[17.04,9.945],[16.942,9.945],[16.929,9.971],[16.897,9.99],[16.81,10.014],[16.776,10.01],[16.738,10.053],[16.662,10.071],[16.619,10.171],[16.623,10.234],[16.602,10.236],[16.584,10.265],[16.483,10.2],[16.1939,10.2092]]]}},{"type":"Feature","properties":{"name":"N'Djamena Region","code":"23847190B51844892814608","iso":"TCD"},"geometry":{"type":"Polygon","coordinates":[[[14.9029,12.2249],[14.8923,12.2032],[14.911,12.1853],[14.887,12.162],[14.9509,12.1016],[14.968,12.0966],[15.0014,12.1213],[15.0262,12.1143],[15.0378,12.1041],[15.0369,12.0781],[15.0601,12.0548],[15.1545,12.0665],[15.1826,12.0953],[15.1252,12.1674],[15.0853,12.1969],[15.0275,12.217],[15.0262,12.2535],[14.9029,12.2249]]]}},{"type":"Feature","properties":{"name":"Ennedi-Est","code":"23847190B43219597202588","iso":"TCD"},"geometry":{"type":"Polygon","coordinates":[[[22.0153,15.9849],[22.0707,15.9656],[22.125,15.966],[22.183,15.934],[22.213,15.948],[22.277,15.903],[22.324,15.889],[22.414,15.919],[22.524,15.89],[22.543,15.872],[22.549,15.812],[22.602,15.797],[22.734,15.818],[22.798,15.842],[22.854,15.806],[22.9,15.799],[22.992,15.821],[23.043,15.799],[23.089,15.755],[23.1107,15.7149],[23.2068,15.7184],[23.3241,15.6951],[23.3969,15.6977],[23.5519,15.7684],[23.6636,15.7747],[23.8114,15.7514],[23.9996,15.6973],[23.9995,19.5008],[22.3414,20.3866],[22.3502,16.7559],[22.328,16.7092],[22.2679,16.6745],[22.328,16.5645],[22.1458,16.3271],[22.0516,16.2923],[22.0153,15.9849]]]}}]}