{"type":"FeatureCollection","features":[{"type":"Feature","properties":{"name":"Savanes Region","code":"44829518B73084759902551","iso":"TGO"},"geometry":{"type":"Polygon","coordinates":[[[1.0003,10.2194],[0.7767,10.3767],[0.7853,10.5244],[0.8069,10.5797],[0.8025,10.7142],[0.8794,10.7997],[0.8886,10.8608],[0.9044,10.8769],[0.8886,10.92],[0.9122,10.9962],[0.6563,10.9974],[0.4947,10.931],[0.5058,10.9801],[0.49,10.9862],[0.5029,11.0091],[-0.1362,11.1395],[-0.143,11.1058],[-0.095,11.0861],[-0.0547,11.086],[-0.0194,11.1145],[-0.0047,11.1078],[0.0239,11.0626],[0.0344,10.9927],[0.0333,10.978],[-0.0061,10.9632],[-0.0077,10.9147],[-0.0295,10.8545],[-0.0218,10.8187],[-0.0728,10.7698],[-0.0723,10.72],[-0.0901,10.7116],[-0.0605,10.6344],[0.0413,10.6014],[0.061,10.5608],[0.1427,10.5263],[0.1543,10.4651],[0.1726,10.4507],[0.1691,10.4303],[0.1909,10.4167],[0.1904,10.4043],[0.2094,10.4055],[0.2051,10.4183],[0.2177,10.4269],[0.2593,10.4076],[0.2859,10.4216],[0.3004,10.4025],[0.2903,10.3764],[0.3075,10.3715],[0.3156,10.338],[0.3384,10.3252],[0.3187,10.3086],[0.3958,10.3143],[0.3695,10.2848],[0.3818,10.2732],[0.3616,10.2581],[0.3507,10.1683],[0.3636,10.138],[0.3531,10.0987],[0.416,10.0625],[0.4102,10.021],[0.4317,10.0204],[0.4313,9.967],[0.4511,9.9707],[0.4495,9.9569],[0.4685,9.9497],[0.5357,9.9547],[0.5157,9.9233],[0.5387,9.9169],[0.5663,9.8857],[0.6044,9.8939],[0.6248,9.8842],[0.6435,9.902],[0.6528,9.8881],[0.6819,9.8963],[0.6635,9.9267],[0.6837,9.9684],[0.6964,10.0579],[0.7375,10.1223],[0.7414,10.1672],[0.7519,10.1638],[0.762,10.1822],[0.7834,10.1715],[0.7924,10.1844],[0.8153,10.1585],[0.8598,10.1858],[0.8955,10.1499],[0.9081,10.1719],[0.9708,10.1662],[1.0003,10.2194]]]}},{"type":"Feature","properties":{"name":"Kara Region","code":"44829518B37847489557890","iso":"TGO"},"geometry":{"type":"Polygon","coordinates":[[[0.4102,10.021],[0.3605,10.0275],[0.3587,9.9889],[0.3873,9.9374],[0.3552,9.9219],[0.3574,9.8467],[0.3297,9.7929],[0.336,9.7788],[0.3251,9.7721],[0.3189,9.7279],[0.3448,9.7177],[0.3509,9.6748],[0.323,9.6509],[0.2793,9.6863],[0.2638,9.6636],[0.2959,9.5956],[0.3563,9.6251],[0.3837,9.5915],[0.3513,9.572],[0.2401,9.5746],[0.2433,9.5245],[0.2971,9.5228],[0.311,9.5049],[0.2697,9.4789],[0.23,9.4865],[0.2271,9.4784],[0.247,9.438],[0.2758,9.4274],[0.3375,9.4517],[0.3505,9.4753],[0.3435,9.4883],[0.3594,9.4992],[0.4571,9.4979],[0.5033,9.4745],[0.5,9.4379],[0.5193,9.4403],[0.567,9.4059],[0.5451,9.3409],[0.5558,9.3112],[0.5384,9.3058],[0.5058,9.2564],[0.5336,9.2094],[0.5116,9.1637],[0.4768,9.145],[0.4867,9.1087],[0.4569,9.0523],[0.4942,8.954],[0.5166,8.9387],[0.509,8.9182],[0.5276,8.8781],[0.5203,8.8711],[0.5386,8.861],[0.556,8.8828],[0.5818,8.8825],[0.577,8.9052],[0.6266,8.9683],[0.6276,8.9976],[0.6649,8.9904],[0.6771,9.0121],[0.7142,9.033],[0.724,9.0573],[0.7523,9.0497],[0.7763,9.0639],[0.788,9.0319],[0.8517,9.0004],[0.9682,9.0219],[0.9747,9.0532],[1.007,9.0622],[0.9891,9.1019],[0.9874,9.175],[1.0041,9.2095],[1.0764,9.2301],[1.1751,9.2138],[1.2361,9.2186],[1.3489,9.2551],[1.3696,9.2517],[1.435,9.2981],[1.4069,9.3447],[1.3906,9.4875],[1.3611,9.4856],[1.3375,9.5425],[1.3683,9.5967],[1.3739,9.6467],[1.355,9.9953],[1.0003,10.2194],[0.9708,10.1662],[0.9081,10.1719],[0.8955,10.1499],[0.8598,10.1858],[0.8153,10.1585],[0.7924,10.1844],[0.7834,10.1715],[0.762,10.1822],[0.7519,10.1638],[0.7414,10.1672],[0.7375,10.1223],[0.6964,10.0579],[0.6837,9.9684],[0.6635,9.9267],[0.6819,9.8963],[0.6626,9.8892],[0.6435,9.902],[0.6248,9.8842],[0.6044,9.8939],[0.5663,9.8857],[0.5387,9.9169],[0.5157,9.9233],[0.5357,9.9547],[0.4495,9.9569],[0.4511,9.9707],[0.4304,9.9677],[0.4317,10.0204],[0.4102,10.021]]]}},{"type":"Feature","properties":{"name":"Centrale Region","code":"44829518B22237151485853","iso":"TGO"},"geometry":{"type":"Polygon","coordinates":[[[0.5203,8.8711],[0.5195,8.853],[0.4958,8.8393],[0.4913,8.8004],[0.469,8.7918],[0.4482,8.8114],[0.4278,8.7791],[0.418,8.7923],[0.3801,8.7928],[0.3782,8.772],[0.4009,8.7569],[0.3739,8.7543],[0.4696,8.5956],[0.4921,8.5971],[0.5118,8.5636],[0.5318,8.5695],[0.5637,8.5456],[0.5712,8.5242],[0.6247,8.5113],[0.6293,8.4964],[0.6457,8.4935],[0.6517,8.4224],[0.6965,8.4047],[0.7126,8.3768],[0.7105,8.3516],[0.73,8.3409],[0.7311,8.2867],[0.688,8.2808],[0.6744,8.2595],[0.6384,8.2603],[0.6193,8.2158],[0.5886,8.2025],[0.6139,8.185],[0.6098,8.1451],[0.5916,8.1381],[0.5846,8.0935],[0.608,7.9967],[0.5966,7.987],[0.6206,7.9057],[0.6821,7.909],[0.7037,7.9345],[0.8067,7.9497],[0.8361,7.9741],[0.8824,7.9608],[0.964,7.9845],[1.0296,7.9566],[1.2034,7.9827],[1.2427,8.0072],[1.234,8.0268],[1.2647,8.0744],[1.2571,8.0976],[1.2666,8.1065],[1.257,8.1086],[1.2677,8.2071],[1.2554,8.2166],[1.2478,8.2409],[1.2604,8.2494],[1.2341,8.3055],[1.2384,8.3559],[1.251,8.3687],[1.2358,8.379],[1.6131,8.3747],[1.6311,8.4519],[1.6592,8.4861],[1.6247,8.5481],[1.6278,8.8811],[1.6064,9.0997],[1.5672,9.17],[1.5106,9.2108],[1.435,9.2981],[1.3696,9.2517],[1.3489,9.2551],[1.2361,9.2186],[1.1751,9.2138],[1.0764,9.2301],[1.0041,9.2095],[0.9874,9.175],[0.9891,9.1019],[1.007,9.0622],[0.9747,9.0532],[0.9682,9.0219],[0.8517,9.0004],[0.788,9.0319],[0.7763,9.0639],[0.7523,9.0497],[0.724,9.0573],[0.7142,9.033],[0.6771,9.0121],[0.6649,8.9904],[0.6276,8.9976],[0.6266,8.9683],[0.577,8.9052],[0.5818,8.8825],[0.556,8.8828],[0.5386,8.861],[0.5203,8.8711]]]}},{"type":"Feature","properties":{"name":"Plateaux Region","code":"44829518B26250432968900","iso":"TGO"},"geometry":{"type":"Polygon","coordinates":[[[0.6206,7.9057],[0.6275,7.8635],[0.6172,7.7964],[0.6296,7.7932],[0.6311,7.7678],[0.6114,7.7539],[0.6271,7.7043],[0.5904,7.7031],[0.586,7.6221],[0.5181,7.5926],[0.5187,7.5111],[0.5301,7.4808],[0.5195,7.4601],[0.5323,7.4571],[0.5357,7.4265],[0.5687,7.3922],[0.6185,7.4128],[0.6441,7.4012],[0.6583,7.3173],[0.6338,7.2069],[0.5914,7.1138],[0.6142,7.0993],[0.5976,7.0626],[0.6043,7.0243],[0.5899,6.9992],[0.5496,6.9916],[0.5211,6.9686],[0.5228,6.9432],[0.566,6.9211],[0.5585,6.8876],[0.5353,6.8765],[0.5434,6.8644],[0.5313,6.8569],[0.5323,6.8285],[0.5483,6.8336],[0.5798,6.8073],[0.5662,6.7887],[0.5814,6.7615],[0.6483,6.7401],[0.6497,6.6743],[0.6354,6.6415],[0.6572,6.6076],[0.6733,6.6139],[0.6873,6.5926],[0.7413,6.5842],[0.7476,6.5629],[0.7286,6.5466],[0.7778,6.5554],[0.8251,6.5881],[0.8829,6.6515],[0.8956,6.6827],[0.9044,6.7243],[0.8949,6.8354],[1.119,6.8217],[1.144,6.794],[1.2459,6.7336],[1.306,6.7947],[1.3826,6.8478],[1.4026,6.8551],[1.4865,6.8436],[1.5175,6.8563],[1.5783,6.926],[1.5592,6.9972],[1.6425,6.9956],[1.6439,7.4253],[1.6558,7.5325],[1.6414,7.6364],[1.6347,8.3578],[1.6131,8.3747],[1.2358,8.379],[1.251,8.3687],[1.2384,8.3559],[1.2341,8.3055],[1.2604,8.2494],[1.2478,8.2409],[1.2677,8.2071],[1.2614,8.1814],[1.2707,8.1683],[1.2587,8.1416],[1.2647,8.0744],[1.234,8.0268],[1.2427,8.0072],[1.2034,7.9827],[1.0789,7.958],[1.0296,7.9566],[0.964,7.9845],[0.8824,7.9608],[0.8361,7.9741],[0.8067,7.9497],[0.7037,7.9345],[0.6821,7.909],[0.6206,7.9057]]]}},{"type":"Feature","properties":{"name":"Maritime Region","code":"44829518B32493797453601","iso":"TGO"},"geometry":{"type":"Polygon","coordinates":[[[0.7286,6.5466],[0.7124,6.5292],[0.7261,6.4912],[0.744,6.4832],[0.7496,6.4441],[0.7826,6.4331],[0.7891,6.4087],[0.8619,6.3805],[0.8931,6.3333],[1.0035,6.3355],[1.0242,6.2561],[1.0633,6.2234],[1.0829,6.1696],[1.1994,6.1691],[1.1996,6.1124],[1.3903,6.1798],[1.8025,6.2803],[1.7883,6.3087],[1.7969,6.3236],[1.7799,6.3451],[1.7851,6.3832],[1.7639,6.4131],[1.779,6.427],[1.7549,6.4463],[1.7526,6.4751],[1.7348,6.4745],[1.7378,6.4878],[1.6938,6.5044],[1.6976,6.5552],[1.6871,6.551],[1.6801,6.5639],[1.671,6.5556],[1.6582,6.572],[1.6672,6.5797],[1.6528,6.5752],[1.6102,6.6134],[1.6024,6.645],[1.6156,6.651],[1.5751,6.6885],[1.5932,6.7021],[1.5908,6.7278],[1.5962,6.7194],[1.6233,6.7374],[1.6155,6.754],[1.6253,6.7611],[1.6083,6.7718],[1.6118,6.794],[1.5943,6.7995],[1.6126,6.8251],[1.5976,6.8309],[1.6058,6.9051],[1.577,6.9223],[1.5558,6.9118],[1.5175,6.8563],[1.4865,6.8436],[1.4026,6.8551],[1.3826,6.8478],[1.306,6.7947],[1.2459,6.7336],[1.144,6.794],[1.119,6.8217],[0.8949,6.8354],[0.9044,6.7243],[0.8829,6.6515],[0.8051,6.571],[0.7286,6.5466]]]}}]}