{"type":"FeatureCollection","features":[{"type":"Feature","properties":{"name":"Eastern","code":"6923714B50523150920038","iso":"ZMB"},"geometry":{"type":"Polygon","coordinates":[[[30.2157,-14.9979],[30.3841,-14.9582],[30.4826,-14.908],[30.7998,-14.7893],[31.5035,-14.6105],[31.6854,-14.5105],[31.8266,-14.4774],[31.9488,-14.4164],[32.0579,-14.3917],[32.2543,-14.3222],[32.4508,-14.2846],[32.6827,-14.188],[33.2412,-13.9987],[33.2066,-13.9878],[33.1854,-13.951],[33.1424,-13.9328],[33.1291,-13.9547],[33.0776,-13.9751],[33.0575,-14.0248],[33.0296,-14.0416],[32.9966,-14.0126],[33.0032,-13.946],[32.9592,-13.9307],[32.9607,-13.8952],[32.9191,-13.8536],[32.9092,-13.8263],[32.8279,-13.7854],[32.8085,-13.7933],[32.7804,-13.7722],[32.8112,-13.7316],[32.849,-13.713],[32.8051,-13.6669],[32.8025,-13.6496],[32.774,-13.6317],[32.7294,-13.6361],[32.6801,-13.6103],[32.696,-13.5709],[32.7515,-13.5832],[32.7696,-13.5569],[32.8493,-13.5172],[32.849,-13.4622],[32.8864,-13.459],[32.9196,-13.4109],[32.9431,-13.275],[32.9711,-13.2585],[32.9821,-13.2291],[33.0121,-13.2149],[33.0197,-13.1959],[32.979,-13.1599],[32.9728,-13.114],[32.9975,-13.0538],[32.9867,-13.0297],[33.0152,-12.9865],[33.0282,-12.9072],[33.0081,-12.8836],[32.9761,-12.8817],[32.946,-12.8469],[32.9545,-12.8214],[32.9382,-12.7715],[32.9962,-12.7245],[33.0202,-12.6489],[33.055,-12.6093],[33.0897,-12.5917],[33.1139,-12.6133],[33.1433,-12.5927],[33.1823,-12.608],[33.1804,-12.6406],[33.2023,-12.6064],[33.2361,-12.5904],[33.2732,-12.537],[33.3185,-12.5253],[33.366,-12.5576],[33.4124,-12.5192],[33.4082,-12.5027],[33.4306,-12.4768],[33.4807,-12.4528],[33.4743,-12.414],[33.5029,-12.4078],[33.5111,-12.3889],[33.5485,-12.3701],[33.5376,-12.3321],[33.5167,-12.3392],[33.4739,-12.3218],[33.4243,-12.3402],[33.3744,-12.3317],[33.3299,-12.257],[33.3112,-12.2473],[33.3073,-12.1617],[33.2818,-12.1593],[33.2569,-12.138],[33.2739,-12.0637],[33.3075,-12.0039],[33.3249,-11.9068],[33.3047,-11.8645],[33.3355,-11.7953],[33.3192,-11.7669],[33.3119,-11.6722],[33.3204,-11.632],[33.3097,-11.5915],[33.2673,-11.5752],[33.2077,-11.5968],[32.9974,-11.9157],[32.4914,-12.1234],[32.4657,-12.1204],[32.4848,-12.1816],[32.4583,-12.2],[32.3596,-12.2062],[32.287,-12.2282],[32.2794,-12.274],[32.2635,-12.2699],[32.2622,-12.2974],[32.2199,-12.318],[32.2218,-12.3375],[32.2069,-12.3317],[32.1935,-12.3463],[32.1966,-12.3755],[32.1829,-12.3863],[32.1946,-12.394],[32.1715,-12.397],[32.1743,-12.413],[32.1547,-12.4118],[32.1436,-12.4246],[32.1395,-12.4674],[32.1547,-12.49],[32.1346,-12.5112],[32.1327,-12.5338],[32.1453,-12.5473],[32.13,-12.5494],[32.1331,-12.5661],[32.11,-12.6028],[32.1252,-12.6124],[32.1013,-12.6301],[32.0998,-12.6694],[32.064,-12.6895],[32.0709,-12.6993],[32.0492,-12.7302],[32.0617,-12.743],[32.0354,-12.7701],[32.0488,-12.7964],[32.0304,-12.7892],[32.0202,-12.8301],[31.9841,-12.8552],[32.0023,-12.861],[32.0037,-12.8776],[31.983,-12.8755],[31.982,-12.9027],[31.9459,-12.9049],[31.9398,-12.9213],[31.9272,-12.9094],[31.9211,-12.9358],[31.9049,-12.9282],[31.9108,-12.9664],[31.8904,-12.9775],[31.9008,-13.0059],[31.8783,-13.0444],[31.863,-13.0215],[31.8667,-13.0489],[31.837,-13.0767],[31.8104,-13.0712],[31.809,-13.1034],[31.7794,-13.0986],[31.7654,-13.1142],[31.7636,-13.0944],[31.7411,-13.0916],[31.7517,-13.1128],[31.73,-13.1185],[31.7378,-13.1425],[31.7333,-13.1658],[31.715,-13.1772],[31.7211,-13.187],[31.6483,-13.2321],[31.6597,-13.2769],[31.6469,-13.2982],[31.6597,-13.3128],[31.6336,-13.3221],[31.6421,-13.3466],[31.6169,-13.3578],[31.6186,-13.3763],[31.5762,-13.3787],[31.5379,-13.4325],[31.4374,-13.4274],[31.4206,-13.4638],[31.3856,-13.454],[31.3625,-13.474],[31.3262,-13.4798],[31.306,-13.5245],[31.2668,-13.5342],[31.2169,-13.6022],[31.1964,-13.5885],[31.145,-13.618],[31.1247,-13.6441],[31.142,-13.7026],[31.1208,-13.7289],[31.0727,-13.7499],[31.0776,-13.7751],[31.0457,-13.7678],[31.014,-13.7995],[30.981,-13.803],[30.9832,-13.8498],[30.9444,-13.8581],[30.9475,-13.8953],[30.9217,-13.8864],[30.8927,-13.9276],[30.0949,-13.9313],[30.1159,-13.9581],[30.1538,-13.9724],[30.1626,-14.0393],[30.1833,-14.0637],[30.2579,-14.0777],[30.2702,-14.0958],[30.2877,-14.0958],[30.3123,-14.1516],[30.3012,-14.1623],[30.3168,-14.1833],[30.2836,-14.1843],[30.2675,-14.2082],[30.2303,-14.2281],[30.2013,-14.2753],[30.1455,-14.3296],[30.1538,-14.3396],[30.1291,-14.3714],[30.1015,-14.357],[30.0759,-14.3683],[30.0614,-14.3911],[30.0633,-14.4221],[30.0307,-14.437],[30.0147,-14.4803],[30.0217,-14.4935],[29.9955,-14.5191],[30.006,-14.5282],[29.9783,-14.578],[29.9913,-14.6141],[30.0131,-14.6227],[30.0104,-14.6521],[30.0505,-14.667],[30.0567,-14.6968],[30.0913,-14.7055],[30.201,-14.8163],[30.2105,-14.8697],[30.1974,-14.9152],[30.2157,-14.9979]]]}},{"type":"Feature","properties":{"name":"Muchinga","code":"6923714B61233419501629","iso":"ZMB"},"geometry":{"type":"Polygon","coordinates":[[[33.2248,-11.5924],[33.2225,-11.5655],[33.2422,-11.5317],[33.2305,-11.4288],[33.2499,-11.4185],[33.2835,-11.4359],[33.2772,-11.3771],[33.3146,-11.3624],[33.31,-11.3334],[33.3383,-11.3071],[33.3562,-11.2534],[33.3821,-11.2313],[33.4046,-11.156],[33.3799,-11.1433],[33.374,-11.1114],[33.3298,-11.0675],[33.307,-10.9857],[33.3108,-10.9401],[33.2772,-10.8981],[33.2504,-10.9067],[33.2466,-10.887],[33.2668,-10.8641],[33.2843,-10.8647],[33.2885,-10.8765],[33.3141,-10.8649],[33.336,-10.8211],[33.3589,-10.8272],[33.3953,-10.805],[33.4356,-10.8198],[33.4664,-10.8139],[33.4767,-10.7942],[33.5314,-10.7639],[33.5366,-10.7314],[33.5507,-10.7311],[33.6007,-10.6554],[33.6167,-10.6626],[33.7097,-10.5683],[33.6787,-10.5753],[33.6749,-10.5286],[33.666,-10.5336],[33.6226,-10.4966],[33.6346,-10.4852],[33.6339,-10.4594],[33.574,-10.4389],[33.5385,-10.3191],[33.5643,-10.2465],[33.5603,-10.2085],[33.4985,-10.1772],[33.4541,-10.1725],[33.4065,-10.1115],[33.3851,-10.1003],[33.3521,-10.1091],[33.3436,-10.0837],[33.3159,-10.0693],[33.3568,-9.9327],[33.3777,-9.9181],[33.3559,-9.8486],[33.3068,-9.824],[33.2901,-9.7792],[33.2315,-9.7493],[33.2371,-9.7342],[33.2163,-9.6826],[33.2345,-9.6643],[33.2229,-9.6252],[33.1957,-9.5995],[33.1721,-9.6007],[33.1567,-9.6183],[33.1205,-9.5996],[33.1105,-9.6261],[33.1199,-9.6393],[33.1007,-9.6842],[33.0843,-9.6753],[33.0671,-9.6391],[33.0772,-9.6314],[33.0627,-9.6222],[33.0329,-9.6409],[33.0052,-9.6368],[33.0145,-9.6086],[32.9989,-9.5721],[33.0322,-9.5212],[33.0319,-9.4939],[32.9944,-9.4956],[32.9818,-9.4806],[32.9509,-9.4909],[32.943,-9.4192],[32.9594,-9.3988],[32.928,-9.4004],[32.9127,-9.3777],[32.8974,-9.3869],[32.8925,-9.3648],[32.8647,-9.3778],[32.8127,-9.3473],[32.7999,-9.3207],[32.7649,-9.3211],[32.7552,-9.2832],[32.6472,-9.2735],[32.5794,-9.2449],[32.5451,-9.2556],[32.4847,-9.1722],[32.4926,-9.1494],[32.4371,-9.1175],[32.2547,-9.1306],[32.1924,-9.0936],[32.1601,-9.0561],[32.1849,-9.0929],[32.151,-9.2245],[32.1636,-9.2603],[32.2316,-9.3239],[32.2449,-9.3737],[32.2603,-9.379],[32.2533,-9.4256],[32.266,-9.4627],[32.2547,-9.4784],[32.2928,-9.5961],[32.3172,-9.6095],[32.3306,-9.639],[32.3525,-9.6468],[32.3481,-9.746],[32.2976,-9.7551],[32.2943,-9.7785],[32.1819,-9.8373],[32.1691,-9.8771],[32.1767,-9.8945],[32.1289,-9.9434],[32.1438,-9.9703],[32.1203,-9.9853],[32.1232,-10.0171],[32.1016,-10.019],[32.0863,-10.0446],[32.0369,-10.0435],[32.0327,-10.0765],[32.0106,-10.0753],[32.0132,-10.0876],[31.9997,-10.0951],[32.0067,-10.1122],[31.9896,-10.1167],[32.0119,-10.1363],[32.0004,-10.1771],[32.0101,-10.1884],[32.0064,-10.2349],[31.9783,-10.2534],[31.9844,-10.2685],[31.973,-10.2694],[31.9605,-10.3039],[31.9239,-10.3037],[31.8613,-10.3375],[31.8374,-10.3931],[31.8417,-10.4319],[31.8077,-10.4665],[31.7438,-10.4716],[31.6809,-10.5334],[31.6345,-10.5247],[31.563,-10.5738],[31.5271,-10.5641],[31.4973,-10.5883],[31.4819,-10.5671],[31.4614,-10.5631],[31.4278,-10.6002],[31.3293,-10.6295],[31.343,-10.659],[31.3221,-10.6547],[31.3055,-10.6693],[31.3196,-10.7115],[31.2749,-10.7421],[31.2538,-10.7212],[31.2368,-10.7301],[31.2073,-10.7215],[31.1444,-10.7522],[31.1366,-10.7674],[31.1578,-10.7779],[31.1561,-10.7971],[31.1872,-10.7851],[31.2132,-10.8131],[31.1948,-10.8292],[31.1776,-10.8166],[31.1496,-10.8267],[31.1866,-10.8723],[31.1533,-10.923],[31.1042,-10.9673],[31.0734,-10.9604],[31.0828,-10.9332],[31.067,-10.918],[31.0634,-10.9439],[31.0469,-10.9568],[31.0098,-10.9434],[31.0269,-10.9211],[31.0162,-10.9195],[30.9904,-10.9403],[30.9822,-11.0033],[30.8851,-11.0366],[30.8991,-11.0756],[30.8581,-11.0528],[30.8206,-11.131],[30.7385,-11.2048],[30.7203,-11.2813],[30.6856,-11.3312],[30.6119,-11.329],[30.5961,-11.35],[30.6074,-11.3644],[30.5944,-11.3915],[30.5492,-11.4055],[30.5218,-11.4743],[30.4691,-11.506],[30.437,-11.5987],[30.4465,-11.6222],[30.3392,-11.7446],[30.2516,-11.8125],[29.7962,-11.9089],[29.806,-11.9328],[29.7808,-11.9552],[29.7803,-11.9802],[29.7977,-11.9905],[29.7821,-12.0084],[29.793,-12.0177],[29.7912,-12.064],[29.8251,-12.0901],[29.8136,-12.1496],[29.8416,-12.132],[29.8449,-12.0855],[29.8633,-12.0467],[29.9215,-12.0174],[30.0008,-12.0029],[30.0207,-12.0507],[30.0528,-12.0653],[30.0515,-12.1162],[30.083,-12.1331],[30.1054,-12.1747],[30.1357,-12.1777],[30.1328,-12.1962],[30.221,-12.2159],[30.2073,-12.222],[30.2668,-12.2536],[30.3031,-12.2572],[30.3113,-12.2453],[30.3512,-12.283],[30.3862,-12.2693],[30.4491,-12.2755],[30.4846,-12.3023],[30.5057,-12.3313],[30.5067,-12.3939],[30.4657,-12.4284],[30.4429,-12.4794],[30.4791,-12.4883],[30.5044,-12.5174],[30.57,-12.5384],[30.5549,-12.5856],[30.6017,-12.6414],[30.6373,-12.6374],[30.6623,-12.5987],[30.6774,-12.6002],[30.7003,-12.6179],[30.7049,-12.6467],[30.7774,-12.6835],[30.7767,-12.6944],[30.7391,-12.7125],[30.7331,-12.7566],[30.7609,-12.7931],[30.7596,-12.8335],[30.7713,-12.8507],[30.7439,-12.8801],[30.7536,-12.9062],[30.7999,-12.9143],[30.8468,-12.948],[30.8882,-12.9287],[30.9286,-12.9607],[30.949,-12.9575],[30.9638,-12.9387],[30.9943,-12.9613],[31.045,-12.9696],[31.0707,-12.9951],[31.0762,-13.025],[31.1016,-13.0425],[31.1708,-13.0295],[31.1741,-13.0023],[31.2134,-12.9607],[31.2469,-12.9469],[31.2589,-12.9658],[31.2695,-12.9575],[31.2969,-12.9754],[31.324,-12.9651],[31.3558,-12.9997],[31.3374,-13.0708],[31.3639,-13.1025],[31.3598,-13.155],[31.3842,-13.1997],[31.3636,-13.2559],[31.3931,-13.2775],[31.3974,-13.3031],[31.4361,-13.3308],[31.4225,-13.4011],[31.4302,-13.4181],[31.4869,-13.435],[31.5379,-13.4325],[31.5762,-13.3787],[31.6186,-13.3763],[31.6169,-13.3578],[31.6421,-13.3466],[31.6336,-13.3221],[31.6597,-13.3128],[31.6469,-13.2982],[31.6597,-13.2769],[31.6483,-13.2321],[31.7211,-13.187],[31.715,-13.1772],[31.7333,-13.1658],[31.7378,-13.1425],[31.73,-13.1185],[31.7517,-13.1128],[31.7411,-13.0916],[31.7636,-13.0944],[31.7654,-13.1142],[31.7794,-13.0986],[31.809,-13.1034],[31.8104,-13.0712],[31.837,-13.0767],[31.8667,-13.0489],[31.863,-13.0215],[31.8783,-13.0444],[31.9008,-13.0059],[31.8904,-12.9775],[31.9108,-12.9664],[31.9049,-12.9282],[31.9211,-12.9358],[31.9272,-12.9094],[31.9398,-12.9213],[31.9459,-12.9049],[31.982,-12.9027],[31.983,-12.8755],[32.0037,-12.8776],[32.0023,-12.861],[31.9841,-12.8552],[32.0202,-12.8301],[32.0304,-12.7892],[32.0488,-12.7964],[32.0354,-12.7701],[32.0617,-12.743],[32.0492,-12.7302],[32.0709,-12.6993],[32.064,-12.6895],[32.0998,-12.6694],[32.1013,-12.6301],[32.1252,-12.6124],[32.11,-12.6028],[32.1331,-12.5661],[32.13,-12.5494],[32.1453,-12.5473],[32.1327,-12.5338],[32.1346,-12.5112],[32.1547,-12.49],[32.1395,-12.4674],[32.1436,-12.4246],[32.1547,-12.4118],[32.1743,-12.413],[32.1715,-12.397],[32.1946,-12.394],[32.1829,-12.3863],[32.1966,-12.3755],[32.1935,-12.3463],[32.2069,-12.3317],[32.2218,-12.3375],[32.2199,-12.318],[32.2622,-12.2974],[32.2635,-12.2699],[32.2794,-12.274],[32.287,-12.2282],[32.3596,-12.2062],[32.4583,-12.2],[32.4848,-12.1816],[32.4657,-12.1204],[32.4914,-12.1234],[32.9974,-11.9157],[33.2077,-11.5968],[33.2248,-11.5924]]]}},{"type":"Feature","properties":{"name":"North-Western","code":"6923714B68349750823816","iso":"ZMB"},"geometry":{"type":"Polygon","coordinates":[[[27.6228,-12.2642],[27.6154,-12.2204],[27.571,-12.2069],[27.5329,-12.1758],[27.496,-12.0565],[27.4685,-12.0503],[27.4617,-12.0054],[27.4768,-11.9467],[27.4688,-11.9306],[27.3404,-11.8277],[27.232,-11.784],[27.2206,-11.7458],[27.2367,-11.6804],[27.2054,-11.5601],[27.1945,-11.5799],[27.1592,-11.5994],[27.1196,-11.5877],[27.0812,-11.606],[27.0494,-11.59],[27.0208,-11.6091],[27.0308,-11.6334],[27.0231,-11.6481],[27.0478,-11.707],[27.0318,-11.736],[27.0046,-11.7458],[27.008,-11.8137],[26.9936,-11.8239],[27.0082,-11.8414],[26.9698,-11.8768],[26.9401,-11.9362],[26.9149,-11.9348],[26.877,-11.9823],[26.8196,-11.9871],[26.7744,-11.9553],[26.7093,-12.0065],[26.5927,-11.9681],[26.5723,-11.986],[26.4999,-11.952],[26.4777,-11.9186],[26.4282,-11.9105],[26.3127,-11.9637],[26.2925,-11.9417],[26.2492,-11.9428],[26.2395,-11.928],[26.2303,-11.9341],[26.2081,-11.9208],[26.1855,-11.9379],[26.0494,-11.9363],[25.9798,-11.9479],[25.981,-11.9273],[25.997,-11.9162],[25.9901,-11.8952],[25.9621,-11.8738],[25.9254,-11.8813],[25.8895,-11.8464],[25.8868,-11.8082],[25.8559,-11.809],[25.8238,-11.8307],[25.7147,-11.8167],[25.671,-11.7759],[25.651,-11.7315],[25.5959,-11.7346],[25.5795,-11.7569],[25.5088,-11.7871],[25.4876,-11.7708],[25.4993,-11.7516],[25.4965,-11.7176],[25.4775,-11.6783],[25.4165,-11.6685],[25.3313,-11.6201],[25.3247,-11.5791],[25.3063,-11.5651],[25.3121,-11.534],[25.2929,-11.5193],[25.3042,-11.5105],[25.3138,-11.5182],[25.332,-11.4946],[25.3083,-11.4877],[25.3059,-11.4333],[25.2948,-11.4276],[25.3022,-11.4133],[25.28,-11.3567],[25.3136,-11.3467],[25.3156,-11.3272],[25.2921,-11.3059],[25.338,-11.2808],[25.3164,-11.2599],[25.3359,-11.2487],[25.3519,-11.1957],[25.3027,-11.1917],[25.238,-11.2262],[25.1457,-11.2373],[25.1184,-11.2547],[25.0632,-11.2598],[25.0279,-11.2451],[24.9679,-11.2624],[24.9273,-11.2597],[24.9116,-11.2746],[24.8729,-11.2656],[24.8698,-11.2857],[24.8521,-11.2961],[24.7945,-11.31],[24.7506,-11.303],[24.7288,-11.3169],[24.7389,-11.3313],[24.6935,-11.3335],[24.6415,-11.4013],[24.5913,-11.42],[24.5858,-11.4522],[24.5483,-11.4435],[24.5275,-11.465],[24.4412,-11.4672],[24.4199,-11.4271],[24.3642,-11.4008],[24.3441,-11.414],[24.3108,-11.4095],[24.2796,-11.3884],[24.3581,-11.3531],[24.4075,-11.2472],[24.3945,-11.2257],[24.4016,-11.1994],[24.3771,-11.1736],[24.3926,-11.1214],[24.3793,-11.0852],[24.3019,-11.0414],[24.2448,-11.0507],[24.1862,-11.0206],[24.1633,-11.0433],[24.1498,-11.0417],[24.1357,-10.9967],[24.1435,-10.984],[24.1195,-10.9495],[24.1325,-10.9248],[24.116,-10.9063],[24.0634,-10.8881],[23.9993,-10.8902],[23.9817,-10.9117],[24.0185,-10.9413],[24.0239,-10.9832],[24.009,-11.0194],[24.0217,-11.098],[24.0009,-11.1172],[24.0054,-11.1294],[24.0347,-11.1354],[24.032,-11.2727],[24.057,-11.3067],[24.0881,-11.4031],[24.0242,-11.4461],[24.0199,-11.4751],[24.0383,-11.5314],[23.9755,-11.6528],[23.9604,-11.6606],[23.9907,-11.7136],[24.0227,-11.8296],[23.9842,-11.8839],[23.9772,-12.0779],[23.9838,-12.1697],[24.0014,-12.2097],[24.0394,-12.235],[24.0625,-12.2696],[24.0667,-12.3084],[24.0432,-12.3336],[24.0761,-12.3586],[24.0775,-12.3812],[24.0657,-12.4249],[24.0336,-12.4402],[23.9844,-12.5089],[23.9556,-12.521],[23.9474,-12.5381],[23.9511,-12.5977],[23.9194,-12.679],[23.9298,-12.7067],[23.8993,-12.7611],[23.8934,-12.8403],[23.9225,-12.8614],[23.9398,-12.8941],[23.9771,-12.9011],[23.9959,-12.9291],[24.0241,-12.9406],[24.0243,-12.9722],[24.056,-12.9983],[22.0029,-12.9973],[21.9978,-13.726],[22.012,-13.7158],[22.1167,-13.7657],[22.1388,-13.7478],[22.1734,-13.7694],[22.1957,-13.7556],[22.2225,-13.7622],[22.241,-13.7448],[22.2768,-13.7522],[22.3082,-13.7715],[22.3169,-13.7974],[22.3448,-13.7948],[22.3892,-13.8333],[22.4119,-13.8369],[22.4436,-13.8744],[22.4761,-13.8737],[22.5147,-13.9066],[22.5082,-13.9128],[22.5548,-13.9406],[22.5828,-13.9333],[22.5876,-13.9472],[22.6092,-13.9432],[22.61,-13.9587],[22.627,-13.9486],[22.6382,-13.9751],[22.6548,-13.9791],[22.6523,-13.9996],[22.6683,-13.9839],[22.7006,-14.0051],[22.7105,-13.9923],[22.7095,-14.0028],[22.7279,-14.0102],[22.7549,-13.9228],[22.8002,-13.9272],[22.8537,-13.875],[22.9632,-13.9406],[22.9944,-14.0057],[23.0289,-14.0086],[23.098,-13.9863],[23.1226,-14.0369],[23.1487,-14.04],[23.1746,-14.0327],[23.1769,-14.0213],[23.2141,-14.017],[23.2219,-14.0031],[23.2415,-14.0356],[23.2421,-14.0669],[23.2168,-14.1217],[23.1925,-14.1364],[23.1778,-14.185],[23.2019,-14.1857],[23.2025,-14.1678],[23.2151,-14.1633],[23.2205,-14.194],[23.2375,-14.2053],[23.2562,-14.1838],[23.2884,-14.1898],[23.2967,-14.167],[23.3765,-14.1688],[23.4192,-14.108],[23.5294,-14.0985],[23.5943,-14.036],[23.6295,-14.0381],[23.6765,-14.015],[23.7007,-14.0384],[23.7288,-14.0324],[23.7591,-13.989],[23.7963,-13.9887],[23.8088,-13.9679],[23.8276,-13.9718],[23.8436,-14.0088],[23.8787,-13.9817],[23.9305,-14.0022],[23.9448,-13.9863],[23.9658,-14.0046],[24.015,-14.0137],[24.0076,-13.996],[24.0298,-13.9974],[24.041,-13.9718],[24.0625,-13.9696],[24.0641,-13.9899],[24.0777,-13.9843],[24.0785,-13.961],[24.0916,-13.9584],[24.0941,-13.9435],[24.1065,-13.9455],[24.1034,-13.964],[24.1362,-13.9697],[24.1567,-13.9332],[24.1884,-13.9362],[24.1976,-13.917],[24.2146,-13.9214],[24.23,-13.9061],[24.2482,-13.9058],[24.2357,-13.9163],[24.2439,-13.9269],[24.2628,-13.9151],[24.2748,-13.942],[24.2991,-13.9482],[24.2978,-13.9341],[24.3096,-13.945],[24.3127,-13.9346],[24.2914,-13.9152],[24.3092,-13.9165],[24.3177,-13.8952],[24.3403,-13.9191],[24.335,-13.9442],[24.3851,-13.9617],[24.4125,-13.9454],[24.4214,-13.968],[24.4362,-13.9658],[24.4423,-13.9494],[24.4638,-13.9633],[24.4836,-13.9563],[24.472,-13.9416],[24.4955,-13.9089],[24.5394,-13.9622],[24.5638,-13.9706],[24.5627,-13.9882],[24.5773,-13.9798],[24.588,-13.9969],[24.6036,-13.9852],[24.5888,-13.9647],[24.6228,-13.9612],[24.6203,-13.9925],[24.6409,-14.023],[24.655,-14.0056],[24.6422,-14.0054],[24.6352,-13.9766],[24.6474,-13.9797],[24.6696,-13.9597],[24.6808,-13.9738],[24.6906,-13.9687],[24.7153,-14.0042],[24.7263,-14.0028],[24.7271,-14.027],[24.7458,-14.0254],[24.7494,-14.0765],[24.7362,-14.0988],[24.7521,-14.1029],[24.7482,-14.1165],[24.7675,-14.1222],[24.7647,-14.132],[24.7905,-14.1252],[24.8132,-14.156],[24.839,-14.1493],[24.9004,-14.1658],[24.9721,-14.2077],[24.9898,-14.1975],[25.0292,-14.2051],[25.034,-14.2178],[25.0769,-14.2088],[25.106,-14.2187],[25.0922,-14.2403],[25.1073,-14.2403],[25.1018,-14.258],[25.1261,-14.2696],[25.1154,-14.2848],[25.1339,-14.2897],[25.1323,-14.3086],[25.108,-14.3148],[25.1117,-14.3393],[25.0986,-14.341],[25.073,-14.3799],[25.0723,-14.4144],[25.0242,-14.4468],[25.0243,-14.4636],[24.9885,-14.4921],[24.9728,-14.5315],[24.9837,-14.5913],[25.0451,-14.6283],[25.1413,-14.6341],[25.1512,-14.6215],[25.192,-14.6243],[25.3258,-14.5811],[25.4013,-14.5883],[25.5167,-14.5371],[25.5674,-14.5371],[25.5913,-14.5246],[25.5969,-14.5365],[26.1857,-14.6129],[26.1857,-14.6574],[26.3089,-14.6977],[26.3177,-14.7276],[26.3343,-14.7332],[26.3482,-14.7142],[26.3831,-14.7017],[26.3729,-14.6607],[26.3994,-14.639],[26.4245,-14.5863],[26.4433,-14.5661],[26.5115,-14.5373],[26.5237,-14.4897],[26.5543,-14.4662],[26.582,-14.4552],[26.6184,-14.4752],[26.6322,-14.4502],[26.6594,-14.4461],[26.6988,-14.4667],[26.7186,-14.4525],[26.7454,-14.4571],[26.7618,-14.4374],[26.7973,-14.4338],[26.8125,-14.4176],[26.9684,-14.4234],[26.9681,-14.2506],[26.959,-14.2395],[26.9862,-14.2208],[26.9872,-14.1651],[26.9662,-14.1264],[26.8594,-14.0254],[26.9082,-13.9855],[26.9403,-13.8299],[26.8797,-13.8],[26.8671,-13.7528],[26.7933,-13.6967],[26.7795,-13.6706],[26.7936,-13.5862],[26.8485,-13.4984],[26.8619,-13.4426],[26.9179,-13.4269],[26.9284,-13.3736],[26.9642,-13.362],[26.977,-13.3374],[26.9788,-13.3033],[26.9487,-13.2509],[26.9608,-13.2056],[27.0283,-13.1448],[27.074,-13.1299],[27.0881,-13.0183],[27.1137,-12.9994],[27.1177,-12.9785],[27.091,-12.9803],[27.072,-13.002],[27.0358,-13.0002],[27.0417,-12.9812],[27.022,-12.9744],[27.0194,-12.9586],[26.9493,-12.943],[26.8741,-12.8883],[26.9185,-12.8227],[26.8729,-12.7864],[26.8513,-12.7447],[26.8672,-12.7207],[26.8681,-12.676],[26.8842,-12.6374],[26.9542,-12.6247],[27.0011,-12.5583],[27.0434,-12.5331],[27.0986,-12.5257],[27.0655,-12.4834],[27.0638,-12.4534],[27.0846,-12.4158],[27.0606,-12.3339],[27.2984,-12.3682],[27.3061,-12.3279],[27.3338,-12.3137],[27.3564,-12.3206],[27.3625,-12.2876],[27.3931,-12.2834],[27.4287,-12.2579],[27.4408,-12.265],[27.4498,-12.2485],[27.4621,-12.2498],[27.4604,-12.2656],[27.4765,-12.2606],[27.4642,-12.2731],[27.4474,-12.2696],[27.4728,-12.2896],[27.465,-12.3035],[27.4803,-12.2771],[27.5022,-12.2834],[27.4843,-12.3105],[27.4935,-12.316],[27.5328,-12.2823],[27.6228,-12.2642]]]}},{"type":"Feature","properties":{"name":"Luapula","code":"6923714B94361964796426","iso":"ZMB"},"geometry":{"type":"Polygon","coordinates":[[[30.4691,-11.506],[30.3672,-11.4407],[30.1104,-11.2302],[29.997,-11.2351],[29.8159,-11.4376],[29.8126,-11.4089],[29.9045,-11.0037],[29.8667,-10.8724],[29.8365,-10.8557],[29.8101,-10.8095],[29.7786,-10.7952],[29.7726,-10.7755],[29.7595,-10.7771],[29.7376,-10.75],[29.6731,-10.7161],[29.6041,-10.7141],[29.5873,-10.7772],[29.5479,-10.7758],[29.4975,-10.7947],[29.4847,-10.8124],[29.4649,-10.8125],[29.3586,-10.8811],[29.3599,-10.9178],[29.3951,-10.9579],[29.3881,-11.0017],[29.4295,-11.0377],[29.4245,-11.1014],[29.3838,-11.1108],[29.3537,-11.0773],[29.2921,-11.0682],[29.192,-10.9639],[29.1183,-10.9646],[29.08,-10.9377],[29.0954,-10.9093],[29.1395,-10.8999],[29.2017,-10.8564],[29.1915,-10.8197],[29.2013,-10.7893],[29.1879,-10.7664],[29.1995,-10.7377],[29.2939,-10.6819],[29.3215,-10.6525],[29.3392,-10.5995],[29.3969,-10.62],[29.4315,-10.5136],[29.4654,-10.5035],[29.4194,-10.4656],[29.4278,-10.4445],[29.4523,-10.4301],[29.4685,-10.3868],[29.4572,-10.3709],[29.5413,-10.305],[29.5861,-10.2837],[29.632,-10.2829],[29.6468,-10.2433],[29.784,-10.2009],[29.8373,-10.226],[29.848,-10.2019],[29.8882,-10.1758],[29.934,-10.0542],[29.9096,-9.9822],[29.9348,-9.8732],[29.9237,-9.8307],[29.868,-9.8073],[29.8578,-9.7917],[29.8706,-9.7811],[29.8213,-9.7438],[29.8027,-9.7003],[29.737,-9.7078],[29.7268,-9.6859],[29.7084,-9.6901],[29.6546,-9.6627],[29.5324,-9.6477],[29.5249,-9.6044],[29.5069,-9.6134],[29.4846,-9.5926],[29.4626,-9.5971],[29.47,-9.5529],[29.4142,-9.5345],[29.3923,-9.5507],[29.3713,-9.5263],[29.3548,-9.5311],[29.3449,-9.4676],[29.3223,-9.4391],[29.3255,-9.3871],[29.3494,-9.3872],[29.3607,-9.3541],[29.3477,-9.3374],[29.3541,-9.3187],[29.3338,-9.2972],[29.3442,-9.2468],[29.3313,-9.2054],[29.3041,-9.2191],[29.251,-9.1451],[29.1918,-9.1465],[29.171,-9.1209],[29.1505,-9.124],[29.1078,-9.0941],[29.1426,-9.0422],[29.1721,-9.0491],[29.1987,-8.9488],[29.2642,-8.9262],[29.3028,-8.8772],[29.3151,-8.7269],[29.3718,-8.7233],[29.4398,-8.6245],[29.4887,-8.5815],[29.4984,-8.5007],[29.5292,-8.4803],[29.5972,-8.3986],[29.5684,-8.3783],[28.8908,-8.4767],[28.9422,-8.5637],[28.9614,-8.6387],[28.9501,-8.6951],[28.8963,-8.791],[28.7948,-8.9246],[28.6693,-9.0589],[28.5383,-9.1586],[28.3801,-9.2467],[28.4177,-9.2892],[28.5225,-9.3576],[28.5133,-9.447],[28.5378,-9.4552],[28.5369,-9.4787],[28.5606,-9.4746],[28.5726,-9.4858],[28.575,-9.5558],[28.6189,-9.5502],[28.5809,-9.5768],[28.6117,-9.5925],[28.607,-9.6233],[28.6313,-9.6986],[28.6185,-9.7179],[28.641,-9.75],[28.6616,-9.751],[28.6646,-9.7839],[28.6892,-9.8089],[28.6767,-9.8101],[28.6596,-9.8839],[28.6241,-9.9538],[28.6311,-9.9789],[28.6217,-9.9974],[28.6447,-10.0217],[28.6443,-10.0467],[28.6289,-10.064],[28.6276,-10.1623],[28.6105,-10.1646],[28.5752,-10.2254],[28.6081,-10.2639],[28.6109,-10.285],[28.6348,-10.3014],[28.6184,-10.3654],[28.6468,-10.4478],[28.633,-10.4655],[28.6421,-10.5019],[28.6294,-10.5185],[28.6736,-10.5629],[28.6584,-10.6264],[28.6847,-10.6349],[28.6983,-10.6684],[28.6627,-10.6839],[28.6647,-10.723],[28.6232,-10.7154],[28.6082,-10.7252],[28.6034,-10.7685],[28.5475,-10.8509],[28.5403,-10.9477],[28.5103,-10.9702],[28.5126,-11.0203],[28.4768,-11.1025],[28.4997,-11.1466],[28.4987,-11.1791],[28.4811,-11.2007],[28.4895,-11.2401],[28.4713,-11.286],[28.4537,-11.2987],[28.4561,-11.3717],[28.4272,-11.3877],[28.4332,-11.4164],[28.4238,-11.4469],[28.396,-11.4755],[28.3853,-11.5452],[28.3874,-11.5918],[28.4339,-11.6514],[28.4206,-11.6795],[28.4379,-11.698],[28.4187,-11.7243],[28.4553,-11.7752],[28.4365,-11.8185],[28.4527,-11.8401],[28.4804,-11.8303],[28.4943,-11.8471],[28.4954,-11.884],[28.5136,-11.8772],[28.5774,-11.911],[28.6165,-11.9081],[28.6343,-11.9414],[28.7,-11.9844],[28.7544,-11.9792],[28.7757,-12.0454],[28.8321,-12.0926],[28.863,-12.145],[28.9224,-12.1771],[29.0071,-12.286],[29.0418,-12.384],[29.079,-12.3884],[29.1072,-12.3752],[29.1252,-12.3951],[29.1799,-12.3717],[29.2544,-12.3774],[29.2693,-12.3606],[29.3049,-12.394],[29.3001,-12.4105],[29.3343,-12.4309],[29.3748,-12.4128],[29.4795,-12.4602],[29.5207,-12.4349],[29.5312,-12.4042],[29.5258,-12.3925],[29.4888,-12.3958],[29.4614,-12.3351],[29.4825,-12.2496],[29.53,-12.2319],[29.5655,-12.1982],[29.5613,-12.182],[29.5793,-12.1826],[29.5775,-12.1986],[29.6003,-12.1963],[29.6161,-12.2209],[29.626,-12.2135],[29.6459,-12.2338],[29.6815,-12.2319],[29.72,-12.2188],[29.7277,-12.1997],[29.7372,-12.205],[29.7331,-12.19],[29.7595,-12.1571],[29.8136,-12.1496],[29.8251,-12.0901],[29.7912,-12.064],[29.793,-12.0177],[29.7821,-12.0084],[29.7977,-11.9905],[29.7803,-11.9802],[29.7808,-11.9552],[29.806,-11.9328],[29.7962,-11.9089],[30.2516,-11.8125],[30.3392,-11.7446],[30.4465,-11.6222],[30.437,-11.5987],[30.4691,-11.506]]]}},{"type":"Feature","properties":{"name":"Central","code":"6923714B60407914126357","iso":"ZMB"},"geometry":{"type":"Polygon","coordinates":[[[31.4365,-13.4282],[31.4225,-13.4011],[31.4361,-13.3308],[31.3974,-13.3031],[31.3931,-13.2775],[31.3636,-13.2559],[31.3842,-13.1997],[31.3598,-13.155],[31.3639,-13.1025],[31.3374,-13.0708],[31.3558,-12.9997],[31.3394,-12.9794],[31.3201,-12.964],[31.2969,-12.9754],[31.2695,-12.9575],[31.2589,-12.9658],[31.2469,-12.9469],[31.2134,-12.9607],[31.1741,-13.0023],[31.1708,-13.0295],[31.1016,-13.0425],[31.0762,-13.025],[31.0707,-12.9951],[31.045,-12.9696],[30.9943,-12.9613],[30.9638,-12.9387],[30.949,-12.9575],[30.9286,-12.9607],[30.8882,-12.9287],[30.8468,-12.948],[30.7999,-12.9143],[30.7536,-12.9062],[30.7439,-12.8801],[30.7713,-12.8507],[30.7596,-12.8335],[30.7609,-12.7931],[30.7331,-12.7566],[30.7391,-12.7125],[30.7767,-12.6944],[30.7774,-12.6835],[30.7049,-12.6467],[30.7003,-12.6179],[30.6774,-12.6002],[30.6623,-12.5987],[30.6373,-12.6374],[30.6017,-12.6414],[30.5549,-12.5856],[30.57,-12.5384],[30.5044,-12.5174],[30.4791,-12.4883],[30.4429,-12.4794],[30.4657,-12.4284],[30.5067,-12.3939],[30.5095,-12.3496],[30.4939,-12.3116],[30.4491,-12.2755],[30.3862,-12.2693],[30.3512,-12.283],[30.3113,-12.2453],[30.3031,-12.2572],[30.2668,-12.2536],[30.2073,-12.222],[30.221,-12.2159],[30.1328,-12.1962],[30.1357,-12.1777],[30.1054,-12.1747],[30.083,-12.1331],[30.0515,-12.1162],[30.0528,-12.0653],[30.0207,-12.0507],[30.0008,-12.0029],[29.9215,-12.0174],[29.8546,-12.057],[29.8416,-12.132],[29.8147,-12.1497],[29.8147,-13.4445],[29.7761,-13.4333],[29.7265,-13.459],[29.672,-13.4236],[29.6556,-13.438],[29.6357,-13.4317],[29.6113,-13.4074],[29.6156,-13.3841],[29.6037,-13.3611],[29.646,-13.3523],[29.6554,-13.3198],[29.6463,-13.2944],[29.6762,-13.2512],[29.6701,-13.2326],[29.6289,-13.244],[29.5745,-13.2125],[29.5063,-13.2488],[29.4413,-13.3133],[29.3657,-13.3283],[29.3523,-13.3531],[29.313,-13.3445],[29.2976,-13.3748],[29.2653,-13.3848],[29.1785,-13.4489],[29.1664,-13.4042],[29.1195,-13.3676],[29.0417,-13.405],[29.0726,-13.4038],[28.8331,-13.5949],[28.701,-13.6335],[28.7121,-13.6562],[28.6442,-13.7335],[28.651,-13.86],[28.5536,-13.8596],[28.4848,-13.8859],[28.4066,-13.8901],[28.329,-13.8707],[28.2849,-13.8871],[28.2204,-13.8698],[28.1747,-13.8778],[28.1459,-13.9039],[28.1132,-13.8993],[28.0274,-13.9173],[27.9788,-13.9108],[27.908,-13.9359],[27.9033,-13.8944],[27.8794,-13.8471],[27.9038,-13.8402],[27.9351,-13.7835],[27.8342,-13.6492],[27.8052,-13.6845],[27.7735,-13.6948],[27.7188,-13.6881],[27.6656,-13.6514],[27.6434,-13.6496],[27.6179,-13.6755],[27.6247,-13.7096],[27.5967,-13.704],[27.5958,-13.7434],[27.5675,-13.7693],[27.5517,-13.8272],[27.5108,-13.7939],[27.4863,-13.797],[27.4749,-13.8162],[27.4889,-13.8749],[27.4608,-13.8825],[27.4634,-13.8977],[27.4248,-13.8981],[27.4246,-13.9175],[27.4074,-13.9265],[27.3762,-13.8858],[27.3884,-13.8771],[27.3799,-13.8524],[27.3887,-13.8385],[27.3825,-13.815],[27.3548,-13.8083],[27.3568,-13.7833],[27.3429,-13.7672],[27.3558,-13.7485],[27.3429,-13.7233],[26.8381,-13.7211],[26.8671,-13.7528],[26.8797,-13.8],[26.9403,-13.8299],[26.9082,-13.9855],[26.8594,-14.0254],[26.9662,-14.1264],[26.9872,-14.1651],[26.9862,-14.2208],[26.959,-14.2395],[26.9681,-14.2506],[26.9684,-14.4234],[26.8125,-14.4176],[26.7973,-14.4338],[26.7618,-14.4374],[26.7454,-14.4571],[26.7186,-14.4525],[26.6988,-14.4667],[26.6594,-14.4461],[26.6322,-14.4502],[26.6184,-14.4752],[26.582,-14.4552],[26.5543,-14.4662],[26.5237,-14.4897],[26.5115,-14.5373],[26.4433,-14.5661],[26.4245,-14.5863],[26.3994,-14.639],[26.3729,-14.6607],[26.3831,-14.7017],[26.3482,-14.7142],[26.3343,-14.7332],[26.3177,-14.7276],[26.3089,-14.6977],[26.1857,-14.6574],[26.1857,-14.6129],[25.5969,-14.5365],[25.5625,-14.583],[25.5429,-14.5801],[25.5372,-14.6109],[25.4776,-14.6943],[25.4972,-14.7274],[25.4895,-14.7912],[25.4504,-14.8185],[25.4472,-14.8555],[25.4316,-14.8729],[25.4309,-14.8946],[25.4648,-14.954],[25.4653,-15.0373],[25.4211,-15.0811],[25.4208,-15.1398],[25.3843,-15.1391],[25.3192,-15.1857],[25.3362,-15.2415],[25.3173,-15.2931],[25.3416,-15.3442],[25.3041,-15.3893],[25.3168,-15.4127],[25.306,-15.4504],[25.2891,-15.4694],[25.2585,-15.4626],[25.2398,-15.4793],[25.2841,-15.5218],[25.2181,-15.5904],[25.2284,-15.609],[25.2763,-15.6367],[25.2779,-15.6755],[25.2452,-15.6968],[25.2924,-15.7581],[25.3194,-15.7548],[25.363,-15.7109],[25.399,-15.7389],[25.4016,-15.7689],[25.3833,-15.8187],[25.3896,-15.8461],[25.3487,-15.9248],[25.352,-15.9566],[25.3147,-16.0153],[25.3235,-16.0504],[25.3615,-16.0866],[25.3922,-16.0817],[25.4332,-16.1001],[25.4896,-16.1936],[25.5283,-16.1829],[25.5618,-16.1964],[25.6094,-16.1807],[25.6788,-16.1881],[25.6849,-16.2042],[25.6733,-16.2209],[25.6871,-16.2362],[25.6856,-16.2576],[25.6622,-16.2961],[25.6762,-16.3116],[25.6686,-16.3383],[25.6952,-16.3618],[25.673,-16.3713],[25.6587,-16.4049],[25.6737,-16.4298],[25.6588,-16.4775],[25.6631,-16.4971],[25.6882,-16.5134],[25.6762,-16.5379],[25.6841,-16.5645],[26.1484,-16.359],[26.4234,-16.2995],[26.2961,-16.104],[26.3942,-15.99],[26.4029,-15.9653],[26.3883,-15.8546],[26.3238,-15.7395],[26.3356,-15.7253],[26.3932,-15.7278],[26.3901,-15.7187],[26.405,-15.7177],[26.4178,-15.6926],[26.4466,-15.6742],[26.4889,-15.6724],[26.5665,-15.6417],[26.5766,-15.7045],[26.6275,-15.6739],[26.6573,-15.7092],[26.6761,-15.6904],[26.6735,-15.6699],[26.696,-15.6896],[26.6993,-15.6594],[26.7207,-15.6813],[26.749,-15.6658],[26.8225,-15.664],[26.8319,-15.6519],[26.8125,-15.6119],[26.8429,-15.6171],[26.8451,-15.5923],[26.8873,-15.572],[26.9229,-15.5679],[26.9385,-15.5787],[26.9403,-15.565],[26.9508,-15.5748],[26.9648,-15.5664],[26.9732,-15.6135],[26.987,-15.6219],[27.0034,-15.5988],[27.0434,-15.6023],[27.0583,-15.5879],[27.1169,-15.6321],[27.1419,-15.6124],[27.1683,-15.6478],[27.1604,-15.6736],[27.1773,-15.677],[27.2017,-15.7088],[27.2019,-15.7351],[27.2411,-15.7209],[27.264,-15.7316],[27.269,-15.7192],[27.3033,-15.7536],[27.3032,-15.6551],[27.3163,-15.6392],[27.3324,-15.6478],[27.3539,-15.6115],[27.3732,-15.6208],[27.4011,-15.556],[27.4118,-15.5785],[27.436,-15.572],[27.4493,-15.587],[27.463,-15.5695],[27.4548,-15.5563],[27.4896,-15.5582],[27.4847,-15.544],[27.5172,-15.5324],[27.5069,-15.5058],[27.52,-15.5051],[27.5358,-15.4758],[27.5603,-15.4698],[27.5685,-15.507],[27.6131,-15.5203],[27.6237,-15.5133],[27.6272,-15.5421],[27.6555,-15.5619],[27.652,-15.5913],[27.6637,-15.5995],[27.6405,-15.6263],[27.6729,-15.6516],[27.6719,-15.6762],[27.7059,-15.657],[27.7211,-15.6739],[27.7549,-15.6417],[27.7691,-15.6572],[27.7924,-15.6562],[27.7691,-15.6262],[27.7898,-15.5789],[27.9605,-15.5838],[27.9593,-15.4548],[27.933,-15.3847],[27.9115,-15.4061],[27.9023,-15.3729],[27.8085,-15.3913],[27.7843,-15.358],[27.7776,-15.3058],[27.8169,-15.2858],[27.8543,-15.2362],[27.9754,-15.2954],[28.0027,-15.2625],[28.1229,-15.288],[28.249,-15.3439],[28.2764,-15.3388],[28.2751,-15.3191],[28.3092,-15.304],[28.2832,-15.3073],[28.2948,-15.2597],[28.3319,-15.2483],[28.335,-15.2338],[28.3128,-15.2288],[28.3161,-15.2155],[28.3374,-15.2195],[28.3402,-15.205],[28.3252,-15.2017],[28.3461,-15.1768],[28.3307,-15.1731],[28.3333,-15.1614],[28.3631,-15.1597],[28.3416,-15.1506],[28.3449,-15.1361],[28.3671,-15.1408],[28.3703,-15.1274],[28.4128,-15.1218],[28.4701,-15.1266],[28.5115,-15.1374],[28.5504,-15.1807],[28.8723,-15.1665],[28.9667,-14.99],[29.126,-14.9732],[29.2462,-14.868],[29.3671,-14.9824],[29.5029,-14.9819],[29.5028,-14.8196],[29.5263,-14.8077],[29.5358,-14.8213],[29.5702,-14.8109],[29.583,-14.8214],[29.5822,-14.804],[29.6086,-14.7795],[29.6277,-14.7862],[29.6286,-14.7725],[29.6615,-14.7576],[29.6544,-14.7457],[29.7026,-14.7458],[29.7513,-14.7076],[29.7698,-14.72],[29.8121,-14.6943],[29.8637,-14.6925],[29.8919,-14.6759],[29.8992,-14.6464],[29.9221,-14.6742],[29.958,-14.6596],[29.9586,-14.6442],[30.007,-14.6478],[30.0131,-14.6227],[29.9913,-14.6141],[29.9783,-14.578],[30.006,-14.5282],[29.9955,-14.5191],[30.0217,-14.4935],[30.0147,-14.4803],[30.0307,-14.437],[30.0633,-14.4221],[30.0614,-14.3911],[30.0759,-14.3683],[30.1015,-14.357],[30.1291,-14.3714],[30.1538,-14.3396],[30.1455,-14.3296],[30.2013,-14.2753],[30.2303,-14.2281],[30.2675,-14.2082],[30.2836,-14.1843],[30.3168,-14.1833],[30.3012,-14.1623],[30.3123,-14.1516],[30.2877,-14.0958],[30.2702,-14.0958],[30.2579,-14.0777],[30.1833,-14.0637],[30.1626,-14.0393],[30.1538,-13.9724],[30.1159,-13.9581],[30.0949,-13.9313],[30.8927,-13.9276],[30.9217,-13.8864],[30.9475,-13.8953],[30.9444,-13.8581],[30.9809,-13.8541],[30.981,-13.803],[31.014,-13.7995],[31.0457,-13.7678],[31.0776,-13.7751],[31.0727,-13.7499],[31.1208,-13.7289],[31.1444,-13.6988],[31.1246,-13.6471],[31.145,-13.618],[31.1964,-13.5885],[31.2169,-13.6022],[31.2668,-13.5342],[31.306,-13.5245],[31.3262,-13.4798],[31.3625,-13.474],[31.3856,-13.454],[31.4206,-13.4638],[31.4365,-13.4282]]]}},{"type":"Feature","properties":{"name":"Southern","code":"6923714B34072001548912","iso":"ZMB"},"geometry":{"type":"Polygon","coordinates":[[[25.4332,-16.1001],[25.3279,-16.1753],[25.2977,-16.2272],[25.3019,-16.2671],[25.2905,-16.2816],[25.2506,-16.2914],[25.2304,-16.321],[25.1041,-16.3984],[25.0754,-16.4464],[25.0426,-16.4713],[25.0091,-16.5421],[25.0065,-16.5565],[25.1012,-16.6231],[25.0843,-16.6681],[25.2158,-16.687],[25.2405,-16.7072],[25.2278,-16.7819],[25.2654,-16.9166],[25.252,-16.9586],[25.1945,-16.9941],[25.1646,-16.9636],[25.1714,-16.98],[25.1564,-17.0223],[25.178,-17.0413],[25.1751,-17.0723],[25.165,-17.0923],[25.1164,-17.1107],[25.1126,-17.1401],[25.0877,-17.1644],[25.1147,-17.1933],[25.1196,-17.2225],[25.1039,-17.2451],[25.0756,-17.2542],[25.0669,-17.2868],[25.0433,-17.2869],[25.038,-17.3123],[25.0143,-17.3283],[25.0098,-17.3476],[25.0251,-17.3658],[25.0185,-17.44],[24.9719,-17.5062],[24.9752,-17.5534],[24.9954,-17.5882],[25.0108,-17.5977],[25.0268,-17.5844],[25.0484,-17.5913],[25.0443,-17.629],[25.0654,-17.6154],[25.0876,-17.6614],[25.1018,-17.6636],[25.0946,-17.7086],[25.1325,-17.6937],[25.1348,-17.7116],[25.1491,-17.7046],[25.1592,-17.7177],[25.1563,-17.7418],[25.1875,-17.7663],[25.2274,-17.7694],[25.3483,-17.8404],[25.3682,-17.8334],[25.3986,-17.8518],[25.433,-17.8536],[25.4547,-17.8428],[25.5131,-17.865],[25.5505,-17.8385],[25.5906,-17.8471],[25.6914,-17.8089],[25.709,-17.8425],[25.766,-17.848],[25.8184,-17.8964],[25.8442,-17.8957],[25.8585,-17.9277],[25.8476,-17.9307],[25.8595,-17.9318],[25.8457,-17.9436],[25.8615,-17.9511],[25.8577,-17.9744],[25.9709,-18.0021],[26.001,-17.9773],[26.0916,-17.9818],[26.1062,-17.9478],[26.0876,-17.9345],[26.1505,-17.9201],[26.2194,-17.8841],[26.2451,-17.9174],[26.2867,-17.9189],[26.3097,-17.9368],[26.4041,-17.9369],[26.5076,-17.9899],[26.5619,-17.9874],[26.5747,-18.0174],[26.6022,-18.0357],[26.5986,-18.0508],[26.6484,-18.0553],[26.693,-18.0774],[26.7441,-18.024],[26.7995,-18.0258],[26.8061,-18.0132],[26.829,-18.0115],[26.8313,-17.9919],[26.8962,-17.9894],[27.0183,-17.9545],[27.0415,-17.9625],[27.0829,-17.9018],[27.1522,-17.8379],[27.144,-17.8071],[27.3315,-17.5879],[27.5523,-17.4107],[27.6217,-17.3316],[27.6303,-17.2454],[27.8302,-16.9622],[28.1366,-16.8237],[28.2535,-16.7247],[28.6308,-16.5691],[28.747,-16.5448],[28.8168,-16.4861],[28.8203,-16.4346],[28.8518,-16.3758],[28.8417,-16.3312],[28.8199,-16.311],[28.8569,-16.2422],[28.8273,-16.2364],[28.7872,-16.2536],[28.7238,-16.2332],[28.6959,-16.2375],[28.5911,-16.3106],[28.4815,-16.1658],[28.4142,-16.1199],[28.4385,-16.0753],[28.4515,-16.0814],[28.4632,-16.0611],[28.478,-16.0672],[28.5214,-16.0444],[28.5318,-16.027],[28.5255,-15.984],[28.554,-15.9577],[28.5605,-15.9275],[28.59,-15.9069],[28.5367,-15.8722],[28.514,-15.8712],[28.4967,-15.8503],[28.4584,-15.835],[28.4445,-15.8476],[28.4282,-15.8132],[28.3786,-15.7867],[28.3408,-15.7811],[28.3008,-15.8051],[28.2756,-15.7934],[28.2332,-15.8393],[28.1909,-15.8182],[28.1754,-15.7871],[28.0411,-15.742],[28.0141,-15.7162],[27.9832,-15.7117],[27.9485,-15.7558],[27.9226,-15.7616],[27.8887,-15.7128],[27.8317,-15.7481],[27.8032,-15.7437],[27.8049,-15.7176],[27.8356,-15.7012],[27.8381,-15.684],[27.8245,-15.6868],[27.8299,-15.6622],[27.7691,-15.6572],[27.7549,-15.6417],[27.7211,-15.6739],[27.7059,-15.657],[27.6719,-15.6762],[27.6729,-15.6516],[27.6405,-15.6263],[27.6637,-15.5995],[27.652,-15.5913],[27.6555,-15.5619],[27.6272,-15.5421],[27.6237,-15.5133],[27.6131,-15.5203],[27.5685,-15.507],[27.5603,-15.4698],[27.5358,-15.4758],[27.52,-15.5051],[27.5069,-15.5058],[27.5172,-15.5324],[27.4847,-15.544],[27.4896,-15.5582],[27.4548,-15.5563],[27.463,-15.5695],[27.4493,-15.587],[27.436,-15.572],[27.4118,-15.5785],[27.4011,-15.556],[27.3732,-15.6208],[27.3539,-15.6115],[27.3324,-15.6478],[27.3163,-15.6392],[27.3032,-15.6551],[27.3033,-15.7536],[27.269,-15.7192],[27.264,-15.7316],[27.2411,-15.7209],[27.2019,-15.7351],[27.2017,-15.7088],[27.1773,-15.677],[27.1604,-15.6736],[27.1683,-15.6478],[27.1419,-15.6124],[27.1169,-15.6321],[27.0583,-15.5879],[27.0434,-15.6023],[27.0034,-15.5988],[26.987,-15.6219],[26.9732,-15.6135],[26.9648,-15.5664],[26.9508,-15.5748],[26.9403,-15.565],[26.9385,-15.5787],[26.9229,-15.5679],[26.8541,-15.5868],[26.8399,-15.5995],[26.8499,-15.6103],[26.8429,-15.6171],[26.8125,-15.6119],[26.8319,-15.6519],[26.8225,-15.664],[26.749,-15.6658],[26.7207,-15.6813],[26.6993,-15.6594],[26.6986,-15.6893],[26.6735,-15.6699],[26.6761,-15.6904],[26.6573,-15.7092],[26.6275,-15.6739],[26.5766,-15.7045],[26.5665,-15.6417],[26.4889,-15.6724],[26.4466,-15.6742],[26.4178,-15.6926],[26.405,-15.7177],[26.3901,-15.7187],[26.3932,-15.7278],[26.3325,-15.727],[26.3238,-15.7395],[26.3883,-15.8546],[26.4029,-15.9653],[26.3942,-15.99],[26.2961,-16.104],[26.4234,-16.2995],[26.1484,-16.359],[25.6841,-16.5645],[25.6762,-16.5379],[25.6882,-16.5134],[25.6631,-16.4971],[25.6588,-16.4775],[25.6737,-16.4298],[25.6587,-16.4049],[25.673,-16.3713],[25.6952,-16.3618],[25.6686,-16.3383],[25.6762,-16.3116],[25.6622,-16.2961],[25.6856,-16.2576],[25.6871,-16.2362],[25.6733,-16.2209],[25.6849,-16.2042],[25.6788,-16.1881],[25.6094,-16.1807],[25.5618,-16.1964],[25.5283,-16.1829],[25.4896,-16.1936],[25.4332,-16.1001]]]}},{"type":"Feature","properties":{"name":"Lusaka","code":"6923714B17126467226495","iso":"ZMB"},"geometry":{"type":"Polygon","coordinates":[[[30.007,-14.6478],[29.9586,-14.6442],[29.958,-14.6596],[29.9221,-14.6742],[29.8992,-14.6464],[29.8919,-14.6759],[29.8637,-14.6925],[29.8121,-14.6943],[29.7698,-14.72],[29.7513,-14.7076],[29.7026,-14.7458],[29.6544,-14.7457],[29.6615,-14.7576],[29.6286,-14.7725],[29.6277,-14.7862],[29.6086,-14.7795],[29.5822,-14.804],[29.583,-14.8214],[29.5702,-14.8109],[29.5358,-14.8213],[29.5263,-14.8077],[29.5028,-14.8196],[29.5029,-14.9819],[29.3671,-14.9824],[29.2462,-14.868],[29.126,-14.9732],[28.9667,-14.99],[28.8723,-15.1665],[28.5504,-15.1807],[28.5115,-15.1374],[28.4701,-15.1266],[28.4128,-15.1218],[28.3703,-15.1274],[28.3671,-15.1408],[28.3449,-15.1361],[28.3416,-15.1506],[28.3631,-15.1597],[28.3333,-15.1614],[28.3307,-15.1731],[28.3461,-15.1768],[28.3252,-15.2017],[28.3402,-15.205],[28.3374,-15.2195],[28.3161,-15.2155],[28.3128,-15.2288],[28.335,-15.2338],[28.3319,-15.2483],[28.2948,-15.2597],[28.2832,-15.3073],[28.3092,-15.304],[28.2751,-15.3191],[28.2764,-15.3388],[28.249,-15.3439],[28.1229,-15.288],[28.0027,-15.2625],[27.9754,-15.2954],[27.8543,-15.2362],[27.8169,-15.2858],[27.7776,-15.3058],[27.7843,-15.358],[27.8085,-15.3913],[27.9023,-15.3729],[27.9115,-15.4061],[27.933,-15.3847],[27.9593,-15.4548],[27.9605,-15.5838],[27.7898,-15.5789],[27.771,-15.6319],[27.7924,-15.6562],[27.8299,-15.6622],[27.8245,-15.6868],[27.8381,-15.684],[27.8312,-15.7081],[27.8049,-15.7176],[27.8032,-15.7437],[27.8317,-15.7481],[27.8887,-15.7128],[27.9226,-15.7616],[27.9485,-15.7558],[27.9832,-15.7117],[28.0141,-15.7162],[28.0411,-15.742],[28.1754,-15.7871],[28.1909,-15.8182],[28.2332,-15.8393],[28.2756,-15.7934],[28.3008,-15.8051],[28.3408,-15.7811],[28.3786,-15.7867],[28.4282,-15.8132],[28.4445,-15.8476],[28.4584,-15.835],[28.4967,-15.8503],[28.514,-15.8712],[28.5367,-15.8722],[28.59,-15.9069],[28.5605,-15.9275],[28.554,-15.9577],[28.5255,-15.984],[28.5318,-16.027],[28.5214,-16.0444],[28.478,-16.0672],[28.4632,-16.0611],[28.4515,-16.0814],[28.4385,-16.0753],[28.4142,-16.1199],[28.4815,-16.1658],[28.5911,-16.3106],[28.6959,-16.2375],[28.7238,-16.2332],[28.7872,-16.2536],[28.841,-16.2378],[28.8381,-16.1641],[28.8616,-16.1171],[28.8483,-16.0434],[28.8773,-16.0205],[28.883,-15.9775],[28.9341,-15.9418],[29.0207,-15.9396],[29.0448,-15.8991],[29.098,-15.8631],[29.0994,-15.848],[29.214,-15.7681],[29.2503,-15.7646],[29.3405,-15.7196],[29.384,-15.7128],[29.4394,-15.6831],[29.5154,-15.6789],[29.5534,-15.6481],[29.634,-15.6642],[29.6816,-15.6416],[29.8301,-15.6087],[29.9697,-15.6437],[30.1638,-15.6178],[30.214,-15.6673],[30.2574,-15.6275],[30.2748,-15.6447],[30.3544,-15.6551],[30.3938,-15.6394],[30.4224,-15.6191],[30.3636,-15.5533],[30.4004,-15.481],[30.3832,-15.4537],[30.3772,-15.3563],[30.2785,-15.2553],[30.2571,-15.1789],[30.2341,-15.1489],[30.2362,-15.1215],[30.2158,-15.0681],[30.2327,-15.0363],[30.1974,-14.9152],[30.2105,-14.8697],[30.201,-14.8163],[30.0913,-14.7055],[30.0567,-14.6968],[30.0505,-14.667],[30.007,-14.6478]]]}},{"type":"Feature","properties":{"name":"Copperbelt","code":"6923714B61812757118010","iso":"ZMB"},"geometry":{"type":"Polygon","coordinates":[[[26.8381,-13.7211],[27.3429,-13.7233],[27.3558,-13.7485],[27.3429,-13.7672],[27.3568,-13.7833],[27.3548,-13.8083],[27.3825,-13.815],[27.3887,-13.8385],[27.3799,-13.8524],[27.3884,-13.8771],[27.3762,-13.8858],[27.4074,-13.9265],[27.4246,-13.9175],[27.4248,-13.8981],[27.4634,-13.8977],[27.4608,-13.8825],[27.4889,-13.8749],[27.4749,-13.8162],[27.4863,-13.797],[27.5108,-13.7939],[27.5517,-13.8272],[27.5675,-13.7693],[27.5958,-13.7434],[27.5967,-13.704],[27.6247,-13.7096],[27.6179,-13.6755],[27.6434,-13.6496],[27.6656,-13.6514],[27.7188,-13.6881],[27.7735,-13.6948],[27.8052,-13.6845],[27.8342,-13.6492],[27.9351,-13.7835],[27.9038,-13.8402],[27.8794,-13.8471],[27.9033,-13.8944],[27.908,-13.9359],[27.9788,-13.9108],[28.0274,-13.9173],[28.1132,-13.8993],[28.1459,-13.9039],[28.1747,-13.8778],[28.2204,-13.8698],[28.2849,-13.8871],[28.329,-13.8707],[28.4066,-13.8901],[28.4848,-13.8859],[28.5536,-13.8596],[28.651,-13.86],[28.6442,-13.7335],[28.7121,-13.6562],[28.701,-13.6335],[28.8331,-13.5949],[29.0726,-13.4038],[29.0056,-13.4233],[28.9831,-13.3893],[28.9972,-13.3686],[28.9624,-13.3766],[28.9606,-13.339],[28.9171,-13.226],[28.9165,-13.1857],[28.8955,-13.1552],[28.8733,-13.1633],[28.8669,-13.1501],[28.8475,-13.1556],[28.8384,-13.1456],[28.8476,-13.1106],[28.8245,-13.0877],[28.8415,-13.0712],[28.8281,-13.0622],[28.8257,-13.005],[28.8172,-12.9865],[28.8009,-12.9834],[28.7828,-12.9387],[28.7539,-12.9417],[28.729,-12.8813],[28.6755,-12.8466],[28.6536,-12.8147],[28.6093,-12.8335],[28.5826,-12.897],[28.5633,-12.8962],[28.5364,-12.8528],[28.543,-12.8235],[28.451,-12.7202],[28.4671,-12.6901],[28.5135,-12.686],[28.5346,-12.6373],[28.5238,-12.6135],[28.4473,-12.5644],[28.4366,-12.5496],[28.4466,-12.5152],[28.3994,-12.5006],[28.3747,-12.4604],[28.3488,-12.4535],[28.3229,-12.4196],[28.2802,-12.4269],[28.2577,-12.408],[28.2304,-12.4225],[28.2203,-12.4042],[28.1893,-12.4013],[28.1917,-12.38],[28.1708,-12.3777],[28.1454,-12.3989],[28.15,-12.4282],[28.1224,-12.439],[28.079,-12.3487],[28.0429,-12.3553],[27.9909,-12.3385],[27.9658,-12.3613],[27.9486,-12.3535],[27.961,-12.3145],[27.9297,-12.2715],[27.932,-12.2412],[27.8416,-12.2361],[27.8123,-12.2217],[27.8151,-12.2512],[27.7709,-12.2721],[27.7627,-12.2932],[27.729,-12.2797],[27.6509,-12.2848],[27.6228,-12.2642],[27.5729,-12.2668],[27.4935,-12.316],[27.4843,-12.3105],[27.5036,-12.2857],[27.4803,-12.2771],[27.465,-12.3035],[27.4728,-12.2896],[27.4474,-12.2696],[27.4779,-12.2679],[27.4744,-12.2559],[27.4604,-12.2656],[27.4586,-12.2468],[27.4408,-12.265],[27.4287,-12.2579],[27.3931,-12.2834],[27.3625,-12.2876],[27.3564,-12.3206],[27.3338,-12.3137],[27.3061,-12.3279],[27.2984,-12.3682],[27.0606,-12.3339],[27.0846,-12.4158],[27.0638,-12.4534],[27.0655,-12.4834],[27.0986,-12.5257],[27.0434,-12.5331],[27.0011,-12.5583],[26.9542,-12.6247],[26.8842,-12.6374],[26.8681,-12.676],[26.8672,-12.7207],[26.8513,-12.7447],[26.8729,-12.7864],[26.9185,-12.8227],[26.8741,-12.8883],[26.9493,-12.943],[27.0194,-12.9586],[27.022,-12.9744],[27.0417,-12.9812],[27.0358,-13.0002],[27.072,-13.002],[27.091,-12.9803],[27.1177,-12.9785],[27.1137,-12.9994],[27.0881,-13.0183],[27.074,-13.1299],[27.0283,-13.1448],[26.9527,-13.2224],[26.9487,-13.2509],[26.9788,-13.3033],[26.97,-13.3553],[26.9284,-13.3736],[26.9179,-13.4269],[26.8619,-13.4426],[26.8485,-13.4984],[26.7936,-13.5862],[26.7795,-13.6706],[26.7933,-13.6967],[26.8381,-13.7211]]]}},{"type":"Feature","properties":{"name":"Northern","code":"6923714B80596734375081","iso":"ZMB"},"geometry":{"type":"Polygon","coordinates":[[[32.1552,-9.059],[32.0694,-9.0481],[31.9881,-9.0753],[31.9369,-9.0191],[31.9295,-8.9822],[31.9505,-8.9359],[31.9415,-8.9171],[31.9252,-8.9245],[31.8015,-8.8851],[31.7651,-8.8948],[31.7358,-8.9233],[31.6789,-8.9165],[31.6537,-8.8817],[31.5793,-8.8369],[31.5676,-8.813],[31.5682,-8.7649],[31.5815,-8.7373],[31.5698,-8.7039],[31.5375,-8.6789],[31.486,-8.6818],[31.459,-8.6391],[31.4073,-8.6376],[31.3746,-8.5875],[31.348,-8.6169],[31.3124,-8.6067],[31.2788,-8.6323],[31.2444,-8.5915],[31.2357,-8.5981],[31.2117,-8.5835],[31.1365,-8.622],[31.0505,-8.6029],[31.0169,-8.5767],[30.8421,-8.3572],[30.796,-8.2767],[30.564,-8.2972],[30.537,-8.279],[30.5019,-8.2936],[30.4694,-8.273],[30.4401,-8.2815],[30.4295,-8.2733],[29.6979,-8.3696],[29.6705,-8.3999],[29.6192,-8.419],[29.5963,-8.3996],[29.4984,-8.5007],[29.4887,-8.5815],[29.4398,-8.6245],[29.3718,-8.7233],[29.3151,-8.7269],[29.3028,-8.8772],[29.2642,-8.9262],[29.1987,-8.9488],[29.1721,-9.0491],[29.1426,-9.0422],[29.1078,-9.0941],[29.1505,-9.124],[29.171,-9.1209],[29.1918,-9.1465],[29.251,-9.1451],[29.3041,-9.2191],[29.3313,-9.2054],[29.3442,-9.2468],[29.3338,-9.2972],[29.3541,-9.3187],[29.3477,-9.3374],[29.3607,-9.3541],[29.3494,-9.3872],[29.3255,-9.3871],[29.3223,-9.4391],[29.3449,-9.4676],[29.3548,-9.5311],[29.3713,-9.5263],[29.3923,-9.5507],[29.4142,-9.5345],[29.47,-9.5529],[29.4626,-9.5971],[29.4846,-9.5926],[29.5069,-9.6134],[29.5249,-9.6044],[29.5324,-9.6477],[29.6546,-9.6627],[29.7084,-9.6901],[29.7268,-9.6859],[29.737,-9.7078],[29.8027,-9.7003],[29.8213,-9.7438],[29.8706,-9.7811],[29.8578,-9.7917],[29.868,-9.8073],[29.9237,-9.8307],[29.9345,-9.8837],[29.9096,-9.9822],[29.934,-10.0542],[29.8962,-10.1629],[29.848,-10.2019],[29.8373,-10.226],[29.784,-10.2009],[29.6468,-10.2433],[29.632,-10.2829],[29.5861,-10.2837],[29.5413,-10.305],[29.4572,-10.3709],[29.4685,-10.3868],[29.4523,-10.4301],[29.4278,-10.4445],[29.4194,-10.4656],[29.4654,-10.5035],[29.4315,-10.5136],[29.3969,-10.62],[29.3392,-10.5995],[29.3215,-10.6525],[29.2939,-10.6819],[29.1995,-10.7377],[29.1879,-10.7664],[29.2013,-10.7893],[29.1915,-10.8197],[29.2017,-10.8564],[29.1395,-10.8999],[29.0954,-10.9093],[29.08,-10.9377],[29.1183,-10.9646],[29.192,-10.9639],[29.2921,-11.0682],[29.3537,-11.0773],[29.3838,-11.1108],[29.4245,-11.1014],[29.4295,-11.0377],[29.3881,-11.0017],[29.3951,-10.9579],[29.3599,-10.9178],[29.3586,-10.8811],[29.4649,-10.8125],[29.4847,-10.8124],[29.4975,-10.7947],[29.5479,-10.7758],[29.5873,-10.7772],[29.6041,-10.7141],[29.6731,-10.7161],[29.7376,-10.75],[29.7595,-10.7771],[29.7726,-10.7755],[29.7786,-10.7952],[29.8101,-10.8095],[29.8365,-10.8557],[29.8667,-10.8724],[29.9045,-11.0037],[29.8126,-11.4089],[29.8159,-11.4376],[29.997,-11.2351],[30.1104,-11.2302],[30.3672,-11.4407],[30.4635,-11.5048],[30.4981,-11.4915],[30.5399,-11.4474],[30.5492,-11.4055],[30.5944,-11.3915],[30.6074,-11.3644],[30.5961,-11.35],[30.6119,-11.329],[30.6856,-11.3312],[30.7203,-11.2813],[30.7385,-11.2048],[30.8206,-11.131],[30.8581,-11.0528],[30.8991,-11.0756],[30.8851,-11.0366],[30.9822,-11.0033],[30.9958,-10.9327],[31.0255,-10.919],[31.0098,-10.9434],[31.0469,-10.9568],[31.0634,-10.9439],[31.067,-10.918],[31.0828,-10.9332],[31.0734,-10.9604],[31.1042,-10.9673],[31.1533,-10.923],[31.1866,-10.8723],[31.1496,-10.8267],[31.1776,-10.8166],[31.1948,-10.8292],[31.2132,-10.8131],[31.1872,-10.7851],[31.1561,-10.7971],[31.1578,-10.7779],[31.1366,-10.7674],[31.1444,-10.7522],[31.2073,-10.7215],[31.2368,-10.7301],[31.2538,-10.7212],[31.2749,-10.7421],[31.3196,-10.7115],[31.3055,-10.6693],[31.3221,-10.6547],[31.343,-10.659],[31.3293,-10.6295],[31.4278,-10.6002],[31.4614,-10.5631],[31.4819,-10.5671],[31.4973,-10.5883],[31.5271,-10.5641],[31.563,-10.5738],[31.6345,-10.5247],[31.6809,-10.5334],[31.7438,-10.4716],[31.7811,-10.474],[31.8279,-10.453],[31.846,-10.4208],[31.8374,-10.3931],[31.8613,-10.3375],[31.9239,-10.3037],[31.9605,-10.3039],[31.973,-10.2694],[31.9844,-10.2685],[31.9783,-10.2534],[32.0049,-10.2392],[32.0101,-10.1884],[32.0004,-10.1771],[32.0119,-10.1363],[31.9896,-10.1167],[32.0067,-10.1122],[31.9997,-10.0951],[32.0132,-10.0876],[32.0106,-10.0753],[32.0327,-10.0765],[32.0369,-10.0435],[32.0863,-10.0446],[32.1016,-10.019],[32.1232,-10.0171],[32.1203,-9.9853],[32.1438,-9.9703],[32.1289,-9.9434],[32.1767,-9.8945],[32.1691,-9.8771],[32.1819,-9.8373],[32.2943,-9.7785],[32.2976,-9.7551],[32.3481,-9.746],[32.3525,-9.6468],[32.3306,-9.639],[32.3172,-9.6095],[32.2928,-9.5961],[32.2547,-9.4784],[32.266,-9.4627],[32.2533,-9.4256],[32.2603,-9.379],[32.2449,-9.3737],[32.2316,-9.3239],[32.1636,-9.2603],[32.151,-9.2245],[32.1849,-9.0929],[32.1552,-9.059]]]}},{"type":"Feature","properties":{"name":"Western","code":"6923714B71523451831393","iso":"ZMB"},"geometry":{"type":"Polygon","coordinates":[[[21.9978,-13.726],[21.9993,-16.194],[22.0013,-16.2081],[22.0284,-16.2177],[22.0307,-16.2343],[22.0448,-16.2349],[22.0605,-16.2608],[22.0808,-16.26],[22.071,-16.2901],[22.1003,-16.3097],[22.0909,-16.3208],[22.1223,-16.3532],[22.1185,-16.3848],[22.1352,-16.4081],[22.1539,-16.4994],[22.203,-16.5544],[22.2561,-16.5815],[22.2817,-16.6197],[22.3203,-16.6433],[22.3666,-16.71],[22.49,-16.8377],[22.6924,-17.0186],[22.6851,-17.033],[22.7199,-17.0473],[22.7163,-17.0595],[22.7322,-17.0651],[22.7333,-17.079],[22.793,-17.1258],[22.8065,-17.1502],[22.7966,-17.1529],[22.8003,-17.1658],[22.8144,-17.1786],[22.874,-17.1978],[22.9183,-17.238],[22.996,-17.2746],[22.9956,-17.2983],[23.0486,-17.348],[23.0587,-17.3394],[23.0833,-17.4134],[23.1484,-17.4569],[23.1406,-17.4675],[23.1959,-17.4876],[23.2232,-17.5336],[23.2458,-17.548],[23.3397,-17.5532],[23.3637,-17.5752],[23.3918,-17.5764],[23.438,-17.6381],[24.2464,-17.4738],[24.27,-17.4911],[24.3284,-17.4925],[24.3872,-17.4697],[24.4548,-17.4798],[24.509,-17.5127],[24.538,-17.5086],[24.559,-17.539],[24.6107,-17.5342],[24.6263,-17.5119],[24.6417,-17.5139],[24.644,-17.4964],[24.7104,-17.497],[24.7608,-17.5182],[24.7806,-17.5084],[24.7952,-17.5369],[24.8296,-17.5199],[24.8806,-17.5273],[24.9089,-17.5551],[24.9422,-17.5477],[24.9428,-17.5663],[24.9612,-17.5652],[24.9797,-17.5438],[24.9778,-17.4926],[25.0185,-17.44],[25.0251,-17.3658],[25.0098,-17.3476],[25.0143,-17.3283],[25.038,-17.3123],[25.0433,-17.2869],[25.0669,-17.2868],[25.0756,-17.2542],[25.1039,-17.2451],[25.1196,-17.2225],[25.1147,-17.1933],[25.0877,-17.1644],[25.1126,-17.1401],[25.1164,-17.1107],[25.165,-17.0923],[25.1751,-17.0723],[25.178,-17.0413],[25.1564,-17.0223],[25.1714,-16.98],[25.1646,-16.9636],[25.1945,-16.9941],[25.252,-16.9586],[25.2654,-16.9166],[25.2278,-16.7819],[25.2405,-16.7072],[25.2158,-16.687],[25.0843,-16.6681],[25.1012,-16.6231],[25.0065,-16.5565],[25.0426,-16.4713],[25.0754,-16.4464],[25.1041,-16.3984],[25.2304,-16.321],[25.2506,-16.2914],[25.2905,-16.2816],[25.3019,-16.2671],[25.2977,-16.2272],[25.3279,-16.1753],[25.4332,-16.1001],[25.3922,-16.0817],[25.3615,-16.0866],[25.3235,-16.0504],[25.3147,-16.0153],[25.352,-15.9566],[25.3487,-15.9248],[25.3896,-15.8461],[25.3833,-15.8187],[25.4016,-15.7689],[25.399,-15.7389],[25.363,-15.7109],[25.3194,-15.7548],[25.2924,-15.7581],[25.2452,-15.6968],[25.2779,-15.6755],[25.2763,-15.6367],[25.2284,-15.609],[25.2181,-15.5904],[25.2841,-15.5218],[25.2398,-15.4793],[25.2585,-15.4626],[25.2891,-15.4694],[25.306,-15.4504],[25.3168,-15.4127],[25.3041,-15.3893],[25.3416,-15.3442],[25.3173,-15.2931],[25.3362,-15.2415],[25.3192,-15.1857],[25.3843,-15.1391],[25.4208,-15.1398],[25.4211,-15.0811],[25.4653,-15.0373],[25.4648,-14.954],[25.4299,-14.8869],[25.4504,-14.8185],[25.4895,-14.7912],[25.4972,-14.7274],[25.4776,-14.6943],[25.5372,-14.6109],[25.5429,-14.5801],[25.5625,-14.583],[25.5969,-14.5365],[25.5934,-14.5254],[25.5167,-14.5371],[25.4013,-14.5883],[25.3258,-14.5811],[25.192,-14.6243],[25.1512,-14.6215],[25.1413,-14.6341],[25.0591,-14.6325],[25.0113,-14.6125],[24.9837,-14.5913],[24.9728,-14.5315],[24.9885,-14.4921],[25.0243,-14.4636],[25.0242,-14.4468],[25.0723,-14.4144],[25.073,-14.3799],[25.0986,-14.341],[25.1117,-14.3393],[25.108,-14.3148],[25.1323,-14.3086],[25.1339,-14.2897],[25.1154,-14.2848],[25.1261,-14.2696],[25.1018,-14.258],[25.1073,-14.2403],[25.0922,-14.2403],[25.106,-14.2187],[25.0769,-14.2088],[25.034,-14.2178],[25.0292,-14.2051],[24.9898,-14.1975],[24.9721,-14.2077],[24.9004,-14.1658],[24.839,-14.1493],[24.8132,-14.156],[24.7905,-14.1252],[24.7647,-14.132],[24.7675,-14.1222],[24.7482,-14.1165],[24.7521,-14.1029],[24.7362,-14.0988],[24.7494,-14.0765],[24.7458,-14.0254],[24.7271,-14.027],[24.7263,-14.0028],[24.7153,-14.0042],[24.6906,-13.9687],[24.6808,-13.9738],[24.6696,-13.9597],[24.6474,-13.9797],[24.6352,-13.9766],[24.6422,-14.0054],[24.655,-14.0056],[24.6409,-14.023],[24.6203,-13.9925],[24.6228,-13.9612],[24.5888,-13.9647],[24.6036,-13.9852],[24.588,-13.9969],[24.5773,-13.9798],[24.5627,-13.9882],[24.5638,-13.9706],[24.5394,-13.9622],[24.4955,-13.9089],[24.472,-13.9416],[24.4836,-13.9563],[24.4638,-13.9633],[24.4423,-13.9494],[24.4362,-13.9658],[24.4214,-13.968],[24.4125,-13.9454],[24.3851,-13.9617],[24.335,-13.9442],[24.3403,-13.9191],[24.3177,-13.8952],[24.3092,-13.9165],[24.2914,-13.9152],[24.3127,-13.9346],[24.3096,-13.945],[24.2978,-13.9341],[24.2991,-13.9482],[24.2748,-13.942],[24.2628,-13.9151],[24.2439,-13.9269],[24.2357,-13.9163],[24.2482,-13.9058],[24.23,-13.9061],[24.2146,-13.9214],[24.1976,-13.917],[24.1884,-13.9362],[24.1567,-13.9332],[24.1362,-13.9697],[24.1034,-13.964],[24.1065,-13.9455],[24.0941,-13.9435],[24.0916,-13.9584],[24.0785,-13.961],[24.0777,-13.9843],[24.0641,-13.9899],[24.0625,-13.9696],[24.041,-13.9718],[24.0298,-13.9974],[24.0076,-13.996],[24.015,-14.0137],[23.9658,-14.0046],[23.9448,-13.9863],[23.9305,-14.0022],[23.8787,-13.9817],[23.8436,-14.0088],[23.8276,-13.9718],[23.8088,-13.9679],[23.7963,-13.9887],[23.7591,-13.989],[23.7288,-14.0324],[23.7007,-14.0384],[23.6765,-14.015],[23.6295,-14.0381],[23.5943,-14.036],[23.5294,-14.0985],[23.4192,-14.108],[23.3765,-14.1688],[23.2967,-14.167],[23.2884,-14.1898],[23.2562,-14.1838],[23.2375,-14.2053],[23.2205,-14.194],[23.2151,-14.1633],[23.2025,-14.1678],[23.2019,-14.1857],[23.1778,-14.185],[23.1925,-14.1364],[23.2168,-14.1217],[23.2421,-14.0669],[23.2415,-14.0356],[23.2219,-14.0031],[23.2141,-14.017],[23.1769,-14.0213],[23.1746,-14.0327],[23.1487,-14.04],[23.1226,-14.0369],[23.098,-13.9863],[23.0289,-14.0086],[22.9944,-14.0057],[22.9632,-13.9406],[22.8537,-13.875],[22.8002,-13.9272],[22.7549,-13.9228],[22.7279,-14.0102],[22.7095,-14.0028],[22.7105,-13.9923],[22.7006,-14.0051],[22.6683,-13.9839],[22.6523,-13.9996],[22.6548,-13.9791],[22.6382,-13.9751],[22.627,-13.9486],[22.61,-13.9587],[22.6092,-13.9432],[22.5876,-13.9472],[22.5828,-13.9333],[22.5548,-13.9406],[22.5082,-13.9128],[22.5147,-13.9066],[22.4761,-13.8737],[22.4436,-13.8744],[22.4119,-13.8369],[22.3892,-13.8333],[22.3448,-13.7948],[22.3169,-13.7974],[22.3082,-13.7715],[22.2768,-13.7522],[22.241,-13.7448],[22.2225,-13.7622],[22.1957,-13.7556],[22.1734,-13.7694],[22.1388,-13.7478],[22.1167,-13.7657],[22.012,-13.7158],[21.9978,-13.726]]]}}]}