{"type":"FeatureCollection","features":[{"type":"Feature","properties":{"name":"Bulawayo","code":"88200057B51719638002761","iso":"ZWE"},"geometry":{"type":"Polygon","coordinates":[[[28.6053,-20.2274],[28.6625,-20.2364],[28.6632,-20.2219],[28.6846,-20.2208],[28.6968,-20.2025],[28.6513,-20.153],[28.6765,-20.1143],[28.6512,-20.1133],[28.6679,-20.0676],[28.6436,-20.0687],[28.6712,-20.0163],[28.6436,-20.0042],[28.6072,-19.9615],[28.5537,-20.0565],[28.5308,-20.0305],[28.5126,-20.043],[28.513,-20.0592],[28.4687,-20.0706],[28.4087,-20.018],[28.4151,-20.1185],[28.3967,-20.1346],[28.4154,-20.1325],[28.4281,-20.1536],[28.3874,-20.1539],[28.3978,-20.1702],[28.4425,-20.1777],[28.4315,-20.1577],[28.4914,-20.1707],[28.481,-20.1908],[28.5131,-20.2009],[28.4966,-20.2355],[28.5388,-20.2587],[28.5526,-20.222],[28.6053,-20.2274]]]}},{"type":"Feature","properties":{"name":"Harare","code":"88200057B87996012089813","iso":"ZWE"},"geometry":{"type":"Polygon","coordinates":[[[30.8945,-17.949],[30.9055,-17.9641],[30.9222,-17.9601],[30.9874,-17.9849],[31.0028,-18.0116],[31.034,-18.0203],[31.0614,-18.0509],[31.1159,-18.0311],[31.1271,-18.0197],[31.0736,-17.9998],[31.0564,-17.9781],[31.1135,-17.9945],[31.1273,-17.9628],[31.1416,-17.959],[31.1361,-17.9289],[31.1658,-17.9281],[31.1736,-17.9075],[31.1896,-17.9149],[31.1979,-17.8897],[31.2118,-17.8866],[31.1951,-17.8619],[31.2217,-17.8493],[31.2201,-17.8398],[31.2151,-17.8205],[31.2032,-17.82],[31.2097,-17.8126],[31.1921,-17.805],[31.2118,-17.7926],[31.1959,-17.7494],[31.2054,-17.7119],[31.1973,-17.7186],[31.1812,-17.6962],[31.1572,-17.7037],[31.147,-17.6862],[31.1483,-17.7007],[31.1162,-17.6939],[31.1154,-17.6678],[31.1015,-17.6656],[31.074,-17.687],[31.0817,-17.7304],[30.9956,-17.7371],[30.9508,-17.7094],[30.9486,-17.7571],[30.9086,-17.7643],[30.9185,-17.7794],[30.8902,-17.7805],[30.8959,-17.8011],[30.8832,-17.8111],[30.8991,-17.8657],[30.8774,-17.8755],[30.9366,-17.9119],[30.8869,-17.9364],[30.8945,-17.949]]]}},{"type":"Feature","properties":{"name":"Manicaland","code":"88200057B32763847551562","iso":"ZWE"},"geometry":{"type":"Polygon","coordinates":[[[32.445,-21.3089],[32.4802,-21.3272],[32.4248,-21.2423],[32.4294,-21.2317],[32.3964,-21.1986],[32.3988,-21.1805],[32.4132,-21.1738],[32.363,-21.1396],[32.4875,-20.9897],[32.5243,-20.907],[32.5022,-20.8136],[32.4942,-20.717],[32.503,-20.7107],[32.4858,-20.6705],[32.5036,-20.6275],[32.4982,-20.6115],[32.5669,-20.5529],[32.6676,-20.5545],[32.8062,-20.3654],[32.8036,-20.3419],[32.8728,-20.276],[32.8638,-20.2583],[32.8744,-20.2326],[32.8478,-20.2197],[32.8485,-20.1936],[32.8743,-20.1873],[32.8615,-20.1348],[32.8702,-20.1036],[32.8925,-20.0911],[32.8942,-20.1065],[32.9095,-20.109],[32.9406,-20.0977],[32.9185,-20.0498],[32.9272,-20.0397],[32.9985,-20.0261],[33.03,-20.0336],[33.0253,-19.9556],[33.0618,-19.7746],[32.9559,-19.7161],[32.9852,-19.6881],[32.9751,-19.6492],[32.9074,-19.6813],[32.8537,-19.6836],[32.8323,-19.6699],[32.857,-19.6168],[32.8457,-19.6049],[32.8586,-19.5436],[32.8405,-19.5114],[32.8454,-19.4746],[32.7933,-19.4746],[32.7763,-19.456],[32.7779,-19.4086],[32.7912,-19.3874],[32.7766,-19.3545],[32.8366,-19.3109],[32.8561,-19.2781],[32.8508,-19.2252],[32.8847,-19.1022],[32.8764,-19.0725],[32.8632,-19.0757],[32.8509,-19.0613],[32.8407,-19.0093],[32.7756,-19.0257],[32.7169,-19.0238],[32.7,-18.9835],[32.7111,-18.9819],[32.6983,-18.936],[32.7417,-18.9248],[32.7027,-18.8412],[32.7209,-18.8224],[32.8146,-18.7788],[32.8448,-18.7764],[32.8798,-18.798],[32.9369,-18.768],[32.9619,-18.6838],[32.9104,-18.6112],[32.9103,-18.5871],[32.8913,-18.5748],[32.9005,-18.5433],[32.8759,-18.5173],[32.9713,-18.4729],[32.9798,-18.4715],[32.983,-18.4927],[33.0258,-18.4664],[33.0299,-18.4284],[33.0189,-18.4194],[33.0395,-18.3808],[33.0572,-18.3796],[33.0672,-18.3465],[33.0521,-18.3316],[33.0545,-18.3163],[33.0354,-18.3182],[33.0158,-18.2951],[33.023,-18.2495],[33.01,-18.1749],[32.9721,-18.1336],[32.982,-18.1099],[32.959,-18.0828],[32.9504,-18.0257],[32.9357,-18.0299],[32.956,-17.998],[32.9373,-17.983],[32.952,-17.9593],[32.9677,-17.9617],[32.9737,-17.917],[32.9834,-17.9167],[32.9538,-17.9107],[32.9495,-17.8875],[32.9679,-17.8421],[32.9607,-17.8113],[32.9847,-17.7942],[33.0191,-17.7999],[33.0116,-17.7833],[33.0219,-17.7817],[33.0172,-17.7637],[33.0291,-17.7464],[33.0162,-17.7508],[33.0068,-17.7311],[33.0114,-17.7158],[33.0279,-17.72],[33.0155,-17.7075],[33.0216,-17.6611],[33.0468,-17.6325],[33.0536,-17.603],[33.0198,-17.5688],[32.9838,-17.5571],[32.9638,-17.498],[32.9668,-17.4776],[33.0019,-17.451],[33.0059,-17.3951],[33.0531,-17.3426],[32.9989,-17.3042],[32.9943,-17.2457],[32.87,-17.2791],[32.8435,-17.3167],[32.7788,-17.3469],[32.7332,-17.4274],[32.7338,-17.4578],[32.6394,-17.4986],[32.6392,-17.5527],[32.6276,-17.5697],[32.6121,-17.5612],[32.5938,-17.5755],[32.5794,-17.6059],[32.5625,-17.5963],[32.5484,-17.6194],[32.5026,-17.6088],[32.4732,-17.6267],[32.4425,-17.6699],[32.4221,-17.6632],[32.382,-17.6746],[32.3249,-17.7198],[32.3009,-17.7252],[32.2147,-17.812],[32.1489,-17.8423],[32.1477,-17.9283],[31.9735,-18.0803],[31.9945,-18.1063],[32.0005,-18.1444],[31.8684,-18.142],[31.8749,-18.1733],[31.8533,-18.2762],[31.8642,-18.3295],[31.8451,-18.3876],[31.8308,-18.3974],[31.8443,-18.4272],[31.7618,-18.4476],[31.7494,-18.4989],[31.7218,-18.5133],[31.7716,-18.5707],[31.7509,-18.6014],[31.7568,-18.6226],[31.8303,-18.723],[31.8297,-18.7471],[31.8831,-18.7485],[31.9082,-18.7936],[31.921,-18.905],[31.9541,-18.9208],[31.9483,-18.938],[31.9759,-18.9701],[31.9697,-19.0846],[31.9819,-19.1195],[31.9113,-19.1225],[31.8422,-19.1012],[31.7693,-19.0325],[31.7267,-19.0215],[31.6908,-19.0434],[31.6369,-19.0407],[31.5897,-19.0113],[31.5916,-19.0746],[31.5242,-19.1675],[31.5024,-19.1504],[31.4805,-19.1564],[31.4417,-19.0936],[31.4067,-19.116],[31.3736,-19.0872],[31.3446,-19.0813],[31.3152,-19.0891],[31.3296,-19.1501],[31.2975,-19.1574],[31.3048,-19.2205],[31.1885,-19.2338],[31.2838,-19.2808],[31.4068,-19.3743],[31.4338,-19.3775],[31.4438,-19.3601],[31.4613,-19.3813],[31.48,-19.3727],[31.5216,-19.3905],[31.5275,-19.4118],[31.5486,-19.4173],[31.573,-19.4569],[31.6104,-19.4471],[31.622,-19.4634],[31.6746,-19.4614],[31.6832,-19.5223],[31.7265,-19.5424],[31.7393,-19.584],[31.7701,-19.5837],[31.8255,-19.6203],[31.8235,-19.6552],[31.8994,-19.7118],[31.9267,-19.768],[31.9678,-19.7996],[31.9848,-19.849],[32.0758,-19.8701],[32.0956,-19.9045],[32.1963,-19.9037],[32.2092,-19.9304],[32.2848,-19.9783],[32.335,-19.9907],[32.3391,-20.1568],[32.2889,-20.3971],[32.2886,-20.559],[32.2569,-20.6167],[32.2555,-20.6709],[32.2256,-20.6986],[32.2088,-20.7542],[32.2197,-20.7807],[32.1966,-20.8043],[32.1355,-20.9266],[32.1571,-20.949],[32.1577,-20.9978],[32.1961,-21.024],[32.186,-21.0455],[32.1947,-21.0643],[32.2338,-21.0795],[32.2404,-21.0975],[32.2707,-21.1045],[32.2892,-21.1843],[32.3124,-21.2221],[32.3379,-21.2461],[32.3924,-21.2625],[32.445,-21.3089]]]}},{"type":"Feature","properties":{"name":"Mashonaland Central","code":"88200057B2601963641625","iso":"ZWE"},"geometry":{"type":"Polygon","coordinates":[[[31.074,-17.687],[31.0523,-17.6413],[31.0676,-17.6345],[31.0518,-17.6128],[31.0639,-17.5439],[31.1148,-17.5427],[31.1208,-17.525],[31.1085,-17.5062],[31.1254,-17.4924],[31.1192,-17.4701],[31.1457,-17.4524],[31.1382,-17.4448],[31.3071,-17.4866],[31.2768,-17.5901],[31.2799,-17.6437],[31.3086,-17.6434],[31.3352,-17.6083],[31.3745,-17.6288],[31.4586,-17.5625],[31.4695,-17.5828],[31.5283,-17.4712],[31.5843,-17.4595],[31.623,-17.433],[31.6137,-17.4168],[31.6361,-17.3915],[31.6777,-17.3655],[31.7514,-17.2881],[31.7414,-17.2365],[31.7226,-17.2156],[31.728,-17.2021],[31.7578,-17.1983],[31.8481,-17.151],[31.8334,-17.1231],[31.8561,-17.0793],[31.9094,-17.0396],[31.9064,-17.0224],[31.8916,-17.0167],[31.8951,-17.0006],[31.9129,-17.0007],[31.9096,-16.9727],[31.9425,-16.9566],[31.9543,-16.9171],[31.9764,-16.922],[32.0014,-16.9098],[32.0033,-16.8479],[32.0404,-16.8269],[32.0475,-16.8058],[32.0926,-16.8098],[32.2005,-16.7669],[32.2281,-16.7839],[32.2723,-16.7473],[32.3394,-16.7428],[32.3709,-16.7159],[32.4602,-16.6969],[32.51,-16.7046],[32.5937,-16.7418],[32.649,-16.7218],[32.6926,-16.7397],[32.7568,-16.7022],[32.7023,-16.6751],[32.7127,-16.5967],[32.4048,-16.4663],[32.2727,-16.4309],[32.0383,-16.44],[31.915,-16.4067],[31.8991,-16.3326],[31.8444,-16.3009],[31.8296,-16.3049],[31.815,-16.2675],[31.7958,-16.2631],[31.7676,-16.2288],[31.7361,-16.2198],[31.733,-16.2056],[31.6466,-16.1925],[31.6273,-16.1768],[31.5618,-16.1825],[31.5174,-16.1625],[31.4996,-16.1691],[31.4904,-16.1548],[31.4268,-16.1591],[31.4345,-16.1404],[31.4043,-16.1356],[31.3973,-16.1091],[31.3386,-16.0666],[31.3424,-16.0439],[31.278,-16.0027],[31.1877,-16.0048],[31.1805,-15.9887],[31.144,-15.9847],[31.0651,-16.0182],[31.0636,-15.9996],[31.0518,-16.0176],[31.0285,-16.0216],[31.0171,-16.0498],[30.9907,-16.0595],[30.9552,-16.0344],[30.9477,-16.01],[30.9149,-15.9964],[30.4219,-16.0008],[30.4224,-15.6185],[30.3546,-15.6523],[30.2854,-15.6446],[30.2863,-15.7017],[30.3131,-15.7168],[30.3345,-15.7503],[30.0463,-16.0012],[30.0612,-16.0008],[30.0589,-16.0163],[30.0751,-16.0339],[30.1101,-16.0441],[30.0783,-16.1013],[30.1042,-16.1247],[30.1139,-16.1672],[30.1397,-16.1611],[30.1415,-16.1773],[30.0901,-16.228],[30.0917,-16.307],[30.0636,-16.3328],[30.0495,-16.3866],[30.0834,-16.4036],[30.0913,-16.3725],[30.1976,-16.349],[30.2143,-16.3096],[30.2071,-16.2763],[30.2342,-16.2649],[30.2949,-16.2767],[30.3204,-16.3352],[30.42,-16.339],[30.4382,-16.3938],[30.4063,-16.4379],[30.416,-16.4505],[30.4069,-16.5138],[30.3883,-16.5298],[30.3725,-16.5945],[30.4027,-16.6471],[30.5146,-16.6818],[30.5279,-16.73],[30.4845,-16.7914],[30.5241,-16.8533],[30.5208,-16.9371],[30.5296,-16.9665],[30.5524,-16.9815],[30.5369,-16.998],[30.5447,-17.0503],[30.5769,-17.0518],[30.5984,-17.0313],[30.6335,-17.0251],[30.6406,-17.0481],[30.663,-17.0362],[30.6693,-17.0632],[30.6921,-17.0508],[30.7389,-17.0613],[30.7183,-17.1558],[30.682,-17.2177],[30.6551,-17.2362],[30.6714,-17.241],[30.6685,-17.2512],[30.6177,-17.3628],[30.6324,-17.4063],[30.6115,-17.5519],[30.7854,-17.5577],[30.7601,-17.6043],[30.7899,-17.64],[30.8375,-17.6627],[30.8446,-17.6505],[30.9285,-17.7006],[30.9305,-17.6621],[30.9554,-17.6605],[30.9625,-17.7139],[30.9956,-17.7371],[31.0817,-17.7304],[31.074,-17.687]]]}},{"type":"Feature","properties":{"name":"Mashonaland East","code":"88200057B49508968932773","iso":"ZWE"},"geometry":{"type":"Polygon","coordinates":[[[30.8945,-17.949],[30.8618,-17.9238],[30.8447,-17.9244],[30.8411,-17.9451],[30.8313,-17.9209],[30.8085,-17.9469],[30.8166,-17.9812],[30.7723,-18.0222],[30.7999,-18.0875],[30.7615,-18.1053],[30.7466,-18.1543],[30.7646,-18.1723],[30.7436,-18.2052],[30.6975,-18.2371],[30.7092,-18.3063],[30.7639,-18.3489],[30.7905,-18.3901],[30.7709,-18.4131],[30.7662,-18.5707],[30.7039,-18.6343],[30.6491,-18.7329],[30.6395,-18.6954],[30.6304,-18.7242],[30.5984,-18.6997],[30.6114,-18.7469],[30.5998,-18.809],[30.5582,-18.8196],[30.5575,-18.8768],[30.5814,-18.9056],[30.5544,-18.928],[30.575,-18.9405],[30.6304,-18.9005],[30.6356,-18.9078],[30.6542,-18.8845],[30.6956,-18.9543],[30.6771,-18.9639],[30.7124,-18.9766],[30.6747,-19.0208],[30.7499,-19.1321],[30.7234,-19.1321],[30.7315,-19.1805],[30.7522,-19.2036],[30.8089,-19.2499],[30.831,-19.2442],[30.8705,-19.2605],[30.9085,-19.2439],[30.8898,-19.1973],[30.9214,-19.1923],[30.9376,-19.1486],[30.9991,-19.1556],[30.9895,-19.1953],[30.996,-19.2579],[31.3048,-19.2205],[31.2975,-19.1574],[31.3296,-19.1501],[31.3152,-19.0891],[31.3736,-19.0872],[31.4067,-19.116],[31.4417,-19.0936],[31.4805,-19.1564],[31.5024,-19.1504],[31.5242,-19.1675],[31.5916,-19.0746],[31.5897,-19.0113],[31.6369,-19.0407],[31.6908,-19.0434],[31.7267,-19.0215],[31.7693,-19.0325],[31.8422,-19.1012],[31.9113,-19.1225],[31.9819,-19.1195],[31.9697,-19.0846],[31.9759,-18.9701],[31.9483,-18.938],[31.9541,-18.9208],[31.921,-18.905],[31.9082,-18.7936],[31.8831,-18.7485],[31.8297,-18.7471],[31.8303,-18.723],[31.7568,-18.6226],[31.7509,-18.6014],[31.7716,-18.5707],[31.7218,-18.5133],[31.7494,-18.4989],[31.7618,-18.4476],[31.8443,-18.4272],[31.8308,-18.3974],[31.8451,-18.3876],[31.8642,-18.3295],[31.8533,-18.2762],[31.8749,-18.1733],[31.8684,-18.142],[32.0005,-18.1444],[31.9945,-18.1063],[31.9735,-18.0803],[32.1477,-17.9283],[32.1489,-17.8423],[32.2147,-17.812],[32.3009,-17.7252],[32.3249,-17.7198],[32.382,-17.6746],[32.4221,-17.6632],[32.4425,-17.6699],[32.4732,-17.6267],[32.5026,-17.6088],[32.5484,-17.6194],[32.5625,-17.5963],[32.5794,-17.6059],[32.5938,-17.5755],[32.6121,-17.5612],[32.6276,-17.5697],[32.6392,-17.5527],[32.6394,-17.4986],[32.7338,-17.4578],[32.7332,-17.4274],[32.7788,-17.3469],[32.8435,-17.3167],[32.87,-17.2791],[32.9943,-17.2457],[32.9898,-17.184],[32.9375,-17.0653],[32.8332,-16.9209],[32.9114,-16.8961],[32.991,-16.6944],[32.9795,-16.7043],[32.9213,-16.6938],[32.8905,-16.717],[32.8386,-16.6956],[32.7568,-16.7022],[32.6926,-16.7397],[32.649,-16.7218],[32.5937,-16.7418],[32.51,-16.7046],[32.4602,-16.6969],[32.3709,-16.7159],[32.3394,-16.7428],[32.2723,-16.7473],[32.2281,-16.7839],[32.2005,-16.7669],[32.0926,-16.8098],[32.0475,-16.8058],[32.0404,-16.8269],[32.0033,-16.8479],[32.0014,-16.9098],[31.9764,-16.922],[31.9543,-16.9171],[31.9425,-16.9566],[31.9096,-16.9727],[31.9129,-17.0007],[31.8951,-17.0006],[31.8916,-17.0167],[31.9064,-17.0224],[31.9094,-17.0396],[31.8561,-17.0793],[31.8334,-17.1231],[31.8481,-17.151],[31.7578,-17.1983],[31.728,-17.2021],[31.7226,-17.2156],[31.7414,-17.2365],[31.7514,-17.2881],[31.6777,-17.3655],[31.6361,-17.3915],[31.6137,-17.4168],[31.623,-17.433],[31.5843,-17.4595],[31.5283,-17.4712],[31.4695,-17.5828],[31.4586,-17.5625],[31.3745,-17.6288],[31.3352,-17.6083],[31.3086,-17.6434],[31.2799,-17.6437],[31.2768,-17.5901],[31.3071,-17.4866],[31.1382,-17.4448],[31.1457,-17.4524],[31.1192,-17.4701],[31.1254,-17.4924],[31.1085,-17.5062],[31.1208,-17.525],[31.1148,-17.5427],[31.0639,-17.5439],[31.0518,-17.6128],[31.0676,-17.6345],[31.0523,-17.6413],[31.074,-17.687],[31.0888,-17.6656],[31.1154,-17.6678],[31.1162,-17.6939],[31.1483,-17.7007],[31.147,-17.6862],[31.1572,-17.7037],[31.1812,-17.6962],[31.1973,-17.7186],[31.2054,-17.7119],[31.1959,-17.7494],[31.2118,-17.7926],[31.1921,-17.805],[31.2151,-17.8205],[31.2217,-17.8493],[31.1963,-17.8593],[31.2154,-17.8797],[31.1979,-17.8897],[31.1896,-17.9149],[31.1736,-17.9075],[31.1658,-17.9281],[31.1361,-17.9289],[31.1416,-17.959],[31.1273,-17.9628],[31.1135,-17.9945],[31.0564,-17.9781],[31.0736,-17.9998],[31.1271,-18.0197],[31.1159,-18.0311],[31.0614,-18.0509],[31.034,-18.0203],[31.0028,-18.0116],[30.9874,-17.9849],[30.9222,-17.9601],[30.9055,-17.9641],[30.8945,-17.949]]]}},{"type":"Feature","properties":{"name":"Mashonaland West","code":"88200057B70993266842589","iso":"ZWE"},"geometry":{"type":"Polygon","coordinates":[[[30.9625,-17.7139],[30.9554,-17.6605],[30.9305,-17.6621],[30.9285,-17.7006],[30.8446,-17.6505],[30.8375,-17.6627],[30.7899,-17.64],[30.7601,-17.6043],[30.7854,-17.5577],[30.6115,-17.5519],[30.6324,-17.4063],[30.6177,-17.3628],[30.6685,-17.2512],[30.6714,-17.241],[30.6551,-17.2362],[30.682,-17.2177],[30.7183,-17.1558],[30.7389,-17.0613],[30.6921,-17.0508],[30.6693,-17.0632],[30.663,-17.0362],[30.6406,-17.0481],[30.6335,-17.0251],[30.5984,-17.0313],[30.5769,-17.0518],[30.5447,-17.0503],[30.5369,-16.998],[30.5524,-16.9815],[30.5296,-16.9665],[30.5208,-16.9371],[30.5241,-16.8533],[30.4845,-16.7914],[30.5279,-16.73],[30.5146,-16.6818],[30.4027,-16.6471],[30.3725,-16.5945],[30.3883,-16.5298],[30.4069,-16.5138],[30.416,-16.4505],[30.4063,-16.4379],[30.4382,-16.3938],[30.42,-16.339],[30.3204,-16.3352],[30.2949,-16.2767],[30.2342,-16.2649],[30.2071,-16.2763],[30.2143,-16.3096],[30.1976,-16.349],[30.0913,-16.3725],[30.0834,-16.4036],[30.0495,-16.3866],[30.0636,-16.3328],[30.0917,-16.307],[30.0901,-16.228],[30.1415,-16.1773],[30.1397,-16.1611],[30.1139,-16.1672],[30.1042,-16.1247],[30.0783,-16.1013],[30.1101,-16.0441],[30.0751,-16.0339],[30.0589,-16.0163],[30.0612,-16.0008],[30.0463,-16.0012],[30.3345,-15.7503],[30.3131,-15.7168],[30.2863,-15.7017],[30.2854,-15.6446],[30.2638,-15.6253],[30.2123,-15.6674],[30.1647,-15.6165],[29.9677,-15.6417],[29.8816,-15.6126],[29.7893,-15.608],[29.6248,-15.662],[29.5574,-15.6418],[29.5076,-15.683],[29.4249,-15.6894],[29.3989,-15.7106],[29.364,-15.7081],[29.2144,-15.7688],[29.0647,-15.8783],[29.0285,-15.9343],[28.9133,-15.9438],[28.8764,-16.0148],[28.8489,-16.038],[28.8645,-16.1159],[28.8363,-16.1623],[28.8356,-16.2104],[28.8573,-16.2405],[28.823,-16.3059],[28.844,-16.3321],[28.8509,-16.3722],[28.8181,-16.4368],[28.8154,-16.4846],[28.742,-16.5427],[28.64,-16.5619],[28.4888,-16.617],[28.44,-16.6672],[28.4068,-16.6536],[28.33,-16.6637],[28.2959,-16.6996],[28.2639,-16.7002],[28.2468,-16.7351],[28.1359,-16.8238],[28.014,-16.8766],[28.0298,-16.8962],[28.033,-16.9489],[28.0204,-16.9805],[28.0401,-17.0079],[28.0325,-17.0192],[28.0677,-17.0263],[28.0469,-17.0453],[28.0523,-17.0844],[28.0321,-17.1017],[28.0463,-17.1114],[28.0709,-17.101],[28.0929,-17.124],[28.0951,-17.1479],[28.118,-17.1364],[28.143,-17.1453],[28.131,-17.1676],[28.1355,-17.1953],[28.156,-17.2129],[28.136,-17.2214],[28.1505,-17.2318],[28.1437,-17.2425],[28.1647,-17.2544],[28.1472,-17.2496],[28.1421,-17.2608],[28.1706,-17.2677],[28.1635,-17.3071],[28.1731,-17.3234],[28.182,-17.3158],[28.1963,-17.3418],[28.2338,-17.3551],[28.2427,-17.3997],[28.3273,-17.4015],[28.3511,-17.3842],[28.4379,-17.3711],[28.4589,-17.378],[28.4657,-17.3656],[28.4744,-17.3843],[28.4992,-17.3859],[28.523,-17.413],[28.5409,-17.4134],[28.5389,-17.4017],[28.6067,-17.316],[28.6369,-17.3025],[28.6383,-17.2668],[28.6633,-17.2369],[28.6715,-17.2004],[28.7094,-17.2163],[28.7147,-17.1957],[28.7529,-17.1594],[28.7869,-17.1625],[28.8232,-17.1476],[28.8853,-17.1539],[28.9161,-17.1374],[28.9246,-17.1171],[28.938,-17.1605],[28.9816,-17.2239],[29.0177,-17.2246],[29.0667,-17.249],[29.0732,-17.2714],[29.1057,-17.2702],[29.1624,-17.2995],[29.2381,-17.2999],[29.2709,-17.3312],[29.2802,-17.3813],[29.3284,-17.4159],[29.3612,-17.4605],[29.4065,-17.4736],[29.3673,-17.5322],[29.3143,-17.5767],[29.3208,-17.5993],[29.3443,-17.6165],[29.3474,-17.6517],[29.3352,-17.6671],[29.3459,-17.6895],[29.3054,-17.7164],[29.2988,-17.7417],[29.3287,-17.7604],[29.2905,-17.7867],[29.2834,-17.8411],[29.2667,-17.8533],[29.2201,-17.9492],[29.2293,-17.9583],[29.2131,-17.9707],[29.2048,-18.0159],[29.2728,-18.1757],[29.3476,-18.2171],[29.3608,-18.2604],[29.3928,-18.2555],[29.4284,-18.2841],[29.4856,-18.3051],[29.5478,-18.3564],[29.5752,-18.3586],[29.5674,-18.4269],[29.5455,-18.4542],[29.5544,-18.5798],[29.5969,-18.5798],[29.6483,-18.6167],[29.6655,-18.604],[29.7305,-18.6111],[29.736,-18.6429],[29.7771,-18.6303],[29.8061,-18.6747],[29.8298,-18.682],[29.8423,-18.6715],[29.8557,-18.6908],[29.8648,-18.6837],[29.8912,-18.7031],[29.91,-18.6947],[29.9236,-18.7036],[29.9314,-18.6888],[29.9767,-18.6805],[30.018,-18.713],[30.0397,-18.6981],[30.0718,-18.7227],[30.1466,-18.7193],[30.1817,-18.7305],[30.2219,-18.781],[30.2602,-18.785],[30.2746,-18.8091],[30.296,-18.7956],[30.3166,-18.8009],[30.3553,-18.848],[30.3906,-18.8406],[30.3951,-18.8555],[30.4209,-18.8603],[30.4469,-18.892],[30.5045,-18.9112],[30.5303,-18.9095],[30.5575,-18.8768],[30.5582,-18.8196],[30.5998,-18.809],[30.6114,-18.7469],[30.5984,-18.6997],[30.6304,-18.7242],[30.6395,-18.6954],[30.6491,-18.7329],[30.7039,-18.6343],[30.7662,-18.5707],[30.7709,-18.4131],[30.7905,-18.3901],[30.7639,-18.3489],[30.7092,-18.3063],[30.6975,-18.2371],[30.7436,-18.2052],[30.7646,-18.1723],[30.7466,-18.1543],[30.7615,-18.1053],[30.7999,-18.0875],[30.7723,-18.0222],[30.8166,-17.9812],[30.8085,-17.9469],[30.8313,-17.9209],[30.8411,-17.9451],[30.8447,-17.9244],[30.8618,-17.9238],[30.8945,-17.949],[30.8869,-17.9364],[30.9366,-17.9119],[30.8774,-17.8755],[30.8991,-17.8657],[30.8832,-17.8111],[30.8959,-17.8011],[30.8902,-17.7805],[30.9185,-17.7794],[30.9086,-17.7643],[30.9486,-17.7571],[30.9508,-17.7094],[30.9625,-17.7139]]]}},{"type":"Feature","properties":{"name":"Masvingo","code":"88200057B85209083975104","iso":"ZWE"},"geometry":{"type":"Polygon","coordinates":[[[31.1885,-19.2338],[30.996,-19.2579],[30.9895,-19.1953],[30.9991,-19.1556],[30.9376,-19.1486],[30.9214,-19.1923],[30.8898,-19.1973],[30.9085,-19.2439],[30.8705,-19.2605],[30.6957,-19.3958],[30.7584,-19.4026],[30.76,-19.4145],[30.7534,-19.4374],[30.714,-19.429],[30.719,-19.5301],[30.7127,-19.5589],[30.6872,-19.5879],[30.7094,-19.6369],[30.6965,-19.6911],[30.7047,-19.7441],[30.6902,-19.7484],[30.6928,-19.7795],[30.6776,-19.8134],[30.6778,-19.8419],[30.6926,-19.856],[30.6339,-19.8664],[30.522,-19.8365],[30.4599,-19.8397],[30.4482,-19.8694],[30.4545,-19.8952],[30.4705,-19.9037],[30.4549,-19.9324],[30.4254,-19.9433],[30.431,-19.9901],[30.3342,-19.9928],[30.143,-20.0265],[30.1917,-20.0673],[30.1875,-20.098],[30.1582,-20.1267],[30.1667,-20.155],[30.1481,-20.1992],[30.1585,-20.2065],[30.1978,-20.1717],[30.2778,-20.229],[30.244,-20.3357],[30.258,-20.3523],[30.3138,-20.3649],[30.3391,-20.4181],[30.3602,-20.4161],[30.4135,-20.4777],[30.461,-20.5566],[30.4449,-20.573],[30.4506,-20.6329],[30.4788,-20.6563],[30.4815,-20.6802],[30.5199,-20.6823],[30.4814,-20.7151],[30.4543,-20.8311],[30.4452,-20.9625],[30.3934,-21.0195],[30.3568,-21.0399],[30.3009,-21.0366],[30.2817,-21.0194],[30.2501,-21.041],[30.1948,-21.0381],[30.0736,-20.9901],[30.0688,-20.9663],[29.9876,-20.9114],[29.9468,-20.9117],[29.8236,-21.0129],[29.7846,-21.0315],[29.7307,-21.0229],[29.731,-21.0333],[29.7743,-21.1116],[29.8411,-21.1514],[29.8311,-21.1741],[29.8469,-21.2007],[29.8947,-21.2266],[29.8865,-21.2634],[29.9188,-21.2768],[29.9481,-21.3489],[30.0188,-21.3878],[30.0727,-21.4789],[30.1087,-21.4834],[30.0961,-21.5007],[30.1658,-21.5005],[30.1725,-21.5319],[30.193,-21.5287],[30.2183,-21.5539],[30.2361,-21.5458],[30.2334,-21.5944],[30.3282,-21.6002],[30.3383,-21.6111],[30.3611,-21.5949],[30.4075,-21.6246],[30.4434,-21.6312],[30.4502,-21.6526],[30.5035,-21.6581],[30.4982,-21.705],[30.5341,-21.7199],[30.5443,-21.7479],[30.5622,-21.7298],[30.5821,-21.736],[30.5902,-21.754],[30.6071,-21.7458],[30.6195,-21.7632],[30.649,-21.7489],[30.6354,-21.7713],[30.6652,-21.7816],[30.6702,-21.8295],[30.7108,-21.8503],[30.7128,-21.8721],[30.7305,-21.8751],[30.7276,-21.8903],[30.7614,-21.907],[30.7713,-21.9222],[30.7569,-21.9414],[30.8068,-21.9698],[30.7966,-21.9808],[30.8037,-21.9991],[30.833,-21.9975],[30.8574,-22.0167],[30.8895,-22.0843],[30.9313,-22.0738],[30.9312,-22.1053],[30.9441,-22.1129],[30.9547,-22.1551],[31.0053,-22.1786],[31.0059,-22.2246],[31.036,-22.227],[31.0162,-22.2331],[31.0131,-22.2504],[31.0533,-22.2666],[31.0512,-22.2859],[31.0841,-22.2897],[31.1133,-22.3375],[31.1736,-22.329],[31.2109,-22.364],[31.2641,-22.3635],[31.286,-22.4041],[31.3096,-22.421],[31.3763,-22.3797],[32.4139,-21.3163],[32.4481,-21.3075],[32.4175,-21.2933],[32.3924,-21.2625],[32.3379,-21.2461],[32.3124,-21.2221],[32.2892,-21.1843],[32.2707,-21.1045],[32.2404,-21.0975],[32.2338,-21.0795],[32.1947,-21.0643],[32.186,-21.0455],[32.1961,-21.024],[32.1577,-20.9978],[32.1571,-20.949],[32.1355,-20.9266],[32.1966,-20.8043],[32.2197,-20.7807],[32.2088,-20.7542],[32.2256,-20.6986],[32.2555,-20.6709],[32.2569,-20.6167],[32.2886,-20.559],[32.2889,-20.3971],[32.3391,-20.1568],[32.335,-19.9907],[32.2848,-19.9783],[32.2092,-19.9304],[32.1963,-19.9037],[32.0956,-19.9045],[32.0758,-19.8701],[31.9848,-19.849],[31.9678,-19.7996],[31.9267,-19.768],[31.8994,-19.7118],[31.8235,-19.6552],[31.8255,-19.6203],[31.7701,-19.5837],[31.7393,-19.584],[31.7265,-19.5424],[31.6832,-19.5223],[31.6746,-19.4614],[31.622,-19.4634],[31.6104,-19.4471],[31.573,-19.4569],[31.5486,-19.4173],[31.5275,-19.4118],[31.5216,-19.3905],[31.48,-19.3727],[31.4613,-19.3813],[31.4438,-19.3601],[31.4338,-19.3775],[31.4068,-19.3743],[31.2838,-19.2808],[31.1885,-19.2338]]]}},{"type":"Feature","properties":{"name":"Matabeleland North","code":"88200057B11544283676020","iso":"ZWE"},"geometry":{"type":"Polygon","coordinates":[[[28.6053,-20.2274],[28.6691,-20.2983],[28.7224,-20.2653],[28.7139,-20.2527],[28.7528,-20.2149],[28.7812,-20.1429],[28.7678,-20.1404],[28.8602,-20.076],[28.816,-20.0447],[28.8956,-20.0399],[28.9846,-19.9559],[28.9914,-19.9427],[28.955,-19.8217],[29.0466,-19.8532],[29.0979,-19.814],[29.0858,-19.8072],[29.1035,-19.7754],[29.1029,-19.7093],[29.0417,-19.6573],[29.0692,-19.6544],[29.1157,-19.6013],[29.1951,-19.5647],[29.1271,-19.5347],[29.0944,-19.5342],[29.0821,-19.5097],[29.1073,-19.4903],[29.1719,-19.4977],[29.2155,-19.5296],[29.2338,-19.4824],[29.1962,-19.4586],[29.1487,-19.3951],[29.092,-19.3735],[29.0217,-19.2894],[29.0189,-19.2588],[29.0328,-19.2424],[29.0028,-19.1956],[28.9995,-19.1582],[29.0148,-19.0921],[28.9747,-19.0367],[28.9776,-19.021],[28.9377,-19.0099],[28.8669,-18.7233],[29.1255,-18.6334],[29.1289,-18.6123],[29.0903,-18.5786],[28.7506,-18.5707],[28.6807,-18.5507],[28.6447,-18.5619],[28.5716,-18.5553],[28.458,-18.5677],[28.4074,-18.5584],[28.3296,-18.5698],[28.1523,-18.5581],[28.1112,-18.5383],[28.0711,-18.5529],[27.9995,-18.5467],[27.9975,-18.2372],[28.0273,-18.2056],[28.0901,-18.2068],[28.1099,-18.19],[28.051,-18.1804],[28.0492,-18.15],[28.0698,-18.1377],[28.0709,-18.0594],[28.0304,-18.0611],[28.0083,-18.0181],[28.0499,-17.9405],[28.0685,-17.9366],[28.0912,-17.8383],[28.0699,-17.7895],[28.0937,-17.7444],[28.1167,-17.7272],[28.1433,-17.7374],[28.1948,-17.6665],[28.1979,-17.6158],[28.2188,-17.5803],[28.2022,-17.5765],[28.2087,-17.5259],[28.2269,-17.504],[28.2277,-17.4693],[28.2512,-17.4462],[28.2338,-17.3551],[28.1963,-17.3418],[28.182,-17.3158],[28.1731,-17.3234],[28.1635,-17.3071],[28.1706,-17.2677],[28.1421,-17.2608],[28.1472,-17.2496],[28.1647,-17.2544],[28.1437,-17.2425],[28.1505,-17.2318],[28.136,-17.2214],[28.156,-17.2129],[28.1355,-17.1953],[28.131,-17.1676],[28.143,-17.1453],[28.118,-17.1364],[28.0951,-17.1479],[28.0929,-17.124],[28.0709,-17.101],[28.0463,-17.1114],[28.0321,-17.1017],[28.0523,-17.0844],[28.0469,-17.0453],[28.0677,-17.0263],[28.0325,-17.0192],[28.0401,-17.0079],[28.0204,-16.9805],[28.033,-16.9489],[28.0298,-16.8962],[28.014,-16.8766],[27.8268,-16.9638],[27.6428,-17.2254],[27.6207,-17.3319],[27.5463,-17.4158],[27.3196,-17.5879],[27.1441,-17.8049],[27.1534,-17.8349],[27.0823,-17.9006],[27.0408,-17.9602],[27.0199,-17.9522],[26.8969,-17.9869],[26.8311,-17.9905],[26.8299,-18.0096],[26.8043,-18.0093],[26.7993,-18.0228],[26.742,-18.0214],[26.6934,-18.074],[26.6529,-18.054],[26.599,-18.0483],[26.6012,-18.0337],[26.5749,-18.0156],[26.5604,-17.985],[26.486,-17.9805],[26.4065,-17.9346],[26.3096,-17.9348],[26.2862,-17.9167],[26.2478,-17.9162],[26.2185,-17.8807],[26.1528,-17.9168],[26.09,-17.9321],[26.091,-17.9437],[26.1075,-17.9471],[26.0879,-17.9823],[26.0124,-17.9732],[25.9695,-18.0015],[25.9166,-17.9992],[25.8654,-17.9741],[25.8636,-17.9521],[25.8471,-17.9439],[25.8512,-17.9059],[25.8412,-17.8939],[25.8047,-17.8852],[25.7671,-17.8446],[25.7043,-17.835],[25.6942,-17.8097],[25.6195,-17.8386],[25.5526,-17.8356],[25.5148,-17.8625],[25.457,-17.8399],[25.4323,-17.8509],[25.3963,-17.8489],[25.369,-17.8314],[25.3484,-17.8376],[25.263,-17.7901],[25.2376,-17.9086],[25.2686,-17.9516],[25.2986,-18.042],[25.3205,-18.0769],[25.3627,-18.0919],[25.3687,-18.1135],[25.3949,-18.1203],[25.4192,-18.1557],[25.5241,-18.3824],[25.6046,-18.4752],[25.649,-18.4952],[25.6915,-18.5693],[25.783,-18.623],[25.8041,-18.6838],[25.7918,-18.6959],[25.7967,-18.7505],[25.8261,-18.8349],[25.9442,-18.9019],[25.9684,-18.9382],[25.9967,-19.0302],[25.9679,-19.0606],[25.966,-19.1066],[26.0422,-19.2075],[26.0444,-19.236],[26.0717,-19.269],[26.1273,-19.4254],[26.1423,-19.4362],[26.1691,-19.5411],[26.2448,-19.5822],[26.312,-19.5736],[26.3572,-19.611],[26.3291,-19.6632],[26.3906,-19.667],[26.4318,-19.7406],[26.5259,-19.7655],[26.5721,-19.7932],[26.6163,-19.876],[26.703,-19.8901],[26.8611,-19.82],[26.9247,-19.8108],[27.0647,-19.8143],[27.1364,-19.7958],[27.1943,-19.8167],[27.2652,-19.8229],[27.3058,-19.793],[27.3857,-19.7993],[27.448,-19.846],[27.5171,-19.8547],[27.5385,-19.8702],[27.5644,-19.8964],[27.5903,-19.9795],[27.7407,-20.0988],[27.7588,-20.1345],[27.8051,-20.1514],[27.8187,-20.1749],[27.8972,-20.1842],[27.9442,-20.0589],[27.9926,-20.1225],[28.0334,-20.1026],[28.1372,-20.0861],[28.1489,-20.1115],[28.1911,-20.1225],[28.1901,-20.1399],[28.251,-20.2264],[28.2907,-20.254],[28.3066,-20.2824],[28.3144,-20.2726],[28.3316,-20.3546],[28.3434,-20.3619],[28.3804,-20.2945],[28.4297,-20.2931],[28.4811,-20.2367],[28.4966,-20.2355],[28.5131,-20.2009],[28.481,-20.1908],[28.4914,-20.1707],[28.4315,-20.1577],[28.4425,-20.1777],[28.3978,-20.1702],[28.3874,-20.1539],[28.4281,-20.1536],[28.4154,-20.1325],[28.3967,-20.1346],[28.4151,-20.1185],[28.4087,-20.018],[28.4687,-20.0706],[28.513,-20.0592],[28.5126,-20.043],[28.5308,-20.0305],[28.5537,-20.0565],[28.6072,-19.9615],[28.6436,-20.0042],[28.6712,-20.0163],[28.6436,-20.0687],[28.6679,-20.0676],[28.6512,-20.1133],[28.6765,-20.1143],[28.6513,-20.153],[28.6968,-20.2025],[28.6846,-20.2208],[28.6632,-20.2219],[28.6625,-20.2364],[28.6053,-20.2274]]]}},{"type":"Feature","properties":{"name":"Matabeleland South","code":"88200057B5014357533485","iso":"ZWE"},"geometry":{"type":"Polygon","coordinates":[[[28.4966,-20.2355],[28.4811,-20.2367],[28.4297,-20.2931],[28.3804,-20.2945],[28.3434,-20.3619],[28.3316,-20.3546],[28.3144,-20.2726],[28.3066,-20.2824],[28.2907,-20.254],[28.251,-20.2264],[28.1901,-20.1399],[28.1911,-20.1225],[28.1489,-20.1115],[28.1372,-20.0861],[28.0334,-20.1026],[27.9926,-20.1225],[27.9442,-20.0589],[27.8972,-20.1842],[27.8187,-20.1749],[27.8051,-20.1514],[27.7588,-20.1345],[27.7407,-20.0988],[27.5903,-19.9795],[27.5644,-19.8964],[27.5385,-19.8702],[27.5171,-19.8547],[27.448,-19.846],[27.3857,-19.7993],[27.3058,-19.793],[27.2652,-19.8229],[27.1943,-19.8167],[27.1364,-19.7958],[27.0647,-19.8143],[26.9044,-19.8132],[26.7568,-19.8581],[26.7334,-19.8833],[26.703,-19.8901],[26.7267,-19.9377],[26.8519,-19.9592],[26.9711,-20.0118],[27.0462,-20.0095],[27.1297,-20.0739],[27.2134,-20.0881],[27.2357,-20.1177],[27.2669,-20.2114],[27.2857,-20.2308],[27.3011,-20.2962],[27.2897,-20.497],[27.3628,-20.4667],[27.434,-20.4807],[27.4719,-20.466],[27.5775,-20.4925],[27.6043,-20.4779],[27.6223,-20.4771],[27.6474,-20.4976],[27.6837,-20.4851],[27.7251,-20.5143],[27.7293,-20.555],[27.7047,-20.6011],[27.704,-20.6531],[27.7347,-20.7025],[27.736,-20.7604],[27.7169,-20.8368],[27.6942,-20.864],[27.7006,-20.9044],[27.6901,-20.9325],[27.7098,-20.9567],[27.7074,-20.9991],[27.6963,-21.0048],[27.7045,-21.037],[27.6859,-21.0498],[27.6939,-21.0851],[27.7525,-21.1516],[27.7789,-21.1574],[27.7887,-21.1766],[27.8049,-21.1737],[27.9035,-21.3007],[27.9199,-21.3296],[27.9192,-21.3606],[27.9568,-21.4108],[27.9509,-21.4288],[27.9802,-21.4565],[27.9572,-21.4704],[27.9844,-21.4836],[27.9714,-21.5161],[28.0037,-21.5138],[27.9968,-21.5305],[28.0201,-21.5727],[28.0992,-21.5774],[28.1975,-21.6017],[28.2926,-21.5874],[28.3806,-21.6078],[28.5034,-21.6692],[28.5396,-21.6414],[28.5822,-21.6284],[28.8601,-21.7523],[28.9592,-21.7722],[28.9901,-21.7673],[29.0086,-21.7873],[29.0585,-21.7992],[29.0783,-21.8166],[29.0368,-21.8639],[29.0209,-21.9163],[29.0273,-21.9731],[29.0502,-22.0166],[29.0935,-22.0536],[29.1393,-22.0703],[29.257,-22.0632],[29.2846,-22.1154],[29.3628,-22.1903],[29.4653,-22.1632],[29.5254,-22.1746],[29.5782,-22.1391],[29.6091,-22.154],[29.6261,-22.1341],[29.6599,-22.1235],[29.6748,-22.1371],[29.7734,-22.1383],[29.8861,-22.1902],[29.9301,-22.1862],[29.9707,-22.2226],[30.019,-22.2296],[30.0232,-22.2506],[30.0549,-22.2541],[30.125,-22.3088],[30.2332,-22.2946],[30.2893,-22.3549],[30.3909,-22.3471],[30.4854,-22.3143],[30.5491,-22.3301],[30.6012,-22.3189],[30.6305,-22.3344],[30.6613,-22.3092],[30.707,-22.3148],[30.8333,-22.2892],[30.9329,-22.3002],[30.9823,-22.3256],[30.9998,-22.3137],[31.087,-22.3453],[31.1133,-22.3375],[31.0841,-22.2897],[31.0512,-22.2859],[31.0533,-22.2666],[31.0131,-22.2504],[31.0162,-22.2331],[31.036,-22.227],[31.0059,-22.2246],[31.0053,-22.1786],[30.9547,-22.1551],[30.9441,-22.1129],[30.9312,-22.1053],[30.9313,-22.0738],[30.8895,-22.0843],[30.8574,-22.0167],[30.833,-21.9975],[30.8037,-21.9991],[30.7966,-21.9808],[30.8068,-21.9698],[30.7616,-21.9492],[30.7542,-21.9326],[30.7713,-21.9222],[30.7614,-21.907],[30.7276,-21.8903],[30.7305,-21.8751],[30.7128,-21.8721],[30.7108,-21.8503],[30.6702,-21.8295],[30.6652,-21.7816],[30.6354,-21.7713],[30.649,-21.7489],[30.6195,-21.7632],[30.6071,-21.7458],[30.5902,-21.754],[30.5821,-21.736],[30.5622,-21.7298],[30.5443,-21.7479],[30.5341,-21.7199],[30.4982,-21.705],[30.5035,-21.6581],[30.4502,-21.6526],[30.4434,-21.6312],[30.4075,-21.6246],[30.3611,-21.5949],[30.3383,-21.6111],[30.3282,-21.6002],[30.2334,-21.5944],[30.2361,-21.5458],[30.2183,-21.5539],[30.193,-21.5287],[30.1725,-21.5319],[30.1658,-21.5005],[30.0961,-21.5007],[30.1087,-21.4834],[30.0727,-21.4789],[30.0188,-21.3878],[29.9481,-21.3489],[29.9188,-21.2768],[29.8865,-21.2634],[29.8947,-21.2266],[29.8469,-21.2007],[29.8311,-21.1741],[29.8411,-21.1514],[29.8013,-21.1356],[29.766,-21.0889],[29.7521,-21.0873],[29.7307,-21.0229],[29.5925,-21.0405],[29.4578,-21.0156],[29.6243,-20.8912],[29.6754,-20.6705],[29.6617,-20.6547],[29.6079,-20.6682],[29.5845,-20.6043],[29.6203,-20.5952],[29.6053,-20.5753],[29.7011,-20.5162],[29.7312,-20.4556],[29.7309,-20.3915],[29.816,-20.1592],[29.8734,-20.0614],[29.8756,-20.0057],[29.8004,-20.0032],[29.7977,-19.9449],[29.6952,-19.9722],[29.6802,-19.9051],[29.5985,-19.9342],[29.5622,-19.8861],[29.4724,-19.8478],[29.4138,-19.8871],[29.4037,-19.8183],[29.4236,-19.7567],[29.4095,-19.7478],[29.4015,-19.699],[29.3631,-19.6791],[29.3568,-19.6414],[29.3165,-19.6173],[29.2955,-19.5835],[29.3015,-19.5743],[29.2823,-19.5651],[29.2798,-19.5323],[29.2399,-19.4841],[29.2319,-19.4805],[29.2155,-19.5296],[29.1719,-19.4977],[29.1073,-19.4903],[29.0821,-19.5097],[29.0944,-19.5342],[29.1271,-19.5347],[29.1951,-19.5647],[29.1157,-19.6013],[29.0692,-19.6544],[29.0417,-19.6573],[29.1029,-19.7093],[29.1035,-19.7754],[29.0858,-19.8072],[29.0979,-19.814],[29.0466,-19.8532],[28.955,-19.8217],[28.9914,-19.9427],[28.9846,-19.9559],[28.8956,-20.0399],[28.816,-20.0447],[28.8602,-20.076],[28.7678,-20.1404],[28.7812,-20.1429],[28.7528,-20.2149],[28.7139,-20.2527],[28.7224,-20.2653],[28.6691,-20.2983],[28.6053,-20.2274],[28.5526,-20.222],[28.5388,-20.2587],[28.4966,-20.2355]]]}},{"type":"Feature","properties":{"name":"Midlands","code":"88200057B27236199640876","iso":"ZWE"},"geometry":{"type":"Polygon","coordinates":[[[30.5575,-18.8768],[30.5303,-18.9095],[30.5045,-18.9112],[30.4469,-18.892],[30.4209,-18.8603],[30.3951,-18.8555],[30.3906,-18.8406],[30.3553,-18.848],[30.3166,-18.8009],[30.296,-18.7956],[30.2746,-18.8091],[30.2602,-18.785],[30.2219,-18.781],[30.1817,-18.7305],[30.1466,-18.7193],[30.0718,-18.7227],[30.0397,-18.6981],[30.018,-18.713],[29.9767,-18.6805],[29.9314,-18.6888],[29.9236,-18.7036],[29.91,-18.6947],[29.8912,-18.7031],[29.8648,-18.6837],[29.8557,-18.6908],[29.8423,-18.6715],[29.8298,-18.682],[29.8061,-18.6747],[29.7771,-18.6303],[29.736,-18.6429],[29.7305,-18.6111],[29.6655,-18.604],[29.6483,-18.6167],[29.5969,-18.5798],[29.5544,-18.5798],[29.5455,-18.4542],[29.5674,-18.4269],[29.5752,-18.3586],[29.5478,-18.3564],[29.4856,-18.3051],[29.4284,-18.2841],[29.3928,-18.2555],[29.3608,-18.2604],[29.3476,-18.2171],[29.2728,-18.1757],[29.2048,-18.0159],[29.2131,-17.9707],[29.2293,-17.9583],[29.2201,-17.9492],[29.2667,-17.8533],[29.2834,-17.8411],[29.2905,-17.7867],[29.3287,-17.7604],[29.2988,-17.7417],[29.3054,-17.7164],[29.3459,-17.6895],[29.3352,-17.6671],[29.3474,-17.6517],[29.3443,-17.6165],[29.3208,-17.5993],[29.3143,-17.5767],[29.3673,-17.5322],[29.4065,-17.4736],[29.3612,-17.4605],[29.3284,-17.4159],[29.2802,-17.3813],[29.2709,-17.3312],[29.2381,-17.2999],[29.1624,-17.2995],[29.1057,-17.2702],[29.0732,-17.2714],[29.0667,-17.249],[29.0177,-17.2246],[28.9816,-17.2239],[28.938,-17.1605],[28.9246,-17.1171],[28.9161,-17.1374],[28.8853,-17.1539],[28.8232,-17.1476],[28.7869,-17.1625],[28.7529,-17.1594],[28.7147,-17.1957],[28.7094,-17.2163],[28.6715,-17.2004],[28.6633,-17.2369],[28.6383,-17.2668],[28.6369,-17.3025],[28.6067,-17.316],[28.5389,-17.4017],[28.5409,-17.4134],[28.523,-17.413],[28.4992,-17.3859],[28.4744,-17.3843],[28.4657,-17.3656],[28.4589,-17.378],[28.4379,-17.3711],[28.3511,-17.3842],[28.3273,-17.4015],[28.2796,-17.3942],[28.2474,-17.4036],[28.2512,-17.4462],[28.2277,-17.4693],[28.2269,-17.504],[28.2046,-17.5443],[28.2022,-17.5765],[28.2188,-17.5803],[28.1979,-17.6158],[28.1948,-17.6665],[28.1433,-17.7374],[28.1167,-17.7272],[28.0937,-17.7444],[28.0699,-17.7895],[28.0912,-17.8383],[28.0685,-17.9366],[28.0499,-17.9405],[28.0083,-18.0181],[28.0304,-18.0611],[28.0709,-18.0594],[28.0698,-18.1377],[28.0492,-18.15],[28.051,-18.1804],[28.1099,-18.19],[28.0901,-18.2068],[28.0273,-18.2056],[27.9975,-18.2372],[27.9995,-18.5467],[28.0711,-18.5529],[28.1112,-18.5383],[28.1523,-18.5581],[28.3296,-18.5698],[28.4074,-18.5584],[28.458,-18.5677],[28.5716,-18.5553],[28.6447,-18.5619],[28.6807,-18.5507],[28.7506,-18.5707],[29.0903,-18.5786],[29.1289,-18.6123],[29.1255,-18.6334],[28.8669,-18.7233],[28.9377,-19.0099],[28.9776,-19.021],[28.9747,-19.0367],[29.0148,-19.0921],[28.9995,-19.1582],[29.0028,-19.1956],[29.0328,-19.2424],[29.0189,-19.2588],[29.0217,-19.2894],[29.092,-19.3735],[29.1487,-19.3951],[29.1962,-19.4586],[29.2399,-19.4841],[29.2798,-19.5323],[29.2823,-19.5651],[29.3015,-19.5743],[29.2955,-19.5835],[29.3165,-19.6173],[29.3568,-19.6414],[29.3631,-19.6791],[29.4015,-19.699],[29.4095,-19.7478],[29.4236,-19.7567],[29.4037,-19.8183],[29.4138,-19.8871],[29.4724,-19.8478],[29.5622,-19.8861],[29.5985,-19.9342],[29.6802,-19.9051],[29.6952,-19.9722],[29.7977,-19.9449],[29.8004,-20.0032],[29.8756,-20.0057],[29.8734,-20.0614],[29.816,-20.1592],[29.7309,-20.3915],[29.7312,-20.4556],[29.7011,-20.5162],[29.6053,-20.5753],[29.6203,-20.5952],[29.5845,-20.6043],[29.6079,-20.6682],[29.6617,-20.6547],[29.6754,-20.6705],[29.6243,-20.8912],[29.4578,-21.0156],[29.5925,-21.0405],[29.6896,-21.0213],[29.7846,-21.0315],[29.8236,-21.0129],[29.9274,-20.9228],[29.9707,-20.9094],[30.0688,-20.9663],[30.0736,-20.9901],[30.1948,-21.0381],[30.2501,-21.041],[30.2817,-21.0194],[30.3009,-21.0366],[30.3568,-21.0399],[30.3934,-21.0195],[30.4452,-20.9625],[30.4543,-20.8311],[30.4814,-20.7151],[30.5199,-20.6823],[30.4815,-20.6802],[30.4788,-20.6563],[30.4506,-20.6329],[30.4449,-20.573],[30.461,-20.5566],[30.4135,-20.4777],[30.3602,-20.4161],[30.3391,-20.4181],[30.3138,-20.3649],[30.258,-20.3523],[30.244,-20.3357],[30.2778,-20.229],[30.1978,-20.1717],[30.1585,-20.2065],[30.1481,-20.1992],[30.1667,-20.155],[30.1582,-20.1267],[30.1875,-20.098],[30.1917,-20.0673],[30.143,-20.0265],[30.3342,-19.9928],[30.431,-19.9901],[30.4254,-19.9433],[30.4549,-19.9324],[30.4705,-19.9037],[30.4545,-19.8952],[30.4482,-19.8694],[30.4599,-19.8397],[30.522,-19.8365],[30.6339,-19.8664],[30.6926,-19.856],[30.6778,-19.8419],[30.6776,-19.8134],[30.6928,-19.7795],[30.6902,-19.7484],[30.7047,-19.7441],[30.6965,-19.6911],[30.7094,-19.6369],[30.6872,-19.5879],[30.7127,-19.5589],[30.719,-19.5301],[30.714,-19.429],[30.7534,-19.4374],[30.76,-19.4145],[30.7584,-19.4026],[30.6957,-19.3958],[30.8705,-19.2605],[30.831,-19.2442],[30.8089,-19.2499],[30.7315,-19.1805],[30.7234,-19.1321],[30.7499,-19.1321],[30.6747,-19.0208],[30.7124,-18.9766],[30.6771,-18.9639],[30.6956,-18.9543],[30.6542,-18.8845],[30.6356,-18.9078],[30.6304,-18.9005],[30.575,-18.9405],[30.5544,-18.928],[30.5814,-18.9056],[30.5575,-18.8768]]]}}]}