{"type":"FeatureCollection","features":[{"type":"Feature","properties":{"name":"Ethiopia","iso":"ETH","iso2":"et","label":[39.0886,8.032795]},"geometry":{"type":"Polygon","coordinates":[[[35.2684,5.4923],[35.1645,5.5812],[35.0819,5.6731],[34.9836,5.8583],[34.959,6.0451],[34.8979,6.1598],[34.8381,6.3001],[34.7492,6.5679],[34.7106,6.6603],[34.5628,6.7798],[34.4844,6.8984],[34.2793,7.0028],[34.0643,7.2257],[34.0302,7.297],[34.0204,7.368],[33.9779,7.4346],[33.9024,7.5095],[33.6661,7.671],[33.5163,7.7078],[33.3923,7.7237],[33.226,7.7606],[33.0808,7.8237],[33.0146,7.8686],[32.9989,7.8995],[33.0126,7.9515],[33.0652,8.0405],[33.2343,8.3964],[33.2811,8.4373],[33.4094,8.4478],[33.5453,8.4434],[33.6448,8.4326],[33.7851,8.4311],[33.9533,8.4435],[34.0197,8.4921],[34.0728,8.5453],[34.0945,8.5822],[34.1016,8.7519],[34.0771,9.421],[34.0793,9.5135],[34.1203,9.7297],[34.1591,9.8534],[34.1853,9.9186],[34.2915,10.1248],[34.3112,10.1909],[34.3148,10.2516],[34.2757,10.5281],[34.3439,10.6586],[34.4314,10.7878],[34.5719,10.8802],[34.6018,10.8646],[34.675,10.8049],[34.7713,10.7462],[34.8162,10.7592],[34.8823,10.8105],[34.9314,10.8648],[34.9249,10.9621],[34.9691,11.1618],[34.9607,11.2768],[35.0079,11.4199],[35.0597,11.621],[35.0827,11.7483],[35.1123,11.8166],[35.2524,11.957],[35.3728,12.1556],[35.4496,12.3006],[35.5961,12.5373],[35.6702,12.6237],[35.7306,12.661],[35.8206,12.6849],[36.1075,12.7265],[36.1252,12.757],[36.1354,12.8053],[36.1371,12.9111],[36.1602,13.0933],[36.2122,13.2711],[36.2735,13.4058],[36.3463,13.5263],[36.3906,13.6261],[36.4471,13.842],[36.4439,13.9884],[36.5243,14.2568],[36.5424,14.2582],[36.6791,14.3076],[36.8119,14.315],[36.9407,14.2806],[37.0245,14.272],[37.0635,14.2893],[37.0994,14.334],[37.1326,14.4061],[37.1852,14.446],[37.2572,14.4538],[37.3537,14.3725],[37.5072,14.1564],[37.5468,14.1438],[37.5712,14.1491],[37.8842,14.8523],[37.9435,14.8105],[38.0025,14.7371],[38.0699,14.7027],[38.142,14.6815],[38.1771,14.6788],[38.2215,14.6497],[38.377,14.4704],[38.4314,14.4286],[38.5044,14.4244],[38.812,14.4823],[38.9957,14.5869],[39.0238,14.6282],[39.0742,14.6282],[39.1354,14.5819],[39.198,14.4794],[39.2701,14.4703],[39.5318,14.5367],[39.6979,14.499],[39.7562,14.499],[39.8951,14.4407],[40.0621,14.4591],[40.1406,14.4561],[40.2215,14.4312],[40.5244,14.2252],[40.7695,14.1445],[40.8201,14.1117],[40.9386,13.9831],[41.1224,13.7361],[41.3629,13.4998],[41.625,13.3132],[41.765,13.1839],[41.9521,12.8823],[42.1343,12.7714],[42.225,12.662],[42.2899,12.5702],[42.3785,12.4664],[41.9959,11.9124],[41.9496,11.8579],[41.8156,11.7238],[41.7927,11.686],[41.7665,11.5891],[41.7646,11.4129],[41.7982,10.9805],[41.8722,10.9558],[41.9574,10.941],[42.0521,10.9684],[42.1662,10.9916],[42.3081,11.0052],[42.4651,11.0471],[42.5577,11.0808],[42.655,11.0783],[42.7412,11.0424],[42.783,11.0093],[42.8441,10.9979],[42.9228,10.9993],[42.9062,10.9603],[42.7631,10.7869],[42.6596,10.6214],[42.6564,10.6],[42.6692,10.5676],[42.7252,10.4917],[42.7837,10.3696],[42.8164,10.2574],[42.8416,10.2031],[42.9125,10.1408],[43.0147,10.0126],[43.0689,9.9262],[43.1816,9.88],[43.2185,9.7702],[43.3031,9.6091],[43.3943,9.4803],[43.4825,9.3795],[43.5811,9.3407],[43.6205,9.3374],[43.9838,9.0088],[44.0229,8.986],[45.5555,8.483],[46.9195,8.0261],[46.9782,7.9971],[47.9782,7.9971],[46.4229,6.4973],[45.935,5.9972],[44.9405,4.912],[44.9116,4.8999],[43.9889,4.9505],[43.5835,4.855],[43.334,4.7504],[43.1257,4.6445],[43.016,4.5633],[42.931,4.4453],[42.8947,4.3611],[42.8566,4.3242],[42.7916,4.292],[42.3552,4.2123],[42.2284,4.2017],[42.0241,4.1379],[41.9153,4.0313],[41.884,3.9777],[41.7377,3.9791],[41.4819,3.9633],[41.3189,3.9431],[41.2209,3.9436],[41.1404,3.963],[41.0872,3.9919],[40.8727,4.1903],[40.7652,4.273],[40.5287,4.1776],[40.0142,3.9479],[39.8422,3.8515],[39.7903,3.7542],[39.6575,3.5778],[39.5389,3.4692],[39.4944,3.4561],[39.2255,3.4788],[39.1283,3.5009],[38.9678,3.5206],[38.7527,3.559],[38.608,3.6001],[38.2253,3.619],[38.0861,3.6488],[37.9449,3.7467],[37.3825,4.1108],[36.9056,4.4115],[36.8236,4.4301],[36.0819,4.4497],[36.022,4.4681],[35.9787,4.5038],[35.9198,4.6198],[35.8456,4.7026],[35.7631,4.808],[35.7562,4.9505],[35.7793,5.1056],[35.8003,5.1569],[35.7885,5.2081],[35.7914,5.2786],[35.745,5.344],[35.4687,5.4191],[35.424,5.4133],[35.3779,5.3852],[35.3253,5.3649],[35.2876,5.3841],[35.2646,5.4121],[35.2684,5.4923]]]}},{"type":"Feature","properties":{"name":"Eritrea","iso":"ERI","iso2":"er","label":[38.285566,15.787401]},"geometry":{"type":"MultiPolygon","coordinates":[[[[36.5243,14.2568],[36.4268,15.1321],[36.5218,15.2501],[36.566,15.3621],[36.6792,15.7264],[36.7245,15.7989],[36.8135,15.9939],[36.8259,16.0503],[36.9138,16.2962],[36.9055,16.4595],[36.8878,16.6247],[36.9787,16.8006],[36.9758,16.8666],[36.9952,17.0206],[37.009,17.0589],[37.0615,17.0613],[37.1695,17.0414],[37.2488,17.0569],[37.411,17.0617],[37.4529,17.1087],[37.5102,17.2881],[37.5475,17.3241],[37.6567,17.3683],[37.7824,17.458],[37.8033,17.4655],[37.863,17.4703],[37.9226,17.4923],[37.9501,17.5177],[38.0253,17.5378],[38.0989,17.5265],[38.1815,17.5628],[38.219,17.564],[38.2535,17.5848],[38.2673,17.6167],[38.3474,17.6836],[38.3737,17.7173],[38.3972,17.7784],[38.4225,17.8239],[38.5229,17.9385],[38.6095,18.0051],[38.9117,17.4271],[39.0345,17.0855],[39.1426,16.7292],[39.2226,16.1937],[39.2989,15.9211],[39.4223,15.7867],[39.5065,15.5321],[39.5788,15.5225],[39.6313,15.4525],[39.7208,15.2137],[39.7855,15.1249],[39.8194,15.2013],[39.8156,15.2453],[39.7903,15.3188],[39.8135,15.4136],[39.8638,15.4703],[39.9783,15.3931],[40.041,15.3345],[40.0578,15.2171],[40.0841,15.152],[40.2041,15.0141],[40.3053,14.974],[40.4365,14.964],[40.5463,14.9336],[40.6344,14.883],[40.7993,14.743],[41.1765,14.6203],[41.4797,14.2439],[41.6582,13.9831],[42.2451,13.5876],[42.3465,13.3981],[42.3993,13.2126],[42.5229,13.2215],[42.7345,13.0186],[42.7962,12.8643],[42.9695,12.8084],[42.999,12.8995],[43.0829,12.8246],[43.1167,12.7086],[43.0057,12.6623],[42.8833,12.6213],[42.8659,12.6228],[42.8253,12.5693],[42.7675,12.4229],[42.7037,12.3803],[42.6701,12.3766],[42.4794,12.5136],[42.45,12.5213],[42.3785,12.4664],[42.2899,12.5702],[42.225,12.662],[42.1343,12.7714],[41.9521,12.8823],[41.765,13.1839],[41.625,13.3132],[41.3629,13.4998],[41.1224,13.7361],[40.9386,13.9831],[40.8201,14.1117],[40.7695,14.1445],[40.5244,14.2252],[40.2215,14.4312],[40.1406,14.4561],[40.0621,14.4591],[39.8951,14.4407],[39.7562,14.499],[39.6979,14.499],[39.5318,14.5367],[39.2701,14.4703],[39.198,14.4794],[39.1354,14.5819],[39.0742,14.6282],[39.0238,14.6282],[38.9957,14.5869],[38.812,14.4823],[38.5044,14.4244],[38.4314,14.4286],[38.377,14.4704],[38.2215,14.6497],[38.1771,14.6788],[38.142,14.6815],[38.0699,14.7027],[38.0025,14.7371],[37.9435,14.8105],[37.8842,14.8523],[37.5712,14.1491],[37.5468,14.1438],[37.5072,14.1564],[37.3537,14.3725],[37.2572,14.4538],[37.1852,14.446],[37.1326,14.4061],[37.0994,14.334],[37.0635,14.2893],[37.0245,14.272],[36.9407,14.2806],[36.8119,14.315],[36.6791,14.3076],[36.5424,14.2582],[36.5243,14.2568]]],[[[40.0765,16.0824],[40.1101,15.9857],[40.0124,16.0227],[39.9961,16.0427],[40.0391,16.081],[40.0481,16.1045],[40.0765,16.0824]]],[[[40.1412,15.6961],[40.1825,15.6429],[40.2114,15.6481],[40.2341,15.6659],[40.2501,15.7035],[40.4082,15.6292],[40.399,15.5799],[40.3047,15.5773],[40.1958,15.5981],[40.0951,15.5909],[39.9752,15.6125],[39.9475,15.6961],[40.0239,15.6556],[40.0635,15.6659],[40.0705,15.6766],[40.0163,15.7333],[39.9399,15.7445],[39.9452,15.7891],[39.9794,15.8066],[40.0005,15.8283],[39.9567,15.8894],[40.0426,15.8755],[40.0968,15.8385],[40.1324,15.7953],[40.1412,15.6961]]]]}},{"type":"Feature","properties":{"name":"Equatorial Guinea","iso":"GNQ","iso2":"gq","label":[8.9902,2.333]},"geometry":{"type":"MultiPolygon","coordinates":[[[[8.7357,3.7583],[8.9101,3.7582],[8.9507,3.7053],[8.9461,3.6275],[8.7922,3.4004],[8.7635,3.3046],[8.704,3.2236],[8.6523,3.2171],[8.4749,3.2646],[8.4449,3.2935],[8.4343,3.3324],[8.4518,3.4229],[8.4646,3.4506],[8.5498,3.4676],[8.5772,3.4824],[8.6228,3.58],[8.6377,3.6688],[8.6759,3.7359],[8.7357,3.7583]]],[[[11.3287,2.1674],[11.3354,0.9997],[10.0285,1.004],[9.9798,0.9977],[9.9467,0.9671],[9.9067,0.9601],[9.8604,0.9862],[9.8039,0.9987],[9.7605,1.0747],[9.7046,1.08],[9.6765,1.0747],[9.6361,1.0467],[9.5908,1.032],[9.5994,1.0544],[9.5099,1.1148],[9.4453,1.1207],[9.3859,1.1393],[9.4341,1.2964],[9.4942,1.4353],[9.5843,1.5402],[9.6321,1.5655],[9.6477,1.6176],[9.7188,1.7887],[9.807,1.9275],[9.7797,2.0682],[9.8008,2.3044],[9.8262,2.2978],[9.8369,2.2424],[9.8701,2.2133],[9.9799,2.1678],[11.3287,2.1674]]]]}},{"type":"Feature","properties":{"name":"Ivory Coast","iso":"CIV","iso2":"ci","label":[-5.568618,7.49139]},"geometry":{"type":"MultiPolygon","coordinates":[[[[-3.0867,5.1283],[-3.114,5.0887],[-3.2464,5.1141],[-3.2149,5.1472],[-3.0867,5.1283]]],[[[-7.9906,10.1625],[-7.9609,10.1635],[-7.8841,10.1857],[-7.8142,10.2366],[-7.7491,10.3423],[-7.6611,10.4274],[-7.5621,10.4212],[-7.5328,10.4368],[-7.4979,10.4398],[-7.4565,10.3839],[-7.4148,10.3413],[-7.3851,10.3401],[-7.3632,10.2594],[-7.1823,10.2257],[-7.1049,10.2035],[-7.0397,10.1448],[-7.0171,10.1433],[-6.9895,10.1557],[-6.9682,10.1762],[-6.9638,10.1987],[-6.9917,10.2519],[-6.9795,10.2996],[-6.9503,10.3423],[-6.8336,10.357],[-6.7532,10.3571],[-6.6933,10.3495],[-6.6693,10.3922],[-6.692,10.512],[-6.6861,10.578],[-6.6764,10.6338],[-6.6541,10.6564],[-6.5646,10.5864],[-6.4826,10.5612],[-6.4239,10.5591],[-6.4075,10.5724],[-6.4326,10.6487],[-6.4259,10.6718],[-6.4041,10.6851],[-6.2611,10.7241],[-6.2502,10.7179],[-6.2307,10.5975],[-6.2397,10.5581],[-6.1907,10.4003],[-6.1926,10.3694],[-6.2413,10.2792],[-6.2384,10.2616],[-6.1969,10.2321],[-6.1172,10.2019],[-6.0346,10.1948],[-5.9076,10.3072],[-5.8962,10.3547],[-5.8438,10.3896],[-5.6943,10.4332],[-5.5566,10.4399],[-5.5235,10.426],[-5.4613,10.3596],[-5.3823,10.314],[-5.2623,10.3197],[-5.1753,10.2926],[-5.0999,10.2416],[-5.0493,10.1283],[-4.994,10.0465],[-4.9699,9.9301],[-4.8827,9.8689],[-4.8145,9.8412],[-4.7218,9.7565],[-4.6258,9.7136],[-4.5266,9.7235],[-4.4803,9.6792],[-4.4062,9.648],[-4.3322,9.6457],[-4.2672,9.7433],[-4.1812,9.7817],[-3.8776,9.8949],[-3.7906,9.9172],[-3.5812,9.9243],[-3.3863,9.9003],[-3.2897,9.8822],[-3.2235,9.8955],[-3.1607,9.8492],[-3.0958,9.7521],[-2.9883,9.6874],[-2.9009,9.5346],[-2.8167,9.4258],[-2.7666,9.4247],[-2.7172,9.4571],[-2.6959,9.4813],[-2.6861,9.4317],[-2.7058,9.3514],[-2.7018,9.3017],[-2.6742,9.2826],[-2.6892,9.2186],[-2.7467,9.1096],[-2.7469,9.0451],[-2.6899,9.0251],[-2.6492,8.9566],[-2.6249,8.8396],[-2.6004,8.8004],[-2.5569,8.493],[-2.5059,8.2087],[-2.5383,8.1716],[-2.6117,8.1476],[-2.62,8.1211],[-2.601,8.0822],[-2.6134,8.0467],[-2.6688,8.0222],[-2.7897,7.9319],[-2.7981,7.896],[-2.8301,7.819],[-2.8963,7.685],[-2.9591,7.4545],[-2.9858,7.2049],[-3.0377,7.1046],[-3.1689,6.941],[-3.2358,6.8072],[-3.2241,6.6908],[-3.2439,6.6487],[-3.2403,6.5356],[-3.2006,6.3482],[-3.1056,6.0856],[-2.9983,5.7113],[-2.9728,5.6763],[-2.9623,5.643],[-2.8212,5.6192],[-2.7937,5.6001],[-2.755,5.4325],[-2.7619,5.3569],[-2.7896,5.3282],[-2.7952,5.1845],[-2.8157,5.153],[-2.8947,5.149],[-2.9483,5.1188],[-3.0191,5.1308],[-3.0259,5.1505],[-3.064,5.1577],[-3.1687,5.203],[-3.1514,5.3483],[-3.2,5.3545],[-3.2376,5.3354],[-3.312,5.1608],[-3.3476,5.1307],[-3.8706,5.2207],[-3.9842,5.2932],[-4.1202,5.3097],[-4.3573,5.3014],[-4.5528,5.2799],[-4.6089,5.2359],[-4.1152,5.2616],[-4.0621,5.2566],[-4.0372,5.2301],[-4.6615,5.1726],[-4.8997,5.1383],[-4.9701,5.1478],[-5.0237,5.2036],[-5.2824,5.2103],[-5.3354,5.192],[-5.3675,5.1508],[-5.2658,5.1597],[-5.1049,5.1622],[-5.0618,5.1307],[-5.5647,5.0895],[-5.9138,5.0109],[-6.5484,4.7618],[-6.8452,4.6715],[-6.9229,4.6383],[-7.058,4.5447],[-7.2314,4.486],[-7.4261,4.376],[-7.545,4.3513],[-7.5716,4.3864],[-7.5747,4.5723],[-7.5912,4.8215],[-7.5851,4.9167],[-7.5693,5.0064],[-7.5689,5.0807],[-7.5098,5.1085],[-7.4941,5.1398],[-7.4852,5.2364],[-7.4298,5.3245],[-7.4289,5.4779],[-7.3999,5.5506],[-7.4237,5.6513],[-7.4544,5.8413],[-7.4694,5.8537],[-7.4828,5.8455],[-7.5139,5.842],[-7.6361,5.9077],[-7.7304,5.919],[-7.7965,5.9751],[-7.8009,6.0389],[-7.8333,6.0764],[-7.8886,6.2349],[-7.9816,6.2861],[-8.0689,6.2984],[-8.131,6.2875],[-8.2039,6.2907],[-8.2871,6.319],[-8.3449,6.3513],[-8.4499,6.4625],[-8.4903,6.4564],[-8.5396,6.4681],[-8.5879,6.4905],[-8.6036,6.5078],[-8.4012,6.7051],[-8.3326,6.8016],[-8.3245,6.92],[-8.3023,6.981],[-8.2966,7.074],[-8.4087,7.4118],[-8.4372,7.5164],[-8.4864,7.5585],[-8.43,7.6019],[-8.3518,7.5906],[-8.2319,7.5567],[-8.206,7.5902],[-8.1154,7.7607],[-8.1178,7.824],[-8.1269,7.8677],[-8.0738,7.9844],[-8.0317,8.0297],[-8.0099,8.0785],[-8.0167,8.1449],[-8.0486,8.1697],[-8.0905,8.1651],[-8.1406,8.1814],[-8.2171,8.2197],[-8.2561,8.2537],[-8.237,8.4557],[-8.21,8.4833],[-8.1678,8.4907],[-8.0491,8.4953],[-7.9531,8.4777],[-7.8236,8.4677],[-7.7874,8.422],[-7.739,8.3752],[-7.6961,8.3756],[-7.6812,8.4104],[-7.691,8.5625],[-7.7196,8.643],[-7.784,8.7206],[-7.951,8.7868],[-7.955,8.8794],[-7.9382,8.9798],[-7.9021,9.0171],[-7.778,9.0809],[-7.7998,9.115],[-7.8394,9.1516],[-7.9181,9.1885],[-7.9,9.3087],[-7.8962,9.4159],[-8.031,9.3977],[-8.0887,9.4307],[-8.137,9.4957],[-8.146,9.6748],[-8.1458,9.8817],[-8.1552,9.9732],[-8.1366,10.0221],[-8.0135,10.1253],[-7.9906,10.1625]]]]}},{"type":"Feature","properties":{"name":"Democratic Republic of the Congo","iso":"COD","iso2":"cd","label":[23.458829,-1.858167]},"geometry":{"type":"Polygon","coordinates":[[[30.7512,-8.1937],[28.9723,-8.4649],[28.8981,-8.4854],[28.9345,-8.5902],[28.9178,-8.7006],[28.8695,-8.7858],[28.7936,-8.891],[28.6812,-9.0146],[28.6165,-9.0723],[28.4007,-9.2248],[28.4002,-9.275],[28.5405,-9.5101],[28.6042,-9.6788],[28.6301,-9.8313],[28.6172,-10.313],[28.6074,-10.3974],[28.6455,-10.5502],[28.6389,-10.6692],[28.5442,-10.8023],[28.518,-10.9332],[28.4042,-11.3544],[28.3572,-11.483],[28.4318,-11.6983],[28.4825,-11.8121],[28.5746,-11.9081],[28.7694,-12.0513],[28.85,-12.1205],[29.0644,-12.3488],[29.3438,-12.4048],[29.4275,-12.4313],[29.4855,-12.4185],[29.5049,-12.3861],[29.5022,-12.3176],[29.492,-12.2669],[29.5082,-12.2282],[29.5598,-12.2024],[29.692,-12.1983],[29.7496,-12.1641],[29.7951,-12.1555],[29.7965,-13.3697],[29.7953,-13.3928],[29.7752,-13.4381],[29.7227,-13.4538],[29.6518,-13.4144],[29.6303,-13.2985],[29.5972,-13.2605],[29.5542,-13.2489],[29.4814,-13.268],[29.3818,-13.3229],[29.2537,-13.3708],[29.2019,-13.3983],[29.1116,-13.3951],[29.0143,-13.3688],[28.9423,-13.3071],[28.9217,-13.2146],[28.7731,-12.9819],[28.6729,-12.8613],[28.6154,-12.8541],[28.5509,-12.8361],[28.5112,-12.7422],[28.4744,-12.6233],[28.4129,-12.5181],[28.3577,-12.482],[27.8574,-12.2849],[27.7568,-12.2809],[27.6443,-12.2668],[27.5738,-12.2271],[27.5334,-12.1953],[27.4236,-11.9445],[27.2381,-11.7835],[27.1964,-11.6051],[27.1592,-11.5792],[27.0954,-11.5938],[27.0461,-11.6159],[26.9496,-11.8988],[26.9309,-11.9193],[26.8904,-11.9436],[26.824,-11.9652],[26.7297,-11.976],[26.5964,-11.9721],[26.3396,-11.9299],[26.0964,-11.9032],[26.026,-11.8901],[25.9266,-11.8553],[25.8549,-11.8201],[25.6188,-11.7441],[25.5119,-11.7534],[25.46,-11.6998],[25.4134,-11.6735],[25.3494,-11.623],[25.3207,-11.5535],[25.2826,-11.405],[25.2918,-11.3255],[25.3193,-11.2369],[25.2888,-11.2124],[25.246,-11.2124],[25.1849,-11.243],[24.8769,-11.2991],[24.6683,-11.3529],[24.5186,-11.4385],[24.4666,-11.4477],[24.3779,-11.4171],[24.3352,-11.3713],[24.3779,-11.3193],[24.3963,-11.2552],[24.3657,-11.1299],[24.3199,-11.0718],[24.1872,-11.03],[24.1365,-11.026],[24.1151,-10.9557],[24.0784,-10.8915],[23.9665,-10.8718],[23.9287,-10.8915],[23.9073,-10.9435],[23.9012,-10.9832],[23.8339,-11.0137],[23.6964,-11.0076],[23.56,-10.9786],[23.464,-10.9693],[23.4002,-10.9765],[23.1567,-11.0748],[23.0763,-11.0879],[22.8147,-11.0803],[22.6665,-11.0598],[22.561,-11.0559],[22.4861,-11.0867],[22.393,-11.1595],[22.3149,-11.1986],[22.2788,-11.1941],[22.2262,-11.122],[22.2167,-11.0127],[22.1779,-10.8923],[22.2035,-10.8295],[22.2805,-10.784],[22.307,-10.6913],[22.2832,-10.5516],[22.2816,-10.4533],[22.3024,-10.3967],[22.2745,-10.2591],[22.1978,-10.0406],[22.0892,-9.8628],[21.9486,-9.7256],[21.8566,-9.5942],[21.8132,-9.4688],[21.8295,-9.1685],[21.9054,-8.6934],[21.8959,-8.3411],[21.8009,-8.1119],[21.7801,-7.8654],[21.8336,-7.6017],[21.8416,-7.421],[21.8061,-7.3286],[21.7816,-7.3146],[21.7511,-7.3055],[21.1903,-7.285],[20.6078,-7.2777],[20.5584,-7.2444],[20.5358,-7.1828],[20.5369,-7.1218],[20.5987,-6.9352],[20.59,-6.9199],[20.4822,-6.9158],[20.19,-6.9463],[19.9975,-6.9765],[19.8752,-6.9863],[19.6604,-7.0371],[19.5276,-7.1444],[19.4838,-7.2795],[19.4874,-7.3907],[19.4799,-7.4722],[19.4193,-7.5573],[19.3717,-7.6551],[19.3408,-7.9666],[19.1427,-8.0015],[18.9444,-8.0015],[18.8983,-7.9981],[18.6534,-7.936],[18.5627,-7.9359],[18.4847,-7.9686],[18.1915,-8.0238],[18.0472,-8.1008],[18.0088,-8.1076],[17.9131,-8.0677],[17.7788,-8.0714],[17.5796,-8.099],[17.536,-8.0759],[17.245,-7.6233],[17.1551,-7.4613],[17.1216,-7.419],[17.0638,-7.3631],[16.9848,-7.2574],[16.9521,-7.157],[16.9658,-7.0621],[16.9194,-6.934],[16.8131,-6.7726],[16.743,-6.6185],[16.7094,-6.4717],[16.701,-6.346],[16.7178,-6.2414],[16.6973,-6.1643],[16.6396,-6.1146],[16.608,-6.0516],[16.5371,-5.9658],[16.4314,-5.9002],[16.3152,-5.8656],[15.727,-5.8639],[14.7494,-5.8801],[14.6579,-5.8889],[14.3986,-5.8927],[14.1138,-5.8651],[13.9785,-5.8572],[13.7646,-5.8552],[13.649,-5.8617],[13.3715,-5.8618],[13.3465,-5.8634],[13.3026,-5.8818],[13.1844,-5.8563],[13.0682,-5.8648],[13.0033,-5.8361],[12.8608,-5.8541],[12.7916,-5.8777],[12.6807,-5.9608],[12.5146,-6.0042],[12.4529,-6.0005],[12.4117,-5.9863],[12.315,-5.8953],[12.2404,-5.8073],[12.2137,-5.7587],[12.2553,-5.7465],[12.4846,-5.7188],[12.5037,-5.6958],[12.5189,-5.4246],[12.5224,-5.1489],[12.4874,-5.1127],[12.4532,-5.0906],[12.4515,-5.0715],[12.5962,-4.9784],[12.6748,-4.9054],[12.8297,-4.7366],[13.0573,-4.6511],[13.0728,-4.6348],[13.0874,-4.602],[13.1366,-4.6043],[13.2196,-4.7059],[13.3758,-4.8294],[13.4149,-4.8374],[13.4784,-4.805],[13.5517,-4.7567],[13.6596,-4.7215],[13.6854,-4.6887],[13.6994,-4.6184],[13.7171,-4.4545],[13.7391,-4.4425],[13.778,-4.4339],[13.8495,-4.4589],[13.8823,-4.4847],[13.9409,-4.4847],[14.0469,-4.4175],[14.1339,-4.4],[14.2271,-4.3581],[14.3162,-4.3041],[14.3583,-4.2994],[14.4029,-4.3697],[14.4428,-4.419],[14.4498,-4.4495],[14.3654,-4.5855],[14.4029,-4.6816],[14.4119,-4.775],[14.4107,-4.8312],[14.4616,-4.8649],[14.4939,-4.8517],[14.5576,-4.8558],[14.634,-4.8851],[14.7079,-4.8817],[14.7793,-4.8457],[14.9121,-4.7056],[15.1062,-4.461],[15.2672,-4.3076],[15.3946,-4.2449],[15.481,-4.1718],[15.526,-4.088],[15.6001,-4.031],[15.7546,-3.9855],[15.8725,-3.9343],[15.99,-3.7662],[16.1468,-3.4642],[16.2174,-3.0303],[16.1916,-2.2791],[16.2153,-2.1778],[16.2739,-2.1082],[16.4336,-1.9608],[16.5407,-1.8401],[16.6225,-1.6989],[16.7801,-1.3764],[16.8799,-1.2259],[16.9747,-1.1399],[17.1076,-1.0645],[17.2788,-0.9996],[17.5429,-0.775],[17.7528,-0.549],[17.7241,-0.2775],[17.7731,-0.0524],[17.8877,0.2341],[17.9252,0.5373],[17.8857,0.8569],[17.9024,1.1181],[18.0578,1.5349],[18.0729,1.7194],[18.0722,2.0133],[18.2116,2.4149],[18.4909,2.9244],[18.6222,3.3041],[18.5967,3.6787],[18.6337,3.9543],[18.6199,4.1166],[18.5675,4.2576],[18.5941,4.3462],[18.6999,4.3826],[18.8317,4.5234],[19.0686,4.8914],[19.3234,5.0708],[19.501,5.1275],[19.686,5.1214],[19.8065,5.0893],[19.8625,5.0313],[20.0023,4.9447],[20.2264,4.8296],[20.3936,4.6862],[20.4865,4.5416],[20.5581,4.4627],[20.6475,4.4356],[20.793,4.4473],[20.9558,4.4131],[21.1256,4.3322],[21.2298,4.3022],[21.2684,4.3231],[21.3502,4.3114],[21.5376,4.2448],[21.687,4.2814],[21.9082,4.2539],[22.4222,4.135],[22.4618,4.1598],[22.5057,4.2077],[22.6172,4.4456],[22.7117,4.5917],[22.7558,4.6467],[22.8646,4.7239],[22.9929,4.7438],[23.1159,4.7369],[23.2188,4.703],[23.3129,4.6635],[23.4172,4.6631],[23.5236,4.7013],[23.6818,4.7708],[23.8484,4.8164],[23.9917,4.8663],[24.2277,4.9539],[24.3198,4.9941],[24.4371,5.01],[24.7655,4.9301],[24.9784,4.983],[25.0652,4.9674],[25.2493,5.0246],[25.2831,5.0627],[25.4002,5.2559],[25.5251,5.3121],[25.7139,5.2837],[26.1735,5.1711],[26.6326,5.0852],[26.8221,5.0624],[26.8701,5.0757],[27.0206,5.1844],[27.0719,5.1998],[27.1149,5.1979],[27.4033,5.1092],[27.4393,5.0392],[27.491,4.9676],[27.6642,4.846],[27.7192,4.7783],[27.7881,4.6447],[27.8416,4.5978],[27.9166,4.5679],[27.9807,4.5321],[28.0198,4.4794],[28.0786,4.4248],[28.1921,4.3502],[28.311,4.338],[28.3672,4.3187],[28.4275,4.3242],[28.5248,4.3729],[28.6396,4.4545],[28.7271,4.505],[28.9394,4.4871],[29.0574,4.4459],[29.1515,4.3882],[29.2249,4.3919],[29.3849,4.4984],[29.4696,4.6118],[29.5521,4.636],[29.6769,4.5869],[29.7799,4.481],[29.8702,4.3271],[30.0214,4.1776],[30.1949,3.9819],[30.4207,3.8839],[30.5083,3.8357],[30.5369,3.7872],[30.5535,3.7229],[30.5594,3.6528],[30.5867,3.6242],[30.6999,3.6441],[30.7572,3.6242],[30.797,3.5731],[30.8386,3.4907],[30.8953,3.4637],[30.9064,3.4089],[30.8278,3.2826],[30.7793,3.1634],[30.754,3.0418],[30.8214,2.9676],[30.8399,2.9335],[30.8508,2.8937],[30.8467,2.847],[30.7695,2.678],[30.7299,2.5303],[30.7286,2.4554],[30.8301,2.4004],[30.9619,2.4033],[31.0036,2.3694],[31.0453,2.3155],[31.0821,2.2881],[31.1376,2.2889],[31.1764,2.2701],[31.1914,2.2323],[31.2363,2.1914],[31.274,2.1463],[31.2561,2.0885],[31.2527,2.0446],[31.1588,1.922],[30.9426,1.6828],[30.4778,1.2388],[30.3211,1.1853],[30.2401,1.1028],[30.1829,0.9735],[30.0474,0.8635],[29.9429,0.8192],[29.9316,0.7929],[29.9238,0.6739],[29.9345,0.499],[29.8854,0.4189],[29.8146,0.2636],[29.7778,0.1664],[29.7497,0.1472],[29.7177,0.0983],[29.6979,-0.0602],[29.6844,-0.1136],[29.6332,-0.4417],[29.6479,-0.5353],[29.6082,-0.6913],[29.6064,-0.7831],[29.59,-0.8871],[29.5619,-0.9773],[29.5641,-1.1214],[29.58,-1.3567],[29.577,-1.3879],[29.5378,-1.4098],[29.468,-1.4681],[29.402,-1.5074],[29.3517,-1.5176],[29.1966,-1.7199],[29.1433,-1.816],[29.1294,-1.8603],[29.148,-2.1318],[29.1315,-2.1951],[29.1064,-2.2332],[28.9896,-2.3128],[28.8764,-2.4003],[28.8576,-2.4467],[28.8914,-2.5556],[28.8939,-2.6351],[28.9218,-2.682],[29.0144,-2.7202],[29.0166,-2.7996],[29.1532,-2.9553],[29.2244,-3.0535],[29.2261,-3.1387],[29.2101,-3.3633],[29.2172,-3.4757],[29.2118,-3.8338],[29.2232,-3.9108],[29.3313,-4.0954],[29.3792,-4.2997],[29.4032,-4.4493],[29.4042,-4.4967],[29.3257,-4.8356],[29.3234,-4.8988],[29.3428,-4.9831],[29.4765,-5.3166],[29.5424,-5.4998],[29.5941,-5.6508],[29.607,-5.7227],[29.5964,-5.776],[29.4908,-5.9654],[29.4801,-6.025],[29.5063,-6.1721],[29.5408,-6.3139],[29.5906,-6.3944],[29.7097,-6.6169],[29.7981,-6.6919],[29.9618,-6.8031],[30.1062,-6.915],[30.1618,-6.973],[30.2127,-7.0379],[30.3132,-7.2037],[30.3745,-7.3387],[30.4067,-7.4606],[30.5589,-7.7819],[30.7209,-8.1044],[30.7512,-8.1937]]]}},{"type":"Feature","properties":{"name":"Republic of the Congo","iso":"COG","iso2":"cg","label":[15.9005,0.142331]},"geometry":{"type":"Polygon","coordinates":[[[11.1302,-3.9163],[11.19,-3.762],[11.2345,-3.6908],[11.2883,-3.6411],[11.5043,-3.5203],[11.5368,-3.525],[11.6857,-3.682],[11.7334,-3.6945],[11.7864,-3.6902],[11.8491,-3.6967],[11.8799,-3.6659],[11.8848,-3.6254],[11.8395,-3.5801],[11.8329,-3.5314],[11.8647,-3.4786],[11.8828,-3.4202],[11.9293,-3.351],[11.9342,-3.3186],[11.8851,-3.2832],[11.7844,-3.2291],[11.7154,-3.177],[11.6891,-3.127],[11.708,-3.0631],[11.7635,-3.0112],[11.7602,-2.9831],[11.7113,-2.9365],[11.6757,-2.8866],[11.6391,-2.8554],[11.5378,-2.8367],[11.5945,-2.671],[11.6034,-2.5954],[11.5752,-2.3971],[11.5777,-2.3609],[11.6055,-2.3426],[11.7268,-2.3947],[11.8924,-2.3515],[11.9503,-2.3448],[11.9982,-2.3828],[12.0645,-2.4126],[12.4464,-2.33],[12.4538,-2.2456],[12.4757,-2.1692],[12.4785,-2.112],[12.4437,-2.0476],[12.4324,-1.9903],[12.4321,-1.9289],[12.4687,-1.9],[12.5904,-1.8269],[12.6284,-1.8296],[12.7137,-1.8694],[12.7936,-1.9318],[12.8645,-2.0633],[12.9136,-2.1763],[12.992,-2.3134],[13.1586,-2.3691],[13.3573,-2.4048],[13.4649,-2.3954],[13.6186,-2.2786],[13.7056,-2.1875],[13.7338,-2.1385],[13.7844,-2.1638],[13.8416,-2.2837],[13.8785,-2.3302],[13.8877,-2.3745],[13.8618,-2.4299],[13.8869,-2.4654],[13.9938,-2.4906],[14.0874,-2.4669],[14.1298,-2.418],[14.1998,-2.3542],[14.2004,-2.3006],[14.1629,-2.2655],[14.1629,-2.2176],[14.2018,-2.1799],[14.2396,-2.0768],[14.2515,-2.0015],[14.2884,-1.9535],[14.3586,-1.9202],[14.384,-1.89],[14.4232,-1.7115],[14.4029,-1.647],[14.4029,-1.5934],[14.4473,-1.5251],[14.4556,-1.4132],[14.4106,-0.9721],[14.4806,-0.6184],[14.4741,-0.5734],[14.4247,-0.5187],[14.3638,-0.4686],[14.2067,-0.4273],[14.1483,-0.3619],[14.1028,-0.2924],[14.0694,-0.2701],[13.898,-0.2426],[13.8601,-0.2033],[13.8906,0.0753],[13.8846,0.1908],[13.9151,0.284],[13.9496,0.3538],[14.0253,0.4277],[14.0655,0.515],[14.0875,0.5366],[14.231,0.5511],[14.3242,0.6242],[14.3415,0.6738],[14.3906,0.7557],[14.4345,0.8115],[14.4392,0.8491],[14.4299,0.9015],[14.3864,1.0044],[14.3345,1.0902],[14.303,1.1208],[14.2397,1.3226],[14.1809,1.3702],[14.0662,1.3959],[13.8514,1.4187],[13.2741,1.241],[13.2163,1.2484],[13.1901,1.2792],[13.2283,1.3054],[13.2474,1.3667],[13.2228,1.4546],[13.1846,1.5351],[13.1627,1.6481],[13.1722,1.7886],[13.2095,1.9204],[13.2887,2.0917],[13.2936,2.1616],[14.287,2.1604],[14.4841,2.1547],[14.5789,2.1991],[14.6691,2.1321],[14.7133,2.1171],[14.7283,2.1224],[14.7629,2.0752],[14.875,2.0805],[14.8928,2.0693],[14.9024,2.0123],[15.0064,2.0138],[15.0578,2.0009],[15.0996,2.0023],[15.1601,2.0356],[15.2035,2.0245],[15.3388,1.9447],[15.4175,1.9567],[15.6003,1.9504],[15.7416,1.915],[15.8816,1.8166],[15.9752,1.76],[16.0594,1.6762],[16.1361,1.7242],[16.135,1.7959],[16.0879,1.9181],[16.0696,2.0217],[16.0801,2.1068],[16.1157,2.1678],[16.1766,2.2048],[16.1834,2.2701],[16.4686,2.8317],[16.4596,2.8965],[16.4801,3.101],[16.4768,3.1651],[16.4963,3.2088],[16.5704,3.4631],[16.6107,3.5054],[16.6733,3.5352],[16.7644,3.5363],[17.0025,3.5567],[17.2247,3.5984],[17.2984,3.6172],[17.438,3.6846],[17.4916,3.6873],[17.5377,3.6616],[17.8066,3.5842],[17.8804,3.5539],[17.9071,3.5584],[18.0107,3.5508],[18.0723,3.5603],[18.1113,3.5511],[18.1609,3.4998],[18.1939,3.5054],[18.2371,3.5427],[18.3182,3.5808],[18.4744,3.623],[18.4998,3.6041],[18.5538,3.5102],[18.6104,3.4784],[18.6222,3.3041],[18.4909,2.9244],[18.2116,2.4149],[18.0722,2.0133],[18.0729,1.7194],[18.0578,1.5349],[17.9024,1.1181],[17.8857,0.8569],[17.9252,0.5373],[17.8877,0.2341],[17.7731,-0.0524],[17.7241,-0.2775],[17.7528,-0.549],[17.5429,-0.775],[17.2788,-0.9996],[17.1076,-1.0645],[16.9747,-1.1399],[16.8799,-1.2259],[16.7801,-1.3764],[16.6225,-1.6989],[16.5407,-1.8401],[16.4336,-1.9608],[16.2739,-2.1082],[16.2153,-2.1778],[16.1916,-2.2791],[16.2174,-3.0303],[16.1468,-3.4642],[15.99,-3.7662],[15.8725,-3.9343],[15.7546,-3.9855],[15.6001,-4.031],[15.526,-4.088],[15.481,-4.1718],[15.3946,-4.2449],[15.2672,-4.3076],[15.1062,-4.461],[14.9121,-4.7056],[14.7793,-4.8457],[14.7079,-4.8817],[14.634,-4.8851],[14.5576,-4.8558],[14.4939,-4.8517],[14.4616,-4.8649],[14.4107,-4.8312],[14.4119,-4.775],[14.4029,-4.6816],[14.3654,-4.5855],[14.4498,-4.4495],[14.4428,-4.419],[14.4029,-4.3697],[14.3583,-4.2994],[14.3162,-4.3041],[14.2271,-4.3581],[14.1339,-4.4],[14.0469,-4.4175],[13.9409,-4.4847],[13.8823,-4.4847],[13.8495,-4.4589],[13.778,-4.4339],[13.7391,-4.4425],[13.7171,-4.4545],[13.6994,-4.6184],[13.6854,-4.6887],[13.6596,-4.7215],[13.5517,-4.7567],[13.4784,-4.805],[13.4149,-4.8374],[13.3758,-4.8294],[13.2196,-4.7059],[13.1366,-4.6043],[13.0874,-4.602],[13.0728,-4.6348],[12.9714,-4.5518],[12.8811,-4.4451],[12.8481,-4.4289],[12.7982,-4.4306],[12.7194,-4.4697],[12.6417,-4.5312],[12.5015,-4.5875],[12.3846,-4.6191],[12.3467,-4.7241],[12.3079,-4.7655],[12.2043,-4.7786],[12.1671,-4.8377],[12.0775,-4.9521],[12.0184,-5.0043],[12.0027,-4.982],[11.9668,-4.9544],[11.8933,-4.8657],[11.8207,-4.7555],[11.8013,-4.7052],[11.7809,-4.6766],[11.7775,-4.5658],[11.6681,-4.4343],[11.3938,-4.2003],[11.3645,-4.1306],[11.1302,-3.9163]]]}},{"type":"Feature","properties":{"name":"Comoros","iso":"COM","iso2":"km","label":[43.318094,-11.727683]},"geometry":{"type":"MultiPolygon","coordinates":[[[[44.4764,-12.0815],[44.5268,-12.2195],[44.5263,-12.3235],[44.505,-12.3565],[44.4602,-12.3352],[44.3774,-12.2522],[44.2201,-12.1714],[44.2923,-12.1647],[44.3345,-12.173],[44.3791,-12.1656],[44.407,-12.1201],[44.4126,-12.093],[44.4519,-12.0714],[44.4764,-12.0815]]],[[[43.7887,-12.307],[43.859,-12.3683],[43.6637,-12.3429],[43.6329,-12.2877],[43.6313,-12.2471],[43.7043,-12.256],[43.7887,-12.307]]],[[[43.4658,-11.9013],[43.4468,-11.9146],[43.3555,-11.8575],[43.3033,-11.844],[43.2267,-11.7519],[43.2561,-11.4321],[43.2807,-11.3912],[43.299,-11.3745],[43.3415,-11.3685],[43.393,-11.4086],[43.3794,-11.6142],[43.4477,-11.7525],[43.4915,-11.8621],[43.4658,-11.9013]]]]}},{"type":"Feature","properties":{"name":"Chad","iso":"TCD","iso2":"td","label":[18.645041,15.142959]},"geometry":{"type":"Polygon","coordinates":[[[23.9803,19.4966],[23.9834,15.7802],[23.9708,15.7215],[23.946,15.7035],[23.7082,15.745],[23.604,15.746],[23.458,15.714],[23.2435,15.6972],[23.1052,15.7025],[23.0092,15.6258],[22.9339,15.5331],[22.9695,15.3113],[22.9613,15.2381],[22.9323,15.1621],[22.8672,15.0966],[22.8021,15.0444],[22.7633,14.9987],[22.7149,14.8984],[22.6792,14.8515],[22.6824,14.7886],[22.6709,14.7225],[22.6318,14.6881],[22.532,14.6627],[22.4678,14.6334],[22.3815,14.5505],[22.425,14.4412],[22.4493,14.2842],[22.5282,14.2032],[22.5386,14.1619],[22.51,14.1274],[22.3394,14.0289],[22.1731,13.9106],[22.1282,13.8501],[22.1064,13.7998],[22.1076,13.7303],[22.1529,13.6264],[22.2023,13.5381],[22.2214,13.4716],[22.2326,13.3988],[22.2281,13.3296],[22.2026,13.2693],[22.158,13.215],[21.9902,13.1131],[21.9077,13.001],[21.8418,12.8647],[21.8253,12.7905],[21.8434,12.7412],[21.8781,12.6994],[21.9281,12.6781],[22.0007,12.6719],[22.2334,12.7095],[22.3523,12.6604],[22.4145,12.5464],[22.3902,12.463],[22.4353,12.3119],[22.4755,12.1292],[22.4725,12.0678],[22.4898,12.0447],[22.5644,12.033],[22.581,11.9901],[22.5563,11.6695],[22.5911,11.5799],[22.641,11.5159],[22.6974,11.4827],[22.7834,11.41],[22.849,11.4033],[22.9227,11.3449],[22.9428,11.2672],[22.9377,11.192],[22.8601,10.9197],[22.624,10.9773],[22.4938,10.9962],[22.3698,10.9515],[22.2359,10.8941],[22.1937,10.8514],[22.1563,10.8261],[22.0972,10.8301],[22.0432,10.8227],[22.0138,10.782],[21.9648,10.7367],[21.7715,10.6428],[21.7307,10.6087],[21.7065,10.5748],[21.7065,10.5379],[21.7262,10.4616],[21.7258,10.3666],[21.6827,10.2898],[21.6327,10.2383],[21.528,10.2078],[21.4969,10.1757],[21.396,10.0014],[21.3524,9.9691],[21.2639,9.9746],[21.0095,9.7132],[20.9842,9.6363],[20.891,9.5271],[20.7732,9.4057],[20.6682,9.3471],[20.6597,9.3245],[20.6314,9.3014],[20.5669,9.275],[20.3421,9.1271],[20.0727,9.1332],[19.9535,9.0751],[19.6684,9.0209],[19.6175,9.0236],[19.4003,9.0116],[19.1455,9.016],[19.0479,8.995],[18.9563,8.9389],[18.8883,8.8897],[18.8783,8.8732],[18.8886,8.8525],[18.886,8.836],[19.0642,8.7154],[19.1087,8.6562],[19.0639,8.5988],[19.0424,8.5903],[18.9064,8.4051],[18.7475,8.2438],[18.6662,8.1977],[18.6336,8.1677],[18.5916,8.0608],[18.5642,8.0459],[18.4551,8.032],[18.2389,8.0204],[17.9401,7.9854],[17.7608,7.9738],[17.6494,7.9836],[17.4927,7.9098],[17.4021,7.8846],[17.247,7.813],[17.118,7.7019],[17.072,7.6808],[16.8903,7.6337],[16.8182,7.5573],[16.7848,7.551],[16.6684,7.6518],[16.589,7.7434],[16.5502,7.8359],[16.5453,7.8655],[16.5232,7.86],[16.4594,7.819],[16.4044,7.7724],[16.3789,7.6835],[16.0307,7.5721],[15.9576,7.5076],[15.845,7.4753],[15.7013,7.4884],[15.5893,7.515],[15.4801,7.5238],[15.5324,7.6044],[15.5526,7.6645],[15.5578,7.738],[15.5498,7.7879],[15.4845,7.8127],[15.443,7.8519],[15.2523,8.3224],[15.1162,8.5573],[14.968,8.7073],[14.8607,8.7986],[14.8263,8.8103],[14.7328,8.8657],[14.5361,9.0252],[14.3323,9.2035],[14.2801,9.2851],[14.1779,9.4065],[14.005,9.5887],[13.9772,9.6916],[14.056,9.7844],[14.1397,9.9018],[14.2433,9.9797],[14.3772,9.9851],[14.5979,9.9531],[14.8358,9.9417],[15.0716,9.966],[15.1327,9.9829],[15.1932,9.9815],[15.32,9.9543],[15.5409,9.9603],[15.6549,10.0078],[15.5319,10.0885],[15.3999,10.2169],[15.2761,10.3574],[15.201,10.4845],[15.1322,10.6485],[15.0687,10.8511],[15.0299,11.1137],[15.0357,11.2625],[15.0555,11.3686],[15.122,11.5413],[15.078,11.6426],[15.0877,11.7244],[15.0813,11.8455],[14.9738,12.1083],[14.8807,12.2694],[14.8471,12.5021],[14.7612,12.6556],[14.6232,12.7299],[14.5447,12.8202],[14.5162,12.9797],[14.4617,13.0218],[14.2448,13.0773],[14.064,13.0785],[13.6063,13.7046],[13.4482,14.3807],[13.5137,14.4555],[13.6424,14.6308],[13.8071,14.9661],[14.368,15.7501],[15.4743,16.9084],[15.7351,19.9041],[15.7662,19.9826],[15.9488,20.3032],[15.9632,20.3462],[15.9293,20.3999],[15.6685,20.6724],[15.5871,20.7333],[15.5403,20.8749],[15.6073,20.9544],[15.2937,21.4115],[15.2158,21.4674],[15.1818,21.5234],[15.1723,21.9221],[15.089,22.4184],[14.979,22.9962],[15.9841,23.4452],[23.9803,19.4966]]]}},{"type":"Feature","properties":{"name":"Central African Republic","iso":"CAF","iso2":"cf","label":[20.906897,6.989681]},"geometry":{"type":"Polygon","coordinates":[[[24.1474,8.6656],[24.1948,8.6534],[24.2209,8.6083],[24.18,8.4611],[24.2084,8.3691],[24.2914,8.2914],[24.3755,8.2584],[24.4561,8.2395],[24.7367,8.1916],[24.8533,8.1375],[25.0072,7.9648],[25.2004,7.8079],[25.2474,7.7246],[25.2387,7.649],[25.1813,7.5572],[25.1901,7.5193],[25.2789,7.4275],[25.3807,7.3334],[25.5666,7.2287],[25.889,7.0649],[26.0365,6.9552],[26.0869,6.8721],[26.1693,6.7817],[26.3618,6.6353],[26.3086,6.4553],[26.3246,6.3962],[26.3533,6.3449],[26.4205,6.2742],[26.4475,6.183],[26.5143,6.0692],[26.5937,6.0175],[26.7264,5.9982],[26.7965,5.9455],[26.9423,5.8549],[27.0834,5.7769],[27.1439,5.7229],[27.1812,5.6751],[27.2134,5.6188],[27.2291,5.5625],[27.2325,5.4408],[27.2567,5.2896],[27.3324,5.1863],[27.4033,5.1092],[27.1149,5.1979],[27.0719,5.1998],[27.0206,5.1844],[26.8701,5.0757],[26.8221,5.0624],[26.6326,5.0852],[26.1735,5.1711],[25.7139,5.2837],[25.5251,5.3121],[25.4002,5.2559],[25.2831,5.0627],[25.2493,5.0246],[25.0652,4.9674],[24.9784,4.983],[24.7655,4.9301],[24.4371,5.01],[24.3198,4.9941],[24.2277,4.9539],[23.9917,4.8663],[23.8484,4.8164],[23.6818,4.7708],[23.5236,4.7013],[23.4172,4.6631],[23.3129,4.6635],[23.2188,4.703],[23.1159,4.7369],[22.9929,4.7438],[22.8646,4.7239],[22.7558,4.6467],[22.7117,4.5917],[22.6172,4.4456],[22.5057,4.2077],[22.4618,4.1598],[22.4222,4.135],[21.9082,4.2539],[21.687,4.2814],[21.5376,4.2448],[21.3502,4.3114],[21.2684,4.3231],[21.2298,4.3022],[21.1256,4.3322],[20.9558,4.4131],[20.793,4.4473],[20.6475,4.4356],[20.5581,4.4627],[20.4865,4.5416],[20.3936,4.6862],[20.2264,4.8296],[20.0023,4.9447],[19.8625,5.0313],[19.8065,5.0893],[19.686,5.1214],[19.501,5.1275],[19.3234,5.0708],[19.0686,4.8914],[18.8317,4.5234],[18.6999,4.3826],[18.5941,4.3462],[18.5675,4.2576],[18.6199,4.1166],[18.6337,3.9543],[18.5967,3.6787],[18.6104,3.4784],[18.5538,3.5102],[18.4998,3.6041],[18.4744,3.623],[18.3182,3.5808],[18.2371,3.5427],[18.1939,3.5054],[18.1609,3.4998],[18.1113,3.5511],[18.0723,3.5603],[18.0107,3.5508],[17.9071,3.5584],[17.8804,3.5539],[17.8066,3.5842],[17.5377,3.6616],[17.4916,3.6873],[17.438,3.6846],[17.2984,3.6172],[17.2247,3.5984],[17.0025,3.5567],[16.7644,3.5363],[16.6733,3.5352],[16.6107,3.5054],[16.5704,3.4631],[16.4963,3.2088],[16.4768,3.1651],[16.4801,3.101],[16.4596,2.8965],[16.4686,2.8317],[16.1834,2.2701],[16.1361,2.3638],[16.1067,2.4735],[16.0955,2.5992],[16.1019,2.6327],[16.0835,2.67],[16.0593,2.773],[16.0824,2.8391],[16.0635,2.9086],[15.958,3.0287],[15.9287,3.0758],[15.9049,3.0958],[15.8493,3.1031],[15.775,3.1272],[15.4584,3.4568],[15.1287,3.8269],[15.0621,3.9472],[15.0349,4.0164],[15.1154,4.0245],[15.1358,4.0369],[15.1369,4.0691],[15.0875,4.164],[15.0636,4.2849],[15.0228,4.3585],[14.8936,4.4719],[14.7704,4.5581],[14.7312,4.6024],[14.709,4.6656],[14.6617,5.0655],[14.6406,5.1791],[14.6018,5.2288],[14.5735,5.2517],[14.563,5.2799],[14.5681,5.3511],[14.5844,5.4147],[14.5836,5.4396],[14.6169,5.4955],[14.6169,5.8651],[14.5772,5.916],[14.5031,5.9169],[14.4639,5.9707],[14.4312,6.0387],[14.4407,6.0867],[14.5121,6.1619],[14.5594,6.1912],[14.6995,6.2502],[14.7393,6.2798],[14.7641,6.3164],[14.8619,6.5557],[14.9827,6.7453],[15.0346,6.7844],[15.1571,7.0636],[15.2067,7.2062],[15.2459,7.2636],[15.3791,7.3582],[15.4801,7.5238],[15.5893,7.515],[15.7013,7.4884],[15.845,7.4753],[15.9576,7.5076],[16.0307,7.5721],[16.3789,7.6835],[16.4044,7.7724],[16.4594,7.819],[16.5232,7.86],[16.5453,7.8655],[16.5502,7.8359],[16.589,7.7434],[16.6684,7.6518],[16.7848,7.551],[16.8182,7.5573],[16.8903,7.6337],[17.072,7.6808],[17.118,7.7019],[17.247,7.813],[17.4021,7.8846],[17.4927,7.9098],[17.6494,7.9836],[17.7608,7.9738],[17.9401,7.9854],[18.2389,8.0204],[18.4551,8.032],[18.5642,8.0459],[18.5916,8.0608],[18.6336,8.1677],[18.6662,8.1977],[18.7475,8.2438],[18.9064,8.4051],[19.0424,8.5903],[19.0639,8.5988],[19.1087,8.6562],[19.0642,8.7154],[18.886,8.836],[18.8886,8.8525],[18.8783,8.8732],[18.8883,8.8897],[19.0479,8.995],[19.1455,9.016],[19.4003,9.0116],[19.6175,9.0236],[19.6684,9.0209],[19.9535,9.0751],[20.0727,9.1332],[20.3421,9.1271],[20.5669,9.275],[20.6314,9.3014],[20.6597,9.3245],[20.6682,9.3471],[20.7732,9.4057],[20.891,9.5271],[20.9842,9.6363],[21.0095,9.7132],[21.2639,9.9746],[21.3524,9.9691],[21.396,10.0014],[21.4969,10.1757],[21.528,10.2078],[21.6327,10.2383],[21.6827,10.2898],[21.7258,10.3666],[21.7262,10.4616],[21.7065,10.5379],[21.7065,10.5748],[21.7307,10.6087],[21.7715,10.6428],[21.9648,10.7367],[22.0138,10.782],[22.0432,10.8227],[22.0972,10.8301],[22.1563,10.8261],[22.1937,10.8514],[22.2359,10.8941],[22.3698,10.9515],[22.4938,10.9962],[22.624,10.9773],[22.8601,10.9197],[22.9308,10.7953],[22.9644,10.7518],[23.2559,10.4578],[23.3123,10.3879],[23.4566,10.1743],[23.545,10.0301],[23.6463,9.8229],[23.6563,9.7104],[23.6428,9.6139],[23.6227,9.3406],[23.5961,9.2619],[23.4683,9.1147],[23.4628,9.0485],[23.4891,8.9933],[23.528,8.9706],[23.5519,8.9432],[23.5373,8.8158],[23.5832,8.7658],[23.6793,8.7325],[23.922,8.7097],[24.0481,8.6913],[24.1474,8.6656]]]}},{"type":"Feature","properties":{"name":"Cape Verde","iso":"CPV","iso2":"cv","label":[-23.639434,15.074761]},"geometry":{"type":"MultiPolygon","coordinates":[[[[-25.1698,16.9465],[-25.2672,16.9259],[-25.3083,16.9358],[-25.3219,17.0154],[-25.3416,17.0677],[-25.3371,17.091],[-25.1135,17.1937],[-25.0347,17.1765],[-24.9797,17.0947],[-25.0171,17.0493],[-25.1698,16.9465]]],[[[-23.4442,15.008],[-23.5047,14.9161],[-23.6372,14.9235],[-23.7054,14.9613],[-23.785,15.0769],[-23.7825,15.1661],[-23.7545,15.2436],[-23.7594,15.3108],[-23.7481,15.3285],[-23.7072,15.3169],[-23.7006,15.2716],[-23.58,15.1609],[-23.5353,15.1393],[-23.4442,15.008]]],[[[-24.8871,16.8181],[-24.9691,16.7942],[-25.02,16.7972],[-25.0931,16.8325],[-25.0701,16.8707],[-24.991,16.9132],[-24.9365,16.9221],[-24.8919,16.8465],[-24.8871,16.8181]]],[[[-22.9177,16.2373],[-22.8343,16.219],[-22.8026,16.2255],[-22.7494,16.2215],[-22.6926,16.169],[-22.6819,16.1133],[-22.7101,16.0434],[-22.8205,15.986],[-22.8841,15.9927],[-22.9593,16.0451],[-22.9161,16.1484],[-22.9177,16.2373]]],[[[-24.3083,14.8563],[-24.3861,14.8182],[-24.4405,14.8348],[-24.4922,14.8742],[-24.5171,14.9313],[-24.4969,14.9803],[-24.392,15.0383],[-24.3295,15.0195],[-24.2958,14.9295],[-24.3083,14.8563]]],[[[-24.0877,16.6225],[-24.0464,16.5931],[-24.0327,16.572],[-24.0941,16.561],[-24.2431,16.5994],[-24.2828,16.5759],[-24.3224,16.4931],[-24.3981,16.6184],[-24.3929,16.6645],[-24.3767,16.6778],[-24.2711,16.6449],[-24.0877,16.6225]]],[[[-22.8883,16.6591],[-22.9203,16.6079],[-22.9594,16.6831],[-22.9806,16.7009],[-22.9909,16.8088],[-22.9329,16.841],[-22.9047,16.8438],[-22.9039,16.7321],[-22.8883,16.6591]]],[[[-23.1821,15.1368],[-23.21,15.1331],[-23.2518,15.1781],[-23.2425,15.2405],[-23.2472,15.257],[-23.2103,15.3235],[-23.1377,15.3177],[-23.1193,15.2684],[-23.1159,15.1667],[-23.1821,15.1368]]]]}},{"type":"Feature","properties":{"name":"Cameroon","iso":"CMR","iso2":"cm","label":[12.473488,4.585041]},"geometry":{"type":"Polygon","coordinates":[[[8.5559,4.7552],[8.5852,4.8328],[8.801,5.1975],[8.9351,5.781],[8.9972,5.9177],[9.0602,6.0091],[9.3733,6.3196],[9.4902,6.4187],[9.66,6.532],[9.7799,6.7602],[9.8207,6.7839],[9.8742,6.8033],[10.1436,6.9964],[10.1678,6.9592],[10.1855,6.9128],[10.2055,6.8916],[10.2931,6.8768],[10.4132,6.8777],[10.4823,6.8913],[10.519,6.9305],[10.5563,7.0375],[10.5781,7.0577],[10.6062,7.0631],[10.7376,6.9883],[10.9542,6.7766],[11.0087,6.7391],[11.0325,6.6979],[11.0797,6.5055],[11.1064,6.4577],[11.1533,6.4379],[11.2373,6.4505],[11.3246,6.4847],[11.4018,6.5339],[11.4775,6.5974],[11.5291,6.655],[11.5517,6.6973],[11.563,6.8546],[11.5801,6.8889],[11.8614,7.1164],[11.8548,7.138],[11.7674,7.2723],[11.8092,7.3451],[11.8524,7.4007],[12.016,7.5897],[12.0252,7.7278],[12.156,7.9425],[12.2312,8.2274],[12.2334,8.2823],[12.4035,8.5956],[12.5827,8.6241],[12.6516,8.6678],[12.7312,8.7457],[12.7822,8.8179],[12.8065,8.8866],[12.8244,9.0194],[12.856,9.1708],[12.8757,9.3035],[12.9295,9.4263],[13.0194,9.4883],[13.1755,9.5396],[13.1987,9.5638],[13.2212,9.6452],[13.2438,9.9159],[13.2699,10.0362],[13.4146,10.1714],[13.4785,10.3833],[13.5354,10.6051],[13.6999,10.8731],[13.8921,11.1401],[13.9814,11.2119],[14.0567,11.245],[14.1433,11.2485],[14.2023,11.2682],[14.4095,11.4012],[14.4961,11.4461],[14.5598,11.4923],[14.5754,11.5324],[14.5816,11.5912],[14.5618,11.7287],[14.5974,11.8298],[14.6182,11.9866],[14.6271,12.1087],[14.6197,12.151],[14.581,12.2221],[14.5189,12.2982],[14.4154,12.3441],[14.2729,12.3565],[14.1975,12.3838],[14.1703,12.5241],[14.1601,12.6128],[14.064,13.0785],[14.2448,13.0773],[14.4617,13.0218],[14.5162,12.9797],[14.5447,12.8202],[14.6232,12.7299],[14.7612,12.6556],[14.8471,12.5021],[14.8807,12.2694],[14.9738,12.1083],[15.0813,11.8455],[15.0877,11.7244],[15.078,11.6426],[15.122,11.5413],[15.0555,11.3686],[15.0357,11.2625],[15.0299,11.1137],[15.0687,10.8511],[15.1322,10.6485],[15.201,10.4845],[15.2761,10.3574],[15.3999,10.2169],[15.5319,10.0885],[15.6549,10.0078],[15.5409,9.9603],[15.32,9.9543],[15.1932,9.9815],[15.1327,9.9829],[15.0716,9.966],[14.8358,9.9417],[14.5979,9.9531],[14.3772,9.9851],[14.2433,9.9797],[14.1397,9.9018],[14.056,9.7844],[13.9772,9.6916],[14.005,9.5887],[14.1779,9.4065],[14.2801,9.2851],[14.3323,9.2035],[14.5361,9.0252],[14.7328,8.8657],[14.8263,8.8103],[14.8607,8.7986],[14.968,8.7073],[15.1162,8.5573],[15.2523,8.3224],[15.443,7.8519],[15.4845,7.8127],[15.5498,7.7879],[15.5578,7.738],[15.5526,7.6645],[15.5324,7.6044],[15.3791,7.3582],[15.2459,7.2636],[15.2067,7.2062],[15.1571,7.0636],[15.0346,6.7844],[14.9827,6.7453],[14.8619,6.5557],[14.7641,6.3164],[14.7393,6.2798],[14.6995,6.2502],[14.5594,6.1912],[14.5121,6.1619],[14.4407,6.0867],[14.4312,6.0387],[14.4639,5.9707],[14.5031,5.9169],[14.5772,5.916],[14.6169,5.8651],[14.6169,5.4955],[14.5836,5.4396],[14.5844,5.4147],[14.5681,5.3511],[14.563,5.2799],[14.5735,5.2517],[14.6018,5.2288],[14.6406,5.1791],[14.6617,5.0655],[14.709,4.6656],[14.7312,4.6024],[14.7704,4.5581],[14.8936,4.4719],[15.0228,4.3585],[15.0636,4.2849],[15.0875,4.164],[15.1369,4.0691],[15.1358,4.0369],[15.1154,4.0245],[15.0349,4.0164],[15.0621,3.9472],[15.1287,3.8269],[15.4584,3.4568],[15.775,3.1272],[15.8493,3.1031],[15.9049,3.0958],[15.9287,3.0758],[15.958,3.0287],[16.0635,2.9086],[16.0824,2.8391],[16.0593,2.773],[16.0835,2.67],[16.1019,2.6327],[16.0955,2.5992],[16.1067,2.4735],[16.1361,2.3638],[16.1834,2.2701],[16.1766,2.2048],[16.1157,2.1678],[16.0801,2.1068],[16.0696,2.0217],[16.0879,1.9181],[16.135,1.7959],[16.1361,1.7242],[16.0594,1.6762],[15.9752,1.76],[15.8816,1.8166],[15.7416,1.915],[15.6003,1.9504],[15.4175,1.9567],[15.3388,1.9447],[15.2035,2.0245],[15.1601,2.0356],[15.0996,2.0023],[15.0578,2.0009],[15.0064,2.0138],[14.9024,2.0123],[14.8928,2.0693],[14.875,2.0805],[14.7629,2.0752],[14.7283,2.1224],[14.7133,2.1171],[14.6691,2.1321],[14.5789,2.1991],[14.4841,2.1547],[14.287,2.1604],[13.2936,2.1616],[13.2699,2.2242],[13.2203,2.2564],[13.1309,2.2594],[12.8675,2.2468],[12.6657,2.2568],[12.5298,2.2813],[12.3613,2.296],[12.1534,2.2844],[11.9397,2.2852],[11.559,2.3022],[11.3484,2.2997],[11.3533,2.2614],[11.3399,2.2338],[11.3287,2.1674],[9.9799,2.1678],[9.8701,2.2133],[9.8369,2.2424],[9.8262,2.2978],[9.8008,2.3044],[9.8218,2.5393],[9.8676,2.735],[9.8854,2.9166],[9.9484,3.0791],[9.915,3.2396],[9.8762,3.3098],[9.6721,3.5376],[9.7657,3.6238],[9.6424,3.6118],[9.6159,3.6965],[9.5562,3.798],[9.5928,3.8143],[9.6281,3.87],[9.7396,3.8529],[9.7361,3.8801],[9.6399,3.9653],[9.6492,4.0084],[9.6889,4.0564],[9.6695,4.0767],[9.6004,4.0269],[9.5506,4.0284],[9.5118,4.0606],[9.4837,4.0661],[9.5008,4.0007],[9.462,3.9425],[9.4253,3.9223],[9.3623,3.9257],[9.3109,3.9404],[9.2974,3.9729],[9.2491,3.9979],[9.1139,4.0411],[9.0001,4.0916],[8.9771,4.2304],[8.932,4.2902],[8.9136,4.3578],[8.9028,4.4352],[8.9183,4.5538],[8.8895,4.5728],[8.8564,4.5792],[8.8071,4.5734],[8.7619,4.58],[8.7079,4.6457],[8.6604,4.671],[8.6896,4.5502],[8.6563,4.5164],[8.5744,4.5262],[8.5396,4.5719],[8.5328,4.6059],[8.5705,4.7521],[8.5559,4.7552]]]}},{"type":"Feature","properties":{"name":"Burundi","iso":"BDI","iso2":"bi","label":[29.917086,-3.332836]},"geometry":{"type":"Polygon","coordinates":[[[30.5536,-2.4001],[30.5337,-2.4263],[30.4242,-2.6416],[30.4344,-2.6589],[30.4733,-2.6943],[30.424,-2.824],[30.4335,-2.8745],[30.4556,-2.8932],[30.515,-2.9176],[30.6043,-2.9353],[30.7095,-2.9772],[30.7803,-2.9849],[30.7969,-3.0151],[30.7936,-3.0693],[30.8111,-3.1164],[30.8114,-3.2006],[30.7902,-3.2746],[30.6818,-3.3094],[30.6261,-3.3474],[30.6109,-3.3664],[30.6246,-3.3887],[30.6319,-3.4187],[30.5299,-3.4925],[30.425,-3.5889],[30.3791,-3.7308],[30.3484,-3.7798],[30.2686,-3.8505],[30.1871,-3.9929],[30.1472,-4.0854],[29.9473,-4.3073],[29.7178,-4.4559],[29.4032,-4.4493],[29.3792,-4.2997],[29.3313,-4.0954],[29.2232,-3.9108],[29.2118,-3.8338],[29.2172,-3.4757],[29.2101,-3.3633],[29.2261,-3.1387],[29.2244,-3.0535],[29.1532,-2.9553],[29.0166,-2.7996],[29.0144,-2.7202],[29.0286,-2.6646],[29.0632,-2.6025],[29.1021,-2.5957],[29.1976,-2.6203],[29.2971,-2.673],[29.3498,-2.7915],[29.3902,-2.8086],[29.4637,-2.8084],[29.6514,-2.7928],[29.698,-2.7947],[29.7834,-2.7664],[29.8682,-2.7164],[29.8926,-2.6646],[29.9124,-2.5486],[29.9302,-2.3396],[29.9734,-2.3371],[30.0919,-2.4115],[30.1173,-2.4166],[30.1423,-2.414],[30.1833,-2.3771],[30.2338,-2.3471],[30.271,-2.3479],[30.4085,-2.313],[30.4822,-2.3761],[30.5536,-2.4001]]]}},{"type":"Feature","properties":{"name":"Burkina Faso","iso":"BFA","iso2":"bf","label":[-1.36388,12.673048]},"geometry":{"type":"Polygon","coordinates":[[[0.9005,10.9933],[0.643,10.9831],[0.5491,10.9554],[0.4927,10.955],[0.4842,10.992],[0.1593,11.0696],[-0.2995,11.1669],[-0.3125,11.1189],[-0.3458,11.0879],[-0.3956,11.0857],[-0.4303,11.0933],[-0.4917,11.0076],[-0.5977,10.9537],[-0.6271,10.9274],[-0.6485,10.9268],[-0.7014,10.989],[-0.7716,10.9953],[-0.9029,10.9847],[-0.9618,11.0017],[-1.0425,11.0101],[-1.2326,10.9972],[-1.5368,11.0227],[-1.5865,11.0089],[-1.5997,10.9977],[-2.7517,10.9864],[-2.7521,10.997],[-2.8299,10.9984],[-2.9073,10.728],[-2.9149,10.5923],[-2.8784,10.508],[-2.8372,10.4546],[-2.7912,10.4324],[-2.7866,10.4019],[-2.8234,10.3629],[-2.8203,10.3229],[-2.7771,10.2816],[-2.7665,10.2382],[-2.7885,10.1926],[-2.7832,10.0831],[-2.7507,9.9097],[-2.7498,9.7972],[-2.7805,9.7459],[-2.766,9.6581],[-2.7062,9.5339],[-2.6959,9.4813],[-2.7172,9.4571],[-2.7666,9.4247],[-2.8167,9.4258],[-2.9009,9.5346],[-2.9883,9.6874],[-3.0958,9.7521],[-3.1607,9.8492],[-3.2235,9.8955],[-3.2897,9.8822],[-3.3863,9.9003],[-3.5812,9.9243],[-3.7906,9.9172],[-3.8776,9.8949],[-4.1812,9.7817],[-4.2672,9.7433],[-4.3322,9.6457],[-4.4062,9.648],[-4.4803,9.6792],[-4.5266,9.7235],[-4.6258,9.7136],[-4.7218,9.7565],[-4.8145,9.8412],[-4.8827,9.8689],[-4.9699,9.9301],[-4.994,10.0465],[-5.0493,10.1283],[-5.0999,10.2416],[-5.1753,10.2926],[-5.2623,10.3197],[-5.3823,10.314],[-5.4613,10.3596],[-5.5235,10.426],[-5.479,10.5651],[-5.4757,10.6439],[-5.4571,10.7714],[-5.4686,10.9311],[-5.4905,11.0424],[-5.4242,11.0887],[-5.3474,11.1303],[-5.2999,11.206],[-5.2502,11.3758],[-5.2294,11.5225],[-5.2448,11.5768],[-5.2703,11.6199],[-5.2905,11.6833],[-5.302,11.7604],[-5.2881,11.8279],[-5.2302,11.8903],[-5.1575,11.9424],[-5.1059,11.9675],[-4.7979,12.0321],[-4.6993,12.0762],[-4.6272,12.1202],[-4.5869,12.155],[-4.546,12.2265],[-4.4799,12.2818],[-4.4287,12.3376],[-4.4219,12.5816],[-4.4599,12.6304],[-4.4806,12.6722],[-4.2271,12.7937],[-4.2252,12.8795],[-4.2606,12.9753],[-4.3103,13.0525],[-4.3287,13.119],[-4.151,13.3062],[-4.0512,13.3824],[-3.9473,13.4022],[-3.8535,13.3735],[-3.5758,13.1942],[-3.5276,13.1827],[-3.4699,13.1964],[-3.3967,13.2437],[-3.3018,13.2808],[-3.2667,13.4008],[-3.2702,13.5774],[-3.2486,13.6584],[-3.1984,13.6729],[-3.0387,13.6391],[-2.9972,13.6371],[-2.9508,13.6484],[-2.9171,13.6795],[-2.9259,13.7868],[-2.8739,13.9507],[-2.7789,14.0737],[-2.5867,14.2276],[-2.5269,14.2583],[-2.4572,14.2741],[-2.1132,14.1685],[-2.0571,14.1946],[-1.973,14.4565],[-1.8798,14.4815],[-1.7678,14.486],[-1.6951,14.5085],[-1.4937,14.6261],[-1.205,14.7615],[-1.0496,14.8195],[-0.908,14.9374],[-0.7604,15.0478],[-0.6665,15.0698],[-0.5365,15.0779],[-0.4545,15.0597],[-0.4323,15.0285],[-0.4054,15.0125],[-0.2359,15.0594],[0.0073,14.9848],[0.2175,14.9115],[0.2038,14.865],[0.2027,14.7828],[0.1639,14.4972],[0.3546,14.288],[0.3825,14.2458],[0.3549,14.139],[0.374,14.0764],[0.4292,13.9721],[0.6182,13.7034],[0.7478,13.6745],[0.786,13.65],[0.8979,13.6109],[0.9466,13.5812],[0.9777,13.552],[1.0179,13.4679],[1.126,13.4124],[1.2012,13.3575],[1.1709,13.3296],[1.0769,13.3408],[0.9885,13.3648],[0.9768,13.3245],[0.973,13.1704],[0.9873,13.0419],[1.0079,13.0248],[1.0968,13.0011],[1.5005,12.6765],[1.5649,12.6354],[1.6711,12.6198],[1.7898,12.6133],[1.8409,12.6279],[1.9562,12.7074],[2.0174,12.7162],[2.0738,12.714],[2.1046,12.7013],[2.1598,12.6364],[2.2115,12.5384],[2.2263,12.4661],[2.2214,12.4272],[2.2038,12.4126],[2.1094,12.3938],[2.0686,12.3791],[2.0584,12.358],[2.0729,12.3094],[2.0914,12.278],[2.1944,12.1365],[2.3434,11.946],[2.3892,11.8971],[2.2872,11.6913],[2.2309,11.6291],[1.9804,11.4184],[1.8576,11.4434],[1.6,11.4006],[1.5614,11.4491],[1.5014,11.4556],[1.4268,11.4471],[1.3997,11.4287],[1.3174,11.2953],[1.2805,11.274],[1.2347,11.261],[1.1787,11.2627],[1.1458,11.2519],[1.1455,11.2104],[1.1355,11.1744],[1.0976,11.1563],[1.0815,11.116],[1.0846,11.0764],[1.0623,11.0582],[0.9851,11.079],[0.958,11.0278],[0.9246,10.9928],[0.9005,10.9933]]]}},{"type":"Feature","properties":{"name":"Botswana","iso":"BWA","iso2":"bw","label":[24.179216,-22.102634]},"geometry":{"type":"Polygon","coordinates":[[[25.2588,-17.7936],[25.2391,-17.8431],[25.224,-17.9152],[25.2423,-17.969],[25.2824,-18.0412],[25.3402,-18.1045],[25.3844,-18.142],[25.4367,-18.235],[25.4893,-18.3513],[25.5583,-18.4418],[25.7612,-18.6492],[25.8119,-18.7971],[25.9394,-18.9387],[25.9592,-18.9856],[25.9507,-19.0817],[26.0819,-19.3699],[26.1681,-19.5383],[26.241,-19.5693],[26.4746,-19.7486],[26.6782,-19.8928],[27.0918,-20.0542],[27.1782,-20.101],[27.2215,-20.1458],[27.2567,-20.232],[27.2808,-20.4787],[27.4689,-20.4748],[27.6246,-20.4836],[27.6793,-20.503],[27.6996,-20.5307],[27.6948,-20.5945],[27.7043,-20.7664],[27.6881,-20.8483],[27.6694,-21.0643],[27.6935,-21.111],[27.8441,-21.2615],[27.9074,-21.3591],[27.9746,-21.5067],[28.0141,-21.5542],[28.0456,-21.573],[28.1816,-21.5894],[28.532,-21.6513],[28.7478,-21.7076],[28.9193,-21.766],[28.9907,-21.7814],[29.0256,-21.7969],[29.0373,-21.8113],[29.0158,-21.9399],[29.0233,-21.9812],[29.0424,-22.0184],[29.0715,-22.0475],[29.1068,-22.0657],[29.2372,-22.0795],[29.3152,-22.1577],[29.3648,-22.1939],[29.1299,-22.2133],[29.0135,-22.2784],[28.9458,-22.3951],[28.8398,-22.4809],[28.6955,-22.5354],[28.5429,-22.5729],[28.3817,-22.5934],[28.2102,-22.6937],[28.0279,-22.8737],[27.9351,-22.987],[27.9313,-23.0336],[27.8905,-23.0739],[27.8126,-23.108],[27.7686,-23.1489],[27.7583,-23.1968],[27.7168,-23.2196],[27.6438,-23.2177],[27.5927,-23.2526],[27.5632,-23.3246],[27.4987,-23.3684],[27.3992,-23.3836],[27.3134,-23.4242],[27.2412,-23.49],[27.1855,-23.5234],[27.1464,-23.5244],[27.0855,-23.5779],[26.987,-23.7046],[26.8351,-24.2408],[26.6178,-24.3955],[26.5016,-24.5133],[26.4518,-24.5827],[26.3972,-24.6136],[26.1309,-24.6715],[25.9121,-24.7475],[25.8818,-24.788],[25.8524,-24.9353],[25.7026,-25.3023],[25.6592,-25.4379],[25.5838,-25.6062],[25.5182,-25.6628],[25.4437,-25.7145],[25.3462,-25.7399],[25.2134,-25.7563],[24.9989,-25.754],[24.8692,-25.8135],[24.7481,-25.8174],[24.4002,-25.7498],[24.3306,-25.7429],[24.193,-25.6329],[24.1045,-25.6349],[23.9695,-25.6261],[23.8938,-25.6009],[23.6707,-25.434],[23.5215,-25.3444],[23.3893,-25.2914],[23.266,-25.2666],[23.1487,-25.2887],[23.0221,-25.3241],[22.9513,-25.3703],[22.8788,-25.4579],[22.8189,-25.5951],[22.7961,-25.6791],[22.6402,-26.0712],[22.5977,-26.1327],[22.5486,-26.1784],[22.4709,-26.219],[22.2176,-26.3889],[22.0909,-26.5802],[22.0109,-26.6358],[21.8332,-26.6783],[21.7883,-26.7101],[21.7381,-26.8068],[21.6947,-26.8409],[21.6463,-26.8542],[21.5014,-26.8427],[21.455,-26.8328],[21.071,-26.8518],[20.9539,-26.8211],[20.8709,-26.8088],[20.7398,-26.8488],[20.6851,-26.8225],[20.6414,-26.7422],[20.6199,-26.5809],[20.6268,-26.4438],[20.757,-26.2642],[20.815,-26.1649],[20.8227,-26.1206],[20.811,-26.0806],[20.7932,-25.9156],[20.6093,-25.4912],[20.4307,-25.1471],[20.3452,-25.0299],[19.9805,-24.7768],[19.9773,-22.0002],[20.971,-22.0002],[20.9795,-21.9619],[20.9741,-18.3188],[21.2325,-18.3068],[22.0114,-18.1986],[22.4601,-18.1157],[23.0999,-18.0096],[23.2193,-17.9997],[23.2986,-18.0273],[23.4598,-18.2311],[23.5602,-18.3864],[23.5806,-18.4529],[23.5997,-18.46],[23.6472,-18.4494],[23.7005,-18.4243],[23.8643,-18.2695],[23.8983,-18.2292],[24.0026,-18.1541],[24.1293,-18.0775],[24.2439,-18.0234],[24.359,-17.9782],[24.4122,-17.9895],[24.4749,-18.0285],[24.5306,-18.0527],[24.7922,-17.8646],[24.9091,-17.8214],[25.216,-17.7876],[25.2588,-17.7936]]]}},{"type":"Feature","properties":{"name":"Benin","iso":"BEN","iso2":"bj","label":[2.352018,10.324775]},"geometry":{"type":"Polygon","coordinates":[[[1.6227,6.2168],[1.6109,6.2508],[1.7779,6.2946],[1.7432,6.4263],[1.6393,6.5815],[1.5985,6.6102],[1.5775,6.6874],[1.6029,6.7381],[1.5908,6.7723],[1.582,6.877],[1.531,6.9924],[1.6247,6.9973],[1.6246,8.271],[1.6066,8.5593],[1.6002,9.05],[1.5663,9.1373],[1.4243,9.285],[1.3857,9.3617],[1.3789,9.463],[1.3471,9.5675],[1.3429,9.9629],[1.3301,9.997],[0.78,10.3596],[0.7634,10.3867],[0.7875,10.7103],[0.8219,10.7526],[0.8748,10.8857],[0.9005,10.9933],[0.9246,10.9928],[0.958,11.0278],[0.9851,11.079],[1.0623,11.0582],[1.0846,11.0764],[1.0815,11.116],[1.0976,11.1563],[1.1355,11.1744],[1.1455,11.2104],[1.1458,11.2519],[1.1787,11.2627],[1.2347,11.261],[1.2805,11.274],[1.3174,11.2953],[1.3997,11.4287],[1.4268,11.4471],[1.5014,11.4556],[1.5614,11.4491],[1.6,11.4006],[1.8576,11.4434],[1.9804,11.4184],[2.2309,11.6291],[2.2872,11.6913],[2.3633,11.8401],[2.3892,11.8971],[2.4127,11.9993],[2.3633,12.1884],[2.366,12.2219],[2.4693,12.2628],[2.5984,12.2943],[2.6484,12.2968],[2.6813,12.3128],[2.7285,12.3536],[2.8053,12.3838],[2.8781,12.3677],[3.1496,12.1181],[3.2674,11.9919],[3.2991,11.9271],[3.36,11.8805],[3.4498,11.852],[3.5317,11.7875],[3.5954,11.6963],[3.5539,11.6319],[3.4905,11.4992],[3.4878,11.3954],[3.6389,11.1769],[3.6953,11.1203],[3.7164,11.0796],[3.7568,10.7688],[3.8297,10.6538],[3.8345,10.6074],[3.7838,10.4359],[3.7718,10.4176],[3.7585,10.4127],[3.6803,10.4278],[3.6466,10.409],[3.6041,10.3507],[3.5779,10.2925],[3.5766,10.2684],[3.6459,10.1602],[3.6021,10.0045],[3.5572,9.9073],[3.4768,9.8519],[3.4048,9.8386],[3.3545,9.8128],[3.3252,9.7785],[3.3295,9.667],[3.2234,9.5656],[3.1361,9.4516],[3.148,9.3206],[3.1104,9.1883],[3.0449,9.0838],[2.7748,9.0485],[2.7329,8.7825],[2.7347,8.614],[2.7236,8.4419],[2.7031,8.3718],[2.7115,8.273],[2.7023,8.0498],[2.686,7.8737],[2.7077,7.8266],[2.7204,7.7231],[2.7193,7.6163],[2.7852,7.4769],[2.784,7.4434],[2.7505,7.3951],[2.7506,7.1432],[2.7567,7.0679],[2.7478,7.0198],[2.7214,6.9803],[2.7317,6.8528],[2.7746,6.7117],[2.7356,6.5957],[2.708,6.4277],[2.7064,6.3692],[2.2869,6.3281],[1.8182,6.2606],[1.6227,6.2168]]]}},{"type":"Feature","properties":{"name":"Angola","iso":"AGO","iso2":"ao","label":[17.984249,-12.182762]},"geometry":{"type":"MultiPolygon","coordinates":[[[[13.0728,-4.6348],[13.0573,-4.6511],[12.8297,-4.7366],[12.6748,-4.9054],[12.5962,-4.9784],[12.4515,-5.0715],[12.4532,-5.0906],[12.4874,-5.1127],[12.5224,-5.1489],[12.5189,-5.4246],[12.5037,-5.6958],[12.4846,-5.7188],[12.2553,-5.7465],[12.2137,-5.7587],[12.1555,-5.6327],[12.1801,-5.5387],[12.2065,-5.4683],[12.1771,-5.3248],[12.1105,-5.1972],[12.0399,-5.0352],[12.0184,-5.0043],[12.0775,-4.9521],[12.1671,-4.8377],[12.2043,-4.7786],[12.3079,-4.7655],[12.3467,-4.7241],[12.3846,-4.6191],[12.5015,-4.5875],[12.6417,-4.5312],[12.7194,-4.4697],[12.7982,-4.4306],[12.8481,-4.4289],[12.8811,-4.4451],[12.9714,-4.5518],[13.0728,-4.6348]]],[[[23.9665,-10.8718],[23.9883,-11.0028],[24.0256,-11.3156],[24.0467,-11.4054],[24.0293,-11.4392],[24.0146,-11.5177],[23.971,-11.6358],[23.9839,-11.725],[23.9623,-11.9879],[23.9589,-12.1178],[23.9965,-12.3507],[23.9913,-12.4222],[23.9094,-12.6361],[23.8865,-12.7433],[23.8824,-12.799],[23.9681,-12.9569],[23.963,-12.9885],[23.8432,-13.001],[21.9789,-13.001],[21.9798,-15.9556],[22.0402,-16.2628],[22.1507,-16.5972],[22.1939,-16.6281],[22.3051,-16.6896],[22.4595,-16.8151],[22.546,-16.9103],[22.9559,-17.2857],[23.3807,-17.6406],[21.9608,-17.9052],[21.4169,-18.0007],[21.3687,-17.9995],[21.2879,-17.963],[21.1135,-17.9558],[20.9083,-18.0061],[20.7455,-18.0197],[20.6251,-17.9967],[20.5076,-17.9525],[20.393,-17.8874],[20.1943,-17.8637],[19.9118,-17.8813],[19.6394,-17.8687],[19.3771,-17.8255],[19.1895,-17.8085],[19.0765,-17.8177],[18.9553,-17.8035],[18.826,-17.7663],[18.7181,-17.7032],[18.5882,-17.57],[18.4866,-17.4428],[18.4282,-17.4052],[18.3964,-17.3994],[17.8354,-17.3928],[14.4147,-17.3877],[14.0175,-17.4089],[13.938,-17.3888],[13.792,-17.2884],[13.6943,-17.2335],[13.5617,-17.1412],[13.476,-17.04],[13.4037,-17.0078],[13.1795,-16.9717],[13.1012,-16.9677],[12.9632,-17.0154],[12.8593,-17.0626],[12.7852,-17.1082],[12.5481,-17.2127],[12.3593,-17.2059],[12.3185,-17.2134],[12.2134,-17.21],[12.1144,-17.1646],[12.014,-17.1686],[11.9025,-17.2266],[11.7431,-17.2492],[11.7801,-16.8713],[11.8189,-16.7041],[11.8199,-16.5043],[11.797,-15.9864],[11.7694,-15.9153],[11.7509,-15.8319],[11.8497,-15.7684],[11.8999,-15.7198],[11.9679,-15.634],[12.0161,-15.5137],[12.0732,-15.2482],[12.2805,-14.6375],[12.3789,-14.0391],[12.5037,-13.7555],[12.5505,-13.4378],[12.8977,-13.0277],[12.9832,-12.7757],[13.1627,-12.6521],[13.417,-12.5204],[13.5979,-12.2861],[13.6855,-12.1238],[13.7854,-11.8128],[13.7843,-11.488],[13.8475,-11.0544],[13.8336,-10.9297],[13.739,-10.7571],[13.7214,-10.6336],[13.6335,-10.5123],[13.5395,-10.4207],[13.4954,-10.2571],[13.3322,-9.9989],[13.2875,-9.8268],[13.2094,-9.7032],[13.1969,-9.5507],[13.1557,-9.3896],[13.076,-9.2304],[12.9985,-9.048],[12.9985,-8.991],[13.0468,-8.9223],[13.0928,-8.8997],[13.0772,-8.9343],[13.0466,-8.9752],[13.0538,-9.0068],[13.359,-8.6872],[13.3783,-8.6247],[13.3681,-8.5548],[13.3664,-8.4692],[13.3785,-8.3697],[13.0908,-7.7802],[12.8623,-7.2318],[12.8234,-6.9548],[12.5213,-6.5903],[12.4021,-6.3534],[12.3343,-6.1873],[12.2833,-6.1243],[12.3025,-6.0926],[12.3804,-6.0843],[12.5535,-6.0459],[12.7906,-6.0039],[13.0098,-5.9076],[13.0682,-5.8648],[13.1844,-5.8563],[13.3026,-5.8818],[13.3465,-5.8634],[13.3715,-5.8618],[13.9785,-5.8572],[14.3986,-5.8927],[14.6579,-5.8889],[14.7494,-5.8801],[15.727,-5.8639],[16.3152,-5.8656],[16.4314,-5.9002],[16.5371,-5.9658],[16.608,-6.0516],[16.6396,-6.1146],[16.6973,-6.1643],[16.7178,-6.2414],[16.701,-6.346],[16.7094,-6.4717],[16.743,-6.6185],[16.8131,-6.7726],[16.9194,-6.934],[16.9658,-7.0621],[16.9521,-7.157],[16.9848,-7.2574],[17.0638,-7.3631],[17.1216,-7.419],[17.1551,-7.4613],[17.245,-7.6233],[17.536,-8.0759],[17.5796,-8.099],[17.7788,-8.0714],[17.9131,-8.0677],[18.0088,-8.1076],[18.0472,-8.1008],[18.1915,-8.0238],[18.4847,-7.9686],[18.5627,-7.9359],[18.6534,-7.936],[18.8983,-7.9981],[18.9444,-8.0015],[19.1427,-8.0015],[19.3408,-7.9666],[19.3717,-7.6551],[19.4193,-7.5573],[19.4799,-7.4722],[19.4874,-7.3907],[19.4838,-7.2795],[19.5276,-7.1444],[19.6604,-7.0371],[19.8752,-6.9863],[19.9975,-6.9765],[20.19,-6.9463],[20.4822,-6.9158],[20.59,-6.9199],[20.5987,-6.9352],[20.5369,-7.1218],[20.5358,-7.1828],[20.5584,-7.2444],[20.6078,-7.2777],[21.1903,-7.285],[21.7511,-7.3055],[21.7816,-7.3146],[21.8061,-7.3286],[21.8416,-7.421],[21.8336,-7.6017],[21.7801,-7.8654],[21.8009,-8.1119],[21.8959,-8.3411],[21.9054,-8.6934],[21.8295,-9.1685],[21.8132,-9.4688],[21.8566,-9.5942],[21.9486,-9.7256],[22.0892,-9.8628],[22.1978,-10.0406],[22.2745,-10.2591],[22.3024,-10.3967],[22.2816,-10.4533],[22.2832,-10.5516],[22.307,-10.6913],[22.2805,-10.784],[22.2035,-10.8295],[22.1779,-10.8923],[22.2167,-11.0127],[22.2262,-11.122],[22.2788,-11.1941],[22.3149,-11.1986],[22.393,-11.1595],[22.4861,-11.0867],[22.561,-11.0559],[22.6665,-11.0598],[22.8147,-11.0803],[23.0763,-11.0879],[23.1567,-11.0748],[23.4002,-10.9765],[23.464,-10.9693],[23.56,-10.9786],[23.6964,-11.0076],[23.8339,-11.0137],[23.9012,-10.9832],[23.9073,-10.9435],[23.9287,-10.8915],[23.9665,-10.8718]]]]}}]}